{"type": "FeatureCollection", "features": [{"type": "Feature", "geometry": {"type": "LineString", "coordinates": [[-1.17745, 47.363535, 12.87], [-1.177618, 47.363485, 13.01], [-1.17776, 47.363456, 13.11], [-1.177917, 47.363422, 13.23], [-1.178113, 47.36326, 13.46], [-1.178287, 47.363223, 13.59], [-1.178441, 47.363198, 13.71], [-1.178575, 47.363172, 13.81], [-1.178646, 47.363086, 13.92], [-1.178774, 47.363041, 14.02], [-1.178942, 47.36304, 14.15], [-1.179113, 47.36308, 14.28], [-1.179237, 47.363115, 14.38], [-1.179384, 47.363125, 14.48], [-1.179549, 47.36311, 14.59], [-1.179713, 47.363098, 14.64], [-1.179877, 47.363086, 14.7], [-1.180038, 47.36307, 14.75], [-1.180198, 47.363097, 14.8], [-1.180368, 47.363077, 14.86], [-1.180536, 47.363061, 14.91], [-1.180699, 47.363055, 14.96], [-1.180856, 47.363066, 15.01], [-1.181003, 47.363079, 15.06], [-1.181195, 47.363103, 15.12], [-1.181308, 47.363211, 15.18], [-1.181388, 47.363284, 15.23], [-1.181514, 47.363317, 15.27], [-1.181693, 47.363323, 15.33], [-1.181853, 47.36332, 15.38], [-1.182018, 47.363333, 15.42], [-1.182181, 47.363321, 15.34], [-1.18236, 47.363323, 15.26], [-1.182481, 47.363361, 15.19], [-1.182617, 47.363374, 15.13], [-1.182616, 47.363382, 12.54], [-1.182682, 47.363376, 12.57], [-1.182716, 47.363359, 12.51], [-1.182729, 47.363333, 12.45], [-1.182761, 47.363316, 12.35], [-1.182798, 47.363302, 12.25], [-1.182848, 47.363298, 12.12], [-1.182947, 47.363304, 11.89], [-1.183055, 47.363324, 11.66], [-1.183275, 47.363414, 11.24], [-1.183274, 47.363416, 14.33], [-1.183413, 47.363428, 14.34], [-1.183588, 47.363423, 14.37], [-1.183742, 47.363435, 14.39], [-1.183904, 47.36342, 14.41], [-1.184039, 47.363421, 14.43], [-1.184228, 47.363427, 14.46], [-1.1844, 47.363416, 14.48], [-1.184539, 47.363412, 14.5], [-1.184685, 47.363419, 14.52], [-1.184822, 47.363419, 14.51], [-1.184979, 47.363426, 14.5], [-1.185146, 47.363418, 14.49], [-1.185312, 47.363422, 14.48], [-1.185477, 47.363414, 14.47], [-1.185644, 47.363416, 14.45], [-1.185823, 47.363415, 14.44], [-1.186014, 47.36341, 14.43], [-1.186149, 47.36341, 14.42], [-1.186328, 47.363412, 14.41], [-1.186508, 47.363408, 14.4], [-1.186685, 47.363417, 14.39], [-1.186864, 47.363471, 14.37], [-1.187041, 47.363492, 14.36], [-1.187203, 47.36353, 14.35], [-1.18737, 47.363571, 14.28], [-1.187533, 47.363612, 14.16], [-1.187692, 47.363583, 14.05], [-1.187713, 47.363493, 13.96], [-1.187615, 47.363374, 13.82], [-1.187492, 47.363315, 13.72], [-1.187396, 47.363225, 13.61], [-1.187325, 47.363115, 13.49], [-1.187284, 47.362981, 13.36], [-1.187244, 47.362851, 13.22], [-1.187212, 47.362732, 13.1], [-1.187163, 47.362624, 12.99], [-1.187113, 47.36253, 12.89], [-1.187081, 47.362431, 12.79], [-1.18722, 47.36236, 12.67], [-1.187344, 47.362308, 12.57], [-1.187501, 47.362254, 12.47], [-1.18765, 47.362174, 12.37], [-1.187793, 47.362146, 12.29], [-1.187925, 47.362093, 12.21], [-1.18808, 47.36207, 12.12], [-1.188238, 47.362032, 12.03], [-1.188397, 47.362006, 11.94], [-1.188564, 47.36198, 11.85], [-1.188734, 47.361951, 11.75], [-1.18891, 47.361932, 11.65], [-1.189078, 47.36193, 11.56], [-1.189248, 47.361945, 11.47], [-1.189414, 47.361988, 11.37], [-1.189593, 47.36203, 11.27], [-1.189776, 47.362048, 11.17], [-1.189952, 47.362038, 11.11], [-1.19013, 47.362033, 11.12], [-1.190303, 47.362048, 11.12], [-1.190469, 47.362036, 11.12], [-1.190637, 47.362047, 11.13], [-1.190796, 47.362049, 11.13], [-1.190961, 47.36204, 11.14], [-1.191122, 47.362039, 11.14], [-1.191281, 47.36206, 11.14], [-1.191432, 47.362051, 11.15], [-1.191572, 47.362028, 11.15], [-1.191703, 47.361986, 11.16], [-1.191875, 47.361974, 11.16], [-1.19205, 47.361979, 11.16], [-1.192219, 47.361974, 11.17], [-1.19237, 47.361964, 11.17], [-1.192533, 47.361962, 11.17], [-1.192688, 47.361952, 11.17], [-1.192846, 47.36195, 11.16], [-1.193008, 47.361955, 11.16], [-1.193153, 47.361958, 11.15], [-1.193297, 47.361939, 11.15], [-1.193436, 47.361929, 11.15], [-1.193589, 47.361909, 11.14], [-1.19376, 47.361893, 11.14], [-1.193933, 47.361867, 11.13], [-1.194105, 47.36184, 11.12], [-1.194277, 47.361824, 11.12], [-1.194453, 47.361812, 11.11], [-1.194628, 47.361786, 11.11], [-1.194794, 47.361763, 11.1], [-1.194972, 47.361748, 11.1], [-1.195131, 47.361737, 11.09], [-1.195285, 47.361709, 11.09], [-1.195444, 47.361693, 11.09], [-1.19563, 47.361676, 11.08], [-1.195802, 47.361637, 11.08], [-1.195975, 47.361603, 11.08], [-1.19613, 47.361544, 11.07], [-1.196296, 47.36149, 11.07], [-1.196443, 47.361433, 11.07], [-1.196593, 47.361384, 11.07], [-1.196749, 47.361338, 11.06], [-1.196901, 47.361296, 11.06], [-1.197059, 47.361263, 11.06], [-1.197212, 47.361211, 11.06], [-1.197351, 47.361144, 11.05], [-1.197499, 47.361087, 11.05], [-1.19762, 47.361009, 11.05], [-1.197749, 47.360937, 11.05], [-1.19788, 47.36087, 11.06], [-1.198008, 47.360809, 11.06], [-1.198132, 47.360741, 11.06], [-1.198272, 47.360691, 11.06], [-1.198393, 47.360612, 11.06], [-1.19853, 47.360546, 11.07], [-1.198676, 47.360496, 11.07], [-1.198808, 47.360433, 11.07], [-1.198938, 47.360361, 11.07], [-1.199082, 47.360289, 11.08], [-1.199244, 47.360246, 11.08], [-1.199397, 47.360194, 11.08], [-1.199545, 47.360133, 11.08], [-1.1997, 47.360096, 11.09], [-1.199837, 47.360058, 11.1], [-1.199874, 47.360167, 11.12], [-1.199883, 47.360275, 11.15], [-1.19988, 47.360374, 11.17], [-1.199864, 47.360485, 11.19], [-1.19982, 47.360579, 11.21], [-1.199806, 47.360689, 11.24], [-1.19979, 47.360794, 11.26], [-1.199778, 47.360903, 11.28], [-1.199764, 47.361002, 11.3], [-1.199741, 47.361103, 11.33], [-1.199728, 47.361208, 11.35], [-1.19973, 47.361322, 11.37], [-1.199702, 47.36142, 11.39], [-1.199681, 47.361549, 11.42], [-1.199715, 47.361648, 11.44], [-1.199758, 47.36174, 11.46], [-1.199798, 47.361839, 11.45], [-1.19991, 47.361938, 11.39], [-1.200008, 47.362005, 11.34], [-1.200137, 47.361952, 11.29], [-1.20034, 47.361903, 11.23], [-1.200505, 47.361861, 11.17], [-1.200682, 47.361839, 11.11], [-1.200856, 47.361819, 11.05], [-1.201025, 47.3618, 11.0], [-1.201197, 47.361778, 10.94], [-1.20137, 47.361746, 10.89], [-1.201509, 47.36166, 10.83], [-1.201661, 47.361595, 10.77], [-1.201792, 47.36151, 10.71], [-1.201921, 47.361438, 10.66], [-1.202004, 47.36134, 10.61], [-1.202067, 47.361223, 10.57], [-1.20208, 47.361113, 10.54], [-1.202085, 47.361007, 10.51], [-1.202137, 47.360909, 10.48], [-1.20228, 47.36084, 10.45], [-1.202494, 47.360831, 10.41], [-1.202685, 47.360824, 10.37], [-1.202867, 47.360816, 10.33], [-1.203042, 47.360811, 10.3], [-1.203213, 47.360804, 10.27], [-1.20338, 47.360794, 10.23], [-1.20354, 47.360785, 10.2], [-1.203704, 47.360779, 10.17], [-1.203869, 47.360769, 10.14], [-1.204023, 47.360763, 10.11], [-1.204184, 47.360749, 10.08], [-1.204344, 47.360738, 10.04], [-1.204511, 47.360735, 10.01], [-1.204676, 47.360728, 9.98], [-1.204846, 47.360713, 9.94], [-1.205011, 47.360716, 9.91], [-1.205169, 47.360704, 9.88], [-1.205335, 47.360693, 9.84], [-1.205497, 47.360692, 9.81], [-1.205661, 47.360698, 9.78], [-1.205821, 47.360696, 9.74], [-1.206005, 47.360666, 9.7], [-1.206184, 47.360664, 9.67], [-1.206361, 47.360672, 9.63], [-1.206542, 47.360651, 9.6], [-1.206715, 47.360632, 9.57], [-1.206891, 47.360625, 9.6], [-1.207063, 47.360614, 9.63], [-1.207243, 47.360588, 9.66], [-1.20742, 47.360565, 9.69], [-1.207599, 47.360539, 9.72], [-1.207768, 47.360506, 9.75], [-1.207938, 47.360477, 9.78], [-1.208108, 47.360445, 9.81], [-1.208272, 47.3604, 9.84], [-1.20843, 47.360357, 9.87], [-1.208583, 47.360327, 9.89], [-1.208747, 47.36028, 9.92], [-1.2089, 47.360234, 9.95], [-1.209044, 47.360188, 9.98], [-1.209194, 47.360137, 10.0], [-1.209344, 47.360085, 10.03], [-1.209489, 47.360032, 10.06], [-1.209635, 47.359976, 10.09], [-1.209772, 47.359923, 10.12], [-1.209912, 47.359876, 10.14], [-1.210053, 47.35982, 10.17], [-1.210188, 47.359758, 10.2], [-1.210329, 47.359707, 10.22], [-1.210469, 47.359657, 10.25], [-1.210609, 47.35961, 10.28], [-1.210745, 47.35955, 10.3], [-1.210875, 47.359495, 10.33], [-1.211005, 47.35945, 10.35], [-1.211125, 47.359395, 10.38], [-1.211246, 47.359334, 10.4], [-1.211368, 47.359284, 10.43], [-1.21151, 47.35925, 10.45], [-1.211638, 47.359186, 10.48], [-1.211773, 47.359138, 10.5], [-1.211907, 47.359074, 10.53], [-1.212051, 47.359016, 10.56], [-1.212202, 47.358968, 10.58], [-1.212349, 47.358921, 10.61], [-1.212495, 47.358873, 10.63], [-1.212642, 47.358834, 10.66], [-1.212798, 47.35879, 10.69], [-1.212956, 47.358753, 10.71], [-1.213116, 47.358721, 10.74], [-1.213273, 47.358687, 10.77], [-1.213427, 47.358655, 10.79], [-1.213586, 47.358622, 10.82], [-1.213743, 47.358594, 10.84], [-1.213903, 47.358566, 10.87], [-1.214066, 47.358535, 10.9], [-1.214225, 47.358506, 10.92], [-1.214384, 47.358479, 10.95], [-1.214545, 47.358444, 10.98], [-1.214705, 47.358413, 11.01], [-1.21487, 47.358378, 11.04], [-1.215042, 47.358349, 11.07], [-1.215205, 47.358314, 11.09], [-1.21537, 47.358286, 11.12], [-1.21553, 47.358249, 11.15], [-1.215693, 47.358215, 11.18], [-1.215861, 47.358184, 11.21], [-1.216025, 47.358145, 11.23], [-1.21619, 47.358114, 11.26], [-1.216364, 47.358084, 11.29], [-1.216538, 47.358054, 11.32], [-1.216708, 47.358013, 11.33], [-1.216879, 47.357978, 11.35], [-1.217048, 47.357945, 11.36], [-1.217213, 47.357915, 11.38], [-1.217374, 47.357883, 11.39], [-1.21754, 47.357857, 11.4], [-1.217703, 47.35782, 11.42], [-1.217866, 47.357786, 11.43], [-1.218029, 47.357753, 11.45], [-1.218192, 47.357727, 11.46], [-1.21836, 47.357701, 11.47], [-1.218531, 47.357676, 11.49], [-1.218704, 47.357657, 11.5], [-1.218878, 47.357635, 11.52], [-1.219056, 47.357613, 11.53], [-1.219227, 47.357592, 11.53], [-1.219392, 47.357559, 11.53], [-1.219567, 47.357552, 11.53], [-1.219741, 47.357534, 11.53], [-1.21991, 47.357514, 11.53], [-1.220076, 47.35749, 11.53], [-1.220242, 47.357469, 11.53], [-1.22041, 47.35745, 11.53], [-1.22057, 47.357427, 11.53], [-1.220733, 47.357409, 11.53], [-1.220898, 47.357394, 11.53], [-1.221061, 47.357376, 11.53], [-1.221222, 47.357358, 11.53], [-1.221384, 47.357336, 11.53], [-1.221543, 47.357316, 11.53], [-1.221702, 47.357291, 11.53], [-1.221864, 47.357275, 11.5], [-1.222024, 47.357258, 11.47], [-1.222188, 47.357238, 11.44], [-1.222344, 47.357214, 11.42], [-1.222506, 47.357203, 11.39], [-1.222671, 47.357178, 11.36], [-1.222834, 47.357157, 11.33], [-1.22299, 47.357132, 11.31], [-1.223149, 47.357118, 11.28], [-1.223307, 47.357101, 11.25], [-1.22346, 47.357078, 11.23], [-1.223618, 47.357063, 11.2], [-1.223769, 47.357079, 11.18], [-1.223889, 47.357156, 11.15], [-1.223973, 47.357246, 11.12], [-1.224063, 47.357328, 11.1], [-1.224153, 47.3574, 11.12], [-1.224291, 47.357418, 11.16], [-1.224423, 47.357351, 11.22], [-1.224555, 47.357295, 11.27], [-1.224683, 47.357228, 11.32], [-1.224814, 47.357163, 11.37], [-1.224938, 47.3571, 11.42], [-1.22507, 47.35704, 11.47], [-1.225207, 47.356974, 11.53], [-1.225333, 47.356913, 11.58], [-1.225454, 47.356846, 11.63], [-1.22558, 47.356786, 11.68], [-1.225713, 47.356724, 11.73], [-1.225845, 47.356656, 11.79], [-1.225979, 47.356586, 11.84], [-1.226108, 47.356522, 11.89], [-1.22624, 47.356452, 11.95], [-1.226368, 47.356384, 11.96], [-1.2265, 47.356324, 11.96], [-1.226634, 47.356263, 11.97], [-1.22676, 47.356202, 11.98], [-1.226882, 47.356141, 11.98], [-1.227009, 47.356085, 11.99], [-1.227128, 47.356011, 12.0], [-1.227264, 47.355958, 12.0], [-1.227379, 47.355893, 12.01], [-1.227494, 47.355833, 12.01], [-1.227593, 47.355766, 12.02], [-1.227749, 47.355736, 12.03], [-1.227884, 47.355676, 12.03], [-1.228008, 47.355617, 12.04], [-1.228169, 47.355539, 12.05], [-1.228284, 47.35548, 12.05], [-1.228399, 47.355422, 12.06], [-1.228525, 47.355364, 12.03], [-1.228641, 47.355307, 12.0], [-1.228763, 47.355238, 11.97], [-1.228898, 47.355183, 11.94], [-1.229016, 47.355119, 11.9], [-1.229144, 47.355058, 11.87], [-1.229266, 47.354986, 11.84], [-1.2294, 47.354928, 11.81], [-1.22952, 47.354866, 11.78], [-1.229641, 47.354803, 11.75], [-1.229766, 47.354744, 11.71], [-1.22989, 47.354685, 11.68], [-1.230012, 47.354617, 11.65], [-1.230135, 47.354561, 11.62], [-1.230246, 47.3545, 11.59], [-1.230371, 47.354448, 11.56], [-1.23049, 47.354383, 11.53], [-1.230612, 47.354328, 11.52], [-1.230735, 47.354267, 11.53], [-1.230855, 47.354205, 11.53], [-1.230992, 47.354146, 11.54], [-1.231118, 47.354078, 11.55], [-1.231241, 47.354015, 11.55], [-1.231365, 47.353961, 11.56], [-1.231486, 47.353905, 11.56], [-1.231596, 47.353841, 11.57], [-1.231717, 47.353791, 11.58], [-1.231842, 47.353739, 11.58], [-1.231962, 47.353688, 11.59], [-1.232094, 47.353636, 11.59], [-1.232228, 47.353578, 11.6], [-1.232364, 47.353515, 11.61], [-1.232498, 47.35347, 11.61], [-1.232618, 47.353426, 11.62], [-1.232768, 47.353366, 11.63], [-1.232934, 47.353312, 11.61], [-1.233058, 47.353272, 11.61], [-1.233181, 47.353229, 11.6], [-1.233314, 47.353183, 11.59], [-1.233467, 47.353126, 11.58], [-1.233644, 47.353064, 11.56], [-1.23382, 47.353007, 11.55], [-1.233987, 47.352963, 11.54], [-1.234148, 47.352917, 11.53], [-1.234308, 47.352873, 11.52], [-1.234465, 47.352829, 11.51], [-1.234619, 47.352787, 11.5], [-1.234772, 47.352741, 11.49], [-1.234919, 47.352698, 11.48], [-1.235064, 47.352656, 11.47], [-1.235217, 47.352614, 11.46], [-1.235366, 47.352569, 11.48], [-1.235525, 47.352538, 11.5], [-1.235669, 47.352487, 11.51], [-1.235814, 47.352439, 11.53], [-1.235966, 47.352401, 11.54], [-1.236113, 47.352355, 11.56], [-1.236258, 47.352312, 11.57], [-1.236406, 47.352278, 11.59], [-1.236553, 47.352238, 11.61], [-1.236697, 47.352191, 11.62], [-1.236849, 47.352155, 11.64], [-1.236996, 47.352112, 11.65], [-1.237143, 47.352076, 11.67], [-1.237283, 47.352032, 11.68], [-1.237419, 47.351993, 11.7], [-1.237556, 47.351959, 11.71], [-1.237682, 47.351919, 11.73], [-1.237862, 47.351866, 11.78], [-1.238036, 47.351817, 11.83], [-1.23817, 47.351759, 11.86], [-1.238306, 47.351745, 11.9], [-1.238479, 47.351697, 11.94], [-1.238656, 47.351654, 11.99], [-1.238798, 47.351626, 12.02], [-1.238927, 47.351571, 12.06], [-1.239066, 47.351536, 12.1], [-1.239197, 47.351496, 12.13], [-1.239332, 47.351457, 12.17], [-1.239467, 47.351422, 12.2], [-1.239602, 47.351386, 12.24], [-1.239731, 47.35135, 12.27], [-1.23987, 47.351312, 12.31], [-1.240002, 47.351259, 12.35], [-1.24013, 47.351215, 12.34], [-1.240273, 47.351153, 12.28], [-1.240442, 47.351133, 12.23], [-1.240578, 47.351113, 12.19], [-1.240731, 47.351071, 12.14], [-1.24091, 47.351023, 12.08], [-1.241079, 47.350977, 12.02], [-1.241242, 47.350932, 11.97], [-1.241402, 47.350885, 11.92], [-1.24156, 47.350841, 11.86], [-1.241726, 47.35081, 11.81], [-1.241875, 47.350758, 11.76], [-1.242029, 47.350714, 11.71], [-1.242184, 47.350676, 11.66], [-1.242336, 47.350627, 11.61], [-1.242498, 47.350585, 11.55], [-1.242662, 47.350554, 11.54], [-1.24281, 47.350501, 11.53], [-1.242956, 47.350454, 11.53], [-1.243108, 47.350413, 11.52], [-1.243258, 47.35038, 11.52], [-1.243392, 47.350329, 11.51], [-1.243536, 47.350292, 11.51], [-1.243679, 47.35025, 11.5], [-1.243822, 47.350209, 11.49], [-1.243963, 47.350157, 11.49], [-1.244108, 47.350111, 11.48], [-1.244248, 47.350065, 11.48], [-1.244394, 47.350023, 11.47], [-1.24452, 47.349978, 11.47], [-1.244655, 47.349918, 11.46], [-1.244802, 47.349863, 11.45], [-1.244952, 47.349806, 11.46], [-1.245092, 47.349748, 11.51], [-1.245229, 47.349691, 11.55], [-1.245369, 47.349636, 11.6], [-1.245504, 47.349569, 11.64], [-1.245639, 47.349509, 11.69], [-1.245777, 47.349446, 11.73], [-1.245919, 47.349381, 11.78], [-1.24606, 47.349318, 11.83], [-1.246199, 47.349255, 11.88], [-1.246336, 47.349192, 11.92], [-1.246475, 47.349129, 11.97], [-1.246612, 47.349067, 12.02], [-1.246749, 47.349008, 12.06], [-1.246894, 47.348961, 12.11], [-1.247013, 47.348889, 12.15], [-1.24715, 47.348829, 12.2], [-1.247292, 47.348766, 12.3], [-1.247429, 47.348706, 12.39], [-1.247579, 47.348634, 12.49], [-1.247736, 47.348569, 12.59], [-1.247889, 47.348503, 12.69], [-1.24804, 47.348441, 12.79], [-1.248183, 47.348379, 12.88], [-1.248311, 47.348321, 12.96], [-1.248436, 47.348268, 13.05], [-1.248562, 47.348216, 13.13], [-1.248701, 47.34817, 13.21], [-1.248835, 47.348121, 13.3], [-1.248966, 47.34807, 13.38], [-1.249108, 47.348032, 13.46], [-1.249232, 47.347978, 13.55], [-1.24937, 47.347939, 13.63], [-1.249524, 47.347918, 13.54], [-1.249657, 47.347884, 13.4], [-1.249793, 47.347835, 13.24], [-1.249949, 47.347799, 13.07], [-1.250108, 47.34776, 12.89], [-1.25026, 47.347712, 12.72], [-1.250431, 47.347686, 12.54], [-1.250605, 47.347629, 12.34], [-1.250809, 47.347595, 12.12], [-1.250998, 47.347539, 11.91], [-1.251192, 47.347507, 11.7], [-1.251372, 47.347461, 11.5], [-1.251555, 47.347435, 11.31], [-1.251723, 47.347411, 11.13], [-1.251886, 47.347384, 10.96], [-1.252055, 47.347364, 10.93], [-1.252218, 47.347337, 10.96], [-1.252381, 47.347319, 10.99], [-1.252542, 47.347311, 11.01], [-1.252683, 47.347277, 11.04], [-1.252819, 47.347264, 11.06], [-1.253008, 47.347244, 11.09], [-1.253199, 47.34721, 11.12], [-1.25332, 47.347164, 11.14], [-1.253494, 47.347174, 11.17], [-1.253528, 47.347304, 11.2], [-1.253555, 47.347404, 11.23], [-1.253572, 47.3475, 11.25], [-1.253554, 47.347634, 11.28], [-1.25356, 47.347725, 11.3], [-1.253552, 47.347821, 11.32], [-1.253556, 47.347928, 11.3], [-1.253653, 47.347999, 11.22], [-1.253839, 47.348024, 11.13], [-1.254015, 47.348036, 11.04], [-1.254123, 47.347964, 10.96], [-1.254322, 47.347949, 10.85], [-1.254518, 47.347951, 10.75], [-1.254718, 47.347935, 10.65], [-1.2549, 47.34794, 10.55], [-1.255075, 47.347916, 10.46], [-1.255247, 47.347901, 10.37], [-1.255416, 47.347872, 10.28], [-1.255582, 47.347827, 10.19], [-1.255751, 47.347796, 10.1], [-1.255917, 47.347759, 10.01], [-1.256087, 47.347725, 9.94], [-1.256262, 47.347716, 9.9], [-1.256432, 47.347694, 9.86], [-1.256606, 47.347696, 9.82], [-1.256776, 47.347704, 9.78], [-1.256944, 47.347728, 9.74], [-1.257111, 47.347749, 9.7], [-1.257275, 47.347759, 9.66], [-1.257425, 47.347798, 9.62], [-1.257572, 47.347823, 9.58], [-1.257723, 47.347842, 9.55], [-1.257874, 47.347873, 9.51], [-1.258027, 47.347903, 9.47], [-1.258178, 47.347932, 9.43], [-1.258336, 47.347963, 9.39], [-1.258501, 47.347997, 9.35], [-1.258662, 47.348032, 9.33], [-1.258826, 47.348064, 9.32], [-1.258993, 47.348096, 9.31], [-1.259162, 47.348124, 9.31], [-1.259329, 47.348155, 9.3], [-1.259501, 47.348194, 9.29], [-1.259677, 47.348228, 9.28], [-1.259854, 47.34825, 9.27], [-1.260016, 47.348279, 9.27], [-1.260175, 47.348311, 9.26], [-1.260335, 47.348349, 9.25], [-1.260494, 47.348397, 9.24], [-1.260641, 47.348443, 9.24], [-1.260784, 47.348482, 9.23], [-1.260901, 47.348543, 9.22], [-1.261043, 47.348595, 9.21], [-1.261186, 47.348644, 9.43], [-1.261326, 47.348689, 9.68], [-1.261469, 47.348734, 9.95], [-1.261621, 47.348778, 10.22], [-1.261771, 47.348825, 10.5], [-1.26192, 47.348872, 10.77], [-1.262067, 47.348923, 11.04], [-1.262201, 47.348974, 11.3], [-1.262335, 47.349017, 11.55], [-1.262451, 47.349071, 11.78], [-1.262573, 47.349109, 12.0], [-1.262708, 47.349135, 12.24], [-1.262832, 47.349168, 12.46], [-1.262963, 47.349195, 12.69], [-1.263104, 47.349209, 12.92], [-1.263245, 47.349221, 13.16], [-1.26338, 47.34924, 13.39], [-1.263515, 47.349247, 13.61], [-1.263651, 47.349247, 13.72], [-1.263792, 47.349262, 13.83], [-1.263937, 47.349268, 13.93], [-1.264073, 47.349278, 14.03], [-1.264207, 47.349288, 14.13], [-1.264356, 47.349287, 14.24], [-1.264495, 47.349311, 14.35], [-1.264639, 47.349319, 14.45], [-1.26478, 47.34933, 14.56], [-1.264924, 47.349351, 14.67], [-1.265067, 47.349365, 14.77], [-1.265201, 47.349376, 14.87], [-1.26539, 47.349401, 15.01], [-1.265567, 47.349437, 15.15], [-1.265725, 47.349465, 15.27], [-1.265869, 47.34948, 15.37], [-1.266029, 47.349498, 15.49], [-1.266189, 47.349524, 15.47], [-1.266313, 47.349557, 15.18], [-1.266524, 47.349522, 14.72], [-1.266623, 47.349415, 14.32], [-1.266731, 47.34929, 13.87], [-1.266855, 47.349166, 13.4], [-1.266977, 47.349036, 12.91], [-1.267118, 47.348915, 12.43], [-1.267234, 47.348781, 11.94], [-1.267358, 47.348652, 11.45], [-1.26748, 47.348529, 10.99], [-1.267595, 47.348412, 10.55], [-1.267705, 47.348315, 10.16], [-1.267879, 47.348274, 9.9], [-1.268042, 47.348236, 9.85], [-1.268212, 47.348219, 9.8], [-1.268384, 47.348187, 9.75], [-1.268552, 47.348156, 9.7], [-1.268725, 47.348135, 9.65], [-1.268893, 47.348101, 9.6], [-1.269064, 47.348069, 9.55], [-1.269244, 47.348043, 9.5], [-1.269426, 47.348024, 9.45], [-1.269603, 47.347985, 9.4], [-1.269775, 47.347961, 9.35], [-1.269942, 47.347925, 9.3], [-1.270112, 47.347897, 9.25], [-1.270283, 47.347865, 9.2], [-1.270451, 47.347839, 9.19], [-1.270613, 47.347809, 9.23], [-1.270777, 47.347786, 9.28], [-1.270945, 47.347773, 9.32], [-1.271109, 47.34776, 9.36], [-1.271269, 47.347741, 9.41], [-1.271425, 47.347724, 9.45], [-1.271576, 47.347716, 9.49], [-1.271728, 47.347707, 9.53], [-1.271889, 47.347698, 9.57], [-1.272039, 47.347675, 9.61], [-1.272188, 47.347664, 9.65], [-1.272351, 47.347659, 9.69], [-1.272507, 47.347646, 9.74], [-1.272669, 47.347638, 9.78], [-1.272828, 47.347622, 9.82], [-1.272984, 47.347608, 9.86], [-1.273141, 47.347593, 9.78], [-1.273295, 47.347578, 9.68], [-1.273454, 47.347571, 9.58], [-1.273617, 47.347553, 9.47], [-1.273781, 47.347537, 9.37], [-1.273945, 47.347527, 9.26], [-1.274119, 47.347523, 9.15], [-1.274287, 47.3475, 9.04], [-1.274454, 47.347488, 8.93], [-1.274613, 47.347465, 8.83], [-1.274763, 47.34745, 8.73], [-1.274922, 47.34744, 8.63], [-1.275066, 47.347417, 8.53], [-1.275226, 47.3474, 8.43], [-1.275358, 47.347377, 8.34], [-1.275501, 47.347365, 8.24], [-1.275694, 47.347346, 8.18], [-1.275885, 47.347324, 8.24], [-1.276025, 47.347303, 8.29], [-1.276164, 47.347292, 8.33], [-1.276294, 47.347314, 8.38], [-1.276428, 47.347321, 8.42], [-1.276618, 47.347319, 8.48], [-1.276796, 47.347319, 8.54], [-1.276954, 47.347308, 8.59], [-1.277093, 47.347298, 8.64], [-1.277266, 47.347265, 8.69], [-1.277426, 47.347231, 8.75], [-1.2776, 47.347173, 8.81], [-1.277733, 47.347121, 8.86], [-1.277868, 47.347109, 8.9], [-1.278046, 47.34708, 8.96], [-1.278193, 47.347066, 9.01], [-1.278335, 47.347041, 9.06], [-1.278486, 47.347023, 9.11], [-1.278325, 47.347033, 9.17], [-1.280252, 47.346805, 9.84], [-1.280415, 47.346795, 9.89], [-1.280563, 47.34685, 9.96], [-1.280647, 47.346945, 10.04], [-1.280675, 47.347054, 10.12], [-1.280714, 47.347146, 10.19], [-1.280739, 47.347248, 10.27], [-1.280758, 47.347342, 10.34], [-1.280918, 47.347341, 10.42], [-1.281091, 47.347291, 10.51], [-1.281263, 47.347236, 10.61], [-1.281443, 47.347197, 10.7], [-1.281619, 47.347156, 10.79], [-1.281795, 47.347112, 10.88], [-1.281975, 47.347068, 10.98], [-1.282157, 47.34702, 11.08], [-1.28229, 47.346994, 11.14], [-1.282419, 47.346959, 11.21], [-1.282562, 47.346936, 11.22], [-1.282692, 47.346891, 11.18], [-1.282823, 47.346852, 11.15], [-1.282955, 47.346819, 11.12], [-1.283134, 47.346768, 11.08], [-1.283305, 47.346705, 11.03], [-1.283475, 47.346659, 10.99], [-1.283616, 47.346626, 10.96], [-1.283674, 47.346491, 10.91], [-1.283662, 47.346383, 10.88], [-1.283704, 47.346294, 10.85], [-1.283641, 47.346197, 10.81], [-1.2833, 47.346171, 10.74], [-1.283123, 47.34612, 10.69], [-1.282932, 47.346085, 10.65], [-1.28276, 47.346017, 10.67], [-1.282601, 47.345985, 10.69], [-1.282689, 47.346073, 10.71], [-1.282575, 47.345977, 10.73], [-1.282446, 47.345939, 10.74], [-1.282323, 47.345903, 10.76], [-1.282364, 47.345807, 10.78], [-1.282436, 47.345703, 10.79], [-1.282479, 47.345606, 10.81], [-1.28251, 47.345515, 10.83], [-1.282558, 47.34543, 10.84], [-1.2826, 47.345337, 10.86], [-1.282596, 47.345231, 10.88], [-1.28275, 47.34518, 10.9], [-1.282931, 47.34515, 10.92], [-1.283078, 47.34514, 10.94], [-1.283235, 47.345139, 10.96], [-1.28339, 47.345131, 11.06], [-1.283549, 47.34512, 11.16], [-1.283698, 47.345127, 11.25], [-1.283848, 47.345142, 11.35], [-1.284, 47.345162, 11.44], [-1.284142, 47.345197, 11.54], [-1.284289, 47.345237, 11.64], [-1.284429, 47.345276, 11.73], [-1.284563, 47.345324, 11.83], [-1.284685, 47.345374, 11.92], [-1.284703, 47.345355, 7.66], [-1.284891, 47.345455, 7.56], [-1.285049, 47.345552, 7.7], [-1.285201, 47.345673, 8.02], [-1.285319, 47.34578, 8.4], [-1.285851, 47.346386, 10.87], [-1.285992, 47.346501, 11.37], [-1.286461, 47.346219, 9.49], [-1.286949, 47.345988, 8.48], [-1.287058, 47.345943, 8.47], [-1.287384, 47.34584, 8.64], [-1.28807, 47.345643, 11.52], [-1.288671, 47.345504, 14.93], [-1.28898, 47.345394, 15.57], [-1.289167, 47.345296, 15.11], [-1.28917, 47.345299, 13.64], [-1.289308, 47.345242, 13.65], [-1.289425, 47.345191, 13.66], [-1.28953, 47.345124, 13.68], [-1.289632, 47.345055, 13.69], [-1.289759, 47.345005, 13.7], [-1.289885, 47.344942, 13.71], [-1.290049, 47.344876, 13.73], [-1.290176, 47.344832, 13.74], [-1.290321, 47.344794, 13.75], [-1.290464, 47.34475, 13.76], [-1.290601, 47.344712, 13.77], [-1.290794, 47.344663, 13.79], [-1.29094, 47.344629, 13.8], [-1.291109, 47.344581, 13.64], [-1.29125, 47.344543, 13.45], [-1.291267, 47.344447, 13.27], [-1.291325, 47.344346, 13.07], [-1.291605, 47.344369, 12.71], [-1.291754, 47.344416, 12.51], [-1.291954, 47.344415, 12.26], [-1.292149, 47.344412, 12.01], [-1.292348, 47.344417, 11.76], [-1.292538, 47.344417, 11.52], [-1.292719, 47.344404, 11.29], [-1.292898, 47.344415, 11.07], [-1.293093, 47.344422, 10.82], [-1.293233, 47.344424, 10.65], [-1.293431, 47.344427, 10.46], [-1.293612, 47.344408, 10.43], [-1.293779, 47.344366, 10.39], [-1.293962, 47.344353, 10.36], [-1.294159, 47.344353, 10.32], [-1.294293, 47.344344, 10.3], [-1.294431, 47.344332, 10.27], [-1.294573, 47.344317, 10.25], [-1.294714, 47.344299, 10.22], [-1.294851, 47.344277, 10.19], [-1.294984, 47.344261, 10.17], [-1.295165, 47.344228, 10.13], [-1.295328, 47.344205, 10.1], [-1.295514, 47.344176, 10.07], [-1.295698, 47.344165, 10.03], [-1.295878, 47.344142, 10.0], [-1.296043, 47.344121, 9.97], [-1.296232, 47.344087, 9.94], [-1.296415, 47.344032, 9.91], [-1.296532, 47.343989, 9.89], [-1.296644, 47.343936, 9.86], [-1.296746, 47.343878, 9.84], [-1.296899, 47.343804, 9.81], [-1.297039, 47.343729, 9.79], [-1.297173, 47.343651, 9.76], [-1.297346, 47.34358, 9.72], [-1.297464, 47.343522, 9.7], [-1.297583, 47.343469, 9.68], [-1.297699, 47.343413, 9.66], [-1.297819, 47.343361, 9.63], [-1.29794, 47.343303, 9.61], [-1.298063, 47.343247, 9.59], [-1.298178, 47.343199, 9.57], [-1.29835, 47.343133, 9.67], [-1.298525, 47.343069, 9.8], [-1.298697, 47.343011, 9.94], [-1.298816, 47.34297, 10.03], [-1.298977, 47.342921, 10.15], [-1.299153, 47.342865, 10.29], [-1.299326, 47.342807, 10.42], [-1.299482, 47.342757, 10.54], [-1.299623, 47.342714, 10.65], [-1.299792, 47.342674, 10.77], [-1.299986, 47.342649, 10.91], [-1.300186, 47.342653, 11.05], [-1.300381, 47.342617, 11.19], [-1.300535, 47.342568, 11.31], [-1.300668, 47.342558, 11.4], [-1.300816, 47.342524, 11.57], [-1.300963, 47.342469, 11.76], [-1.301114, 47.342428, 11.95], [-1.301294, 47.342366, 12.17], [-1.301463, 47.342317, 12.38], [-1.301627, 47.342271, 12.58], [-1.301751, 47.342234, 12.73], [-1.301896, 47.342192, 12.91], [-1.302034, 47.342148, 13.08], [-1.302177, 47.342094, 13.26], [-1.302321, 47.342047, 13.44], [-1.302452, 47.341989, 13.62], [-1.302598, 47.341931, 13.81], [-1.302731, 47.341876, 13.99], [-1.302849, 47.341826, 14.14], [-1.302732, 47.341874, 14.3], [-1.302855, 47.341827, 14.37], [-1.302983, 47.341775, 14.32], [-1.303115, 47.341717, 14.28], [-1.303266, 47.341655, 14.22], [-1.303407, 47.341598, 14.18], [-1.303562, 47.34154, 14.12], [-1.303722, 47.341483, 14.07], [-1.303872, 47.34142, 14.02], [-1.304023, 47.341362, 13.97], [-1.304181, 47.34129, 13.91], [-1.304349, 47.341217, 13.85], [-1.304469, 47.341164, 13.81], [-1.3046, 47.341111, 13.77], [-1.304762, 47.341066, 13.71], [-1.30489, 47.340984, 13.66], [-1.305053, 47.340925, 13.61], [-1.305214, 47.340841, 13.45], [-1.305411, 47.340766, 13.27], [-1.305583, 47.340681, 13.1], [-1.30574, 47.340598, 12.94], [-1.305886, 47.340518, 12.79], [-1.306017, 47.340424, 12.63], [-1.306164, 47.340346, 12.48], [-1.306301, 47.340271, 12.34], [-1.306428, 47.340191, 12.2], [-1.306544, 47.340121, 12.08], [-1.306658, 47.340042, 11.94], [-1.306767, 47.339963, 11.82], [-1.306867, 47.339887, 11.69], [-1.30697, 47.339827, 11.59], [-1.306877, 47.339697, 11.44], [-1.306788, 47.339623, 11.38], [-1.306805, 47.339517, 11.31], [-1.306973, 47.339443, 11.23], [-1.307074, 47.33936, 11.16], [-1.307191, 47.339284, 11.09], [-1.307317, 47.339222, 11.03], [-1.30742, 47.339148, 10.96], [-1.30751, 47.339077, 10.91], [-1.307602, 47.339, 10.84], [-1.307695, 47.33891, 10.78], [-1.307783, 47.338819, 10.71], [-1.307876, 47.338728, 10.64], [-1.307971, 47.338642, 10.57], [-1.308053, 47.338549, 10.51], [-1.308152, 47.338456, 10.43], [-1.308247, 47.338357, 10.36], [-1.308343, 47.338258, 10.4], [-1.30844, 47.338162, 10.46], [-1.308537, 47.338063, 10.52], [-1.308634, 47.337968, 10.58], [-1.308733, 47.337869, 10.64], [-1.30883, 47.337767, 10.71], [-1.308936, 47.337674, 10.77], [-1.309033, 47.337578, 10.83], [-1.309142, 47.337492, 10.89], [-1.309241, 47.337403, 10.95], [-1.309343, 47.33732, 11.0], [-1.309431, 47.337235, 11.06], [-1.309546, 47.337146, 11.12], [-1.30965, 47.337055, 11.18], [-1.309743, 47.336976, 11.23], [-1.309821, 47.336903, 11.28], [-1.309876, 47.336785, 11.25], [-1.31004, 47.336717, 11.21], [-1.310149, 47.336655, 11.18], [-1.31027, 47.336581, 11.14], [-1.310382, 47.336504, 11.11], [-1.310502, 47.336432, 11.08], [-1.310613, 47.336356, 11.04], [-1.31072, 47.336279, 11.01], [-1.310828, 47.3362, 10.97], [-1.310937, 47.336122, 10.94], [-1.311067, 47.336051, 10.9], [-1.311193, 47.335972, 10.87], [-1.311318, 47.335896, 10.83], [-1.31146, 47.335826, 10.79], [-1.311598, 47.335744, 10.75], [-1.311739, 47.335679, 10.72], [-1.311876, 47.335603, 10.72], [-1.312018, 47.335549, 10.72], [-1.312143, 47.33548, 10.73], [-1.312273, 47.335417, 10.73], [-1.312398, 47.335346, 10.74], [-1.312516, 47.335269, 10.74], [-1.312654, 47.335206, 10.75], [-1.312776, 47.335149, 10.75], [-1.312929, 47.335072, 10.75], [-1.313081, 47.334977, 10.76], [-1.313229, 47.334924, 10.76], [-1.31337, 47.33485, 10.77], [-1.313514, 47.334765, 10.77], [-1.313663, 47.334681, 10.78], [-1.313812, 47.334618, 10.79], [-1.313943, 47.334557, 10.75], [-1.314071, 47.334486, 10.7], [-1.314205, 47.334415, 10.64], [-1.314335, 47.334347, 10.58], [-1.314469, 47.334277, 10.53], [-1.314606, 47.334206, 10.47], [-1.314745, 47.334132, 10.41], [-1.314892, 47.334063, 10.35], [-1.31503, 47.333986, 10.29], [-1.315172, 47.333912, 10.23], [-1.315307, 47.333841, 10.17], [-1.315449, 47.333774, 10.11], [-1.315586, 47.333697, 10.05], [-1.315729, 47.333628, 9.99], [-1.315872, 47.333556, 9.93], [-1.316016, 47.333482, 9.91], [-1.316157, 47.33341, 9.95], [-1.316304, 47.333342, 10.0], [-1.316432, 47.333269, 10.04], [-1.316577, 47.333192, 10.08], [-1.316717, 47.333118, 10.13], [-1.316856, 47.333046, 10.17], [-1.316996, 47.33297, 10.22], [-1.317137, 47.332895, 10.26], [-1.317279, 47.332824, 10.31], [-1.317418, 47.332749, 10.35], [-1.317559, 47.332684, 10.4], [-1.317699, 47.332606, 10.44], [-1.317836, 47.332531, 10.49], [-1.317974, 47.332461, 10.53], [-1.318103, 47.332384, 10.56], [-1.318238, 47.332314, 10.54], [-1.318369, 47.332247, 10.52], [-1.318499, 47.33218, 10.5], [-1.31864, 47.332108, 10.48], [-1.318777, 47.332033, 10.46], [-1.318917, 47.331969, 10.44], [-1.319048, 47.331908, 10.43], [-1.319163, 47.331844, 10.41], [-1.319278, 47.331791, 10.39], [-1.319385, 47.331724, 10.38], [-1.319541, 47.331658, 10.36], [-1.319682, 47.331586, 10.34], [-1.319776, 47.331512, 10.32], [-1.319836, 47.331407, 10.3], [-1.319929, 47.331295, 10.28], [-1.320044, 47.331192, 10.21], [-1.320137, 47.331128, 10.08], [-1.320263, 47.33109, 9.95], [-1.320389, 47.330996, 9.76], [-1.32055, 47.330947, 9.59], [-1.320679, 47.330987, 9.45], [-1.320823, 47.330947, 9.29], [-1.32098, 47.330908, 9.13], [-1.321123, 47.33083, 8.95], [-1.321259, 47.330754, 8.77], [-1.321397, 47.330685, 8.6], [-1.321533, 47.330606, 8.42], [-1.321661, 47.330533, 8.26], [-1.321792, 47.330485, 8.11], [-1.321957, 47.330411, 7.92], [-1.322082, 47.330347, 7.76], [-1.322205, 47.330276, 7.64], [-1.322332, 47.330208, 7.63], [-1.32246, 47.330143, 7.62], [-1.322585, 47.330077, 7.61], [-1.322714, 47.330009, 7.6], [-1.322846, 47.329943, 7.59], [-1.322978, 47.329873, 7.58], [-1.323115, 47.329799, 7.56], [-1.323256, 47.329731, 7.55], [-1.323389, 47.329662, 7.54], [-1.323527, 47.329593, 7.53], [-1.323658, 47.329515, 7.52], [-1.323806, 47.329444, 7.5], [-1.323947, 47.329364, 7.49], [-1.324092, 47.329289, 7.48], [-1.324242, 47.329226, 7.47], [-1.324379, 47.329148, 7.58], [-1.324525, 47.329076, 7.74], [-1.324665, 47.328999, 7.9], [-1.324808, 47.328927, 8.06], [-1.324948, 47.328855, 8.22], [-1.325088, 47.328783, 8.37], [-1.32523, 47.328711, 8.53], [-1.32537, 47.328638, 8.69], [-1.325514, 47.328567, 8.85], [-1.325649, 47.328493, 9.0], [-1.325784, 47.328418, 9.16], [-1.325936, 47.32835, 9.32], [-1.326065, 47.328283, 9.46], [-1.326179, 47.328209, 9.6], [-1.326293, 47.32813, 9.75], [-1.326398, 47.328052, 9.82], [-1.326499, 47.327984, 9.81], [-1.326632, 47.327892, 9.79], [-1.326793, 47.327828, 9.77], [-1.326932, 47.327781, 9.76], [-1.327075, 47.327729, 9.74], [-1.327218, 47.327663, 9.73], [-1.327354, 47.327599, 9.71], [-1.327487, 47.327533, 9.7], [-1.327627, 47.327463, 9.68], [-1.32776, 47.327387, 9.67], [-1.327895, 47.327309, 9.65], [-1.328028, 47.327228, 9.63], [-1.328165, 47.327148, 9.62], [-1.328293, 47.327066, 9.6], [-1.328417, 47.326978, 9.58], [-1.328545, 47.326899, 9.47], [-1.328669, 47.326816, 9.35], [-1.328792, 47.326734, 9.23], [-1.32891, 47.326652, 9.11], [-1.329031, 47.326574, 8.99], [-1.329128, 47.326487, 8.88], [-1.329238, 47.326415, 8.77], [-1.329281, 47.326329, 8.68], [-1.329324, 47.326218, 8.56], [-1.329455, 47.326138, 8.44], [-1.329574, 47.326071, 8.33], [-1.329678, 47.326014, 8.24], [-1.329802, 47.325935, 8.12], [-1.329913, 47.325846, 8.0], [-1.330016, 47.325765, 7.89], [-1.330126, 47.325666, 7.76], [-1.330205, 47.325592, 7.81], [-1.330286, 47.325507, 7.92], [-1.330361, 47.325407, 8.04], [-1.330466, 47.325291, 8.19], [-1.330573, 47.325182, 8.34], [-1.330676, 47.325079, 8.47], [-1.330779, 47.324981, 8.61], [-1.330882, 47.324885, 8.74], [-1.330984, 47.324792, 8.86], [-1.331081, 47.324703, 8.99], [-1.331172, 47.324626, 9.09], [-1.331299, 47.32453, 9.24], [-1.331413, 47.32444, 9.37], [-1.33144, 47.324345, 9.47], [-1.331606, 47.324072, 9.75], [-1.331713, 47.323986, 9.8], [-1.331855, 47.323893, 9.85], [-1.331961, 47.323823, 9.9], [-1.332101, 47.323741, 9.95], [-1.332232, 47.323675, 10.0], [-1.332347, 47.323619, 10.04], [-1.332469, 47.323555, 10.08], [-1.332585, 47.323488, 10.13], [-1.332732, 47.323423, 10.18], [-1.332906, 47.323366, 10.24], [-1.333021, 47.323309, 10.28], [-1.333156, 47.323256, 10.32], [-1.333284, 47.323185, 10.37], [-1.333432, 47.323131, 10.42], [-1.33356, 47.323064, 10.47], [-1.333695, 47.323008, 10.47], [-1.333808, 47.322958, 10.46], [-1.333938, 47.322893, 10.43], [-1.334071, 47.322846, 10.41], [-1.334198, 47.322773, 10.39], [-1.334315, 47.322699, 10.36], [-1.334212, 47.322758, 10.34], [-1.334088, 47.322826, 10.32], [-1.333987, 47.32289, 10.3], [-1.334101, 47.322817, 10.28], [-1.334251, 47.322753, 10.25], [-1.334375, 47.3227, 10.23], [-1.334491, 47.322648, 10.21], [-1.334609, 47.322586, 10.19], [-1.334741, 47.322529, 10.17], [-1.33487, 47.322474, 10.14], [-1.334998, 47.322418, 10.12], [-1.335126, 47.322354, 10.1], [-1.335256, 47.322292, 10.08], [-1.335375, 47.32223, 10.07], [-1.335502, 47.32218, 10.05], [-1.335625, 47.322131, 10.03], [-1.335727, 47.322064, 10.02], [-1.335855, 47.322015, 10.0], [-1.335989, 47.321964, 9.98], [-1.336123, 47.321911, 9.97], [-1.336261, 47.321869, 9.95], [-1.336381, 47.32181, 9.93], [-1.336486, 47.321742, 9.92], [-1.336646, 47.321718, 9.9], [-1.336784, 47.32166, 9.88], [-1.336924, 47.321606, 9.86], [-1.337066, 47.321561, 9.85], [-1.337204, 47.321498, 9.83], [-1.337341, 47.321439, 9.81], [-1.337476, 47.321384, 9.9], [-1.337605, 47.321321, 10.0], [-1.337734, 47.321269, 10.09], [-1.33786, 47.321212, 10.19], [-1.337987, 47.321159, 10.28], [-1.338114, 47.321103, 10.38], [-1.338242, 47.321043, 10.47], [-1.338374, 47.320982, 10.57], [-1.3385, 47.320912, 10.68], [-1.338633, 47.320848, 10.78], [-1.338757, 47.320785, 10.87], [-1.338892, 47.320719, 10.98], [-1.339016, 47.320645, 11.08], [-1.339145, 47.320575, 11.19], [-1.339272, 47.320496, 11.29], [-1.339409, 47.32042, 11.4], [-1.339541, 47.320358, 11.5], [-1.33969, 47.320284, 11.61], [-1.339794, 47.320211, 11.7], [-1.339932, 47.320122, 11.81], [-1.340038, 47.320053, 11.9], [-1.340149, 47.319974, 12.0], [-1.340265, 47.319898, 12.09], [-1.340385, 47.319827, 12.19], [-1.340492, 47.319759, 12.28], [-1.340603, 47.319696, 12.36], [-1.340742, 47.319607, 12.47], [-1.340843, 47.319546, 12.56], [-1.340948, 47.319472, 12.65], [-1.341067, 47.319407, 12.74], [-1.341187, 47.319336, 12.83], [-1.341295, 47.319266, 12.92], [-1.341406, 47.319194, 13.01], [-1.341514, 47.319126, 13.01], [-1.341618, 47.319058, 12.96], [-1.341727, 47.318978, 12.91], [-1.341851, 47.318872, 12.84], [-1.341987, 47.318775, 12.77], [-1.342117, 47.318688, 12.71], [-1.342246, 47.318605, 12.65], [-1.342364, 47.318532, 12.6], [-1.342465, 47.318465, 12.55], [-1.342612, 47.31838, 12.48], [-1.342721, 47.318313, 12.43], [-1.342836, 47.318241, 12.38], [-1.342949, 47.318168, 12.32], [-1.343071, 47.318091, 12.27], [-1.343189, 47.318012, 12.21], [-1.343315, 47.317936, 12.15], [-1.343435, 47.317857, 12.07], [-1.343553, 47.317777, 11.97], [-1.343681, 47.317699, 11.88], [-1.343796, 47.317621, 11.78], [-1.343923, 47.317553, 11.69], [-1.344049, 47.317466, 11.59], [-1.344186, 47.31739, 11.49], [-1.344302, 47.317311, 11.4], [-1.344418, 47.317238, 11.31], [-1.344523, 47.317172, 11.23], [-1.344623, 47.317102, 11.15], [-1.344741, 47.317038, 11.06], [-1.344849, 47.316963, 10.97], [-1.344968, 47.31689, 10.88], [-1.345085, 47.316818, 10.79], [-1.3452, 47.316743, 10.7], [-1.345309, 47.316667, 10.64], [-1.345429, 47.31659, 10.65], [-1.34555, 47.316517, 10.66], [-1.34567, 47.316451, 10.67], [-1.345796, 47.316395, 10.68], [-1.345895, 47.316322, 10.69], [-1.345996, 47.316253, 10.7], [-1.346134, 47.316165, 10.72], [-1.346253, 47.316092, 10.73], [-1.346377, 47.316014, 10.74], [-1.3465, 47.315931, 10.75], [-1.346632, 47.315851, 10.76], [-1.346764, 47.315776, 10.78], [-1.346887, 47.31569, 10.79], [-1.347015, 47.315606, 10.8], [-1.347146, 47.315531, 10.81], [-1.347274, 47.315452, 10.82], [-1.347395, 47.315367, 10.81], [-1.347525, 47.315286, 10.8], [-1.347654, 47.315204, 10.79], [-1.347781, 47.315121, 10.77], [-1.347917, 47.315042, 10.76], [-1.348036, 47.314956, 10.75], [-1.348171, 47.314879, 10.74], [-1.3483, 47.314798, 10.73], [-1.348428, 47.314717, 10.72], [-1.348559, 47.314631, 10.71], [-1.348699, 47.314543, 10.69], [-1.348828, 47.314459, 10.68], [-1.348967, 47.314379, 10.67], [-1.349097, 47.314296, 10.66], [-1.349225, 47.314213, 10.6], [-1.349353, 47.314132, 10.48], [-1.349485, 47.314051, 10.36], [-1.349614, 47.313972, 10.23], [-1.349741, 47.313892, 10.11], [-1.34987, 47.313817, 9.99], [-1.350009, 47.313751, 9.87], [-1.350139, 47.313671, 9.75], [-1.350267, 47.313589, 9.63], [-1.3504, 47.313508, 9.5], [-1.350526, 47.313432, 9.38], [-1.35063, 47.313367, 9.29], [-1.350768, 47.313283, 9.16], [-1.350847, 47.313182, 9.04], [-1.350855, 47.313073, 8.92], [-1.350961, 47.312986, 8.81], [-1.351076, 47.312932, 8.85], [-1.351221, 47.312889, 8.93], [-1.351358, 47.312857, 9.0], [-1.351442, 47.312787, 9.06], [-1.351544, 47.312725, 9.13], [-1.351651, 47.312664, 9.2], [-1.351759, 47.312593, 9.27], [-1.351876, 47.312521, 9.35], [-1.352003, 47.312453, 9.43], [-1.352119, 47.312378, 9.51], [-1.352243, 47.312303, 9.59], [-1.352363, 47.312224, 9.67], [-1.352483, 47.312146, 9.75], [-1.352607, 47.312065, 9.83], [-1.352737, 47.311996, 9.91], [-1.352847, 47.311909, 10.0], [-1.35296, 47.311836, 10.07], [-1.353088, 47.311765, 10.1], [-1.353211, 47.311679, 10.13], [-1.353336, 47.311594, 10.15], [-1.353461, 47.311523, 10.17], [-1.353586, 47.311445, 10.19], [-1.353713, 47.311364, 10.21], [-1.353829, 47.311284, 10.23], [-1.353961, 47.311201, 10.26], [-1.354088, 47.311122, 10.28], [-1.354207, 47.311029, 10.3], [-1.354326, 47.310941, 10.32], [-1.354447, 47.31086, 10.35], [-1.354556, 47.310765, 10.37], [-1.354672, 47.310681, 10.39], [-1.354785, 47.310589, 10.41], [-1.3549, 47.310497, 10.44], [-1.355013, 47.310407, 10.47], [-1.355115, 47.310307, 10.49], [-1.355232, 47.310221, 10.52], [-1.355338, 47.310124, 10.55], [-1.355449, 47.310031, 10.58], [-1.355552, 47.309939, 10.61], [-1.355669, 47.309849, 10.63], [-1.355771, 47.309751, 10.66], [-1.355887, 47.309658, 10.69], [-1.355999, 47.30956, 10.72], [-1.356112, 47.309478, 10.75], [-1.356208, 47.309384, 10.77], [-1.356308, 47.309292, 10.8], [-1.35641, 47.309203, 10.83], [-1.356507, 47.309114, 10.84], [-1.356612, 47.30903, 10.79], [-1.35671, 47.308944, 10.75], [-1.356813, 47.308859, 10.7], [-1.356899, 47.308775, 10.66], [-1.356999, 47.308691, 10.61], [-1.357102, 47.308606, 10.57], [-1.3572, 47.30852, 10.52], [-1.357294, 47.308441, 10.48], [-1.357396, 47.308356, 10.44], [-1.357497, 47.308277, 10.39], [-1.357599, 47.308187, 10.35], [-1.357694, 47.308093, 10.3], [-1.357805, 47.308012, 10.25], [-1.357905, 47.307918, 10.2], [-1.358017, 47.307824, 10.15], [-1.358126, 47.307729, 10.1], [-1.358239, 47.30764, 10.11], [-1.358341, 47.307544, 10.12], [-1.358456, 47.307457, 10.13], [-1.358554, 47.307359, 10.13], [-1.358656, 47.30727, 10.14], [-1.358766, 47.307189, 10.15], [-1.358859, 47.307101, 10.16], [-1.358951, 47.307014, 10.16], [-1.359062, 47.30693, 10.17], [-1.35916, 47.306841, 10.18], [-1.359263, 47.306752, 10.19], [-1.359367, 47.306667, 10.19], [-1.359466, 47.306576, 10.2], [-1.359575, 47.306485, 10.21], [-1.359681, 47.306389, 10.22], [-1.35979, 47.306301, 10.21], [-1.359881, 47.306216, 10.14], [-1.359978, 47.306143, 10.08], [-1.360093, 47.306034, 9.99], [-1.360174, 47.305952, 9.93], [-1.360258, 47.30587, 9.87], [-1.360413, 47.30583, 9.79], [-1.360514, 47.30575, 9.72], [-1.360645, 47.305645, 9.64], [-1.36076, 47.305575, 9.57], [-1.360868, 47.305495, 9.5], [-1.360986, 47.30542, 9.43], [-1.361108, 47.305346, 9.36], [-1.361226, 47.30527, 9.29], [-1.361356, 47.305194, 9.21], [-1.361487, 47.305118, 9.14], [-1.361611, 47.305037, 9.06], [-1.361747, 47.304971, 9.04], [-1.361881, 47.304902, 9.02], [-1.362018, 47.304829, 9.0], [-1.362152, 47.304756, 8.98], [-1.362297, 47.30469, 8.96], [-1.362435, 47.304618, 8.94], [-1.362579, 47.304557, 8.92], [-1.362721, 47.304483, 8.9], [-1.362854, 47.304412, 8.88], [-1.362996, 47.304346, 8.85], [-1.363141, 47.304276, 8.83], [-1.363287, 47.304211, 8.81], [-1.363427, 47.304139, 8.79], [-1.363579, 47.304066, 8.77], [-1.363719, 47.303995, 8.75], [-1.363858, 47.303929, 8.81], [-1.364, 47.303859, 8.9], [-1.364138, 47.303791, 8.99], [-1.364283, 47.303724, 9.08], [-1.364423, 47.303661, 9.16], [-1.364556, 47.303593, 9.25], [-1.364697, 47.303524, 9.34], [-1.364847, 47.303452, 9.43], [-1.36499, 47.303381, 9.52], [-1.365134, 47.303313, 9.61], [-1.36528, 47.303243, 9.7], [-1.365416, 47.303169, 9.79], [-1.365571, 47.303101, 9.89], [-1.365721, 47.303027, 9.98], [-1.365865, 47.302955, 10.07], [-1.366009, 47.302885, 10.09], [-1.366154, 47.302809, 10.08], [-1.36629, 47.302741, 10.07], [-1.366438, 47.30267, 10.06], [-1.36659, 47.302601, 10.05], [-1.366737, 47.302528, 10.04], [-1.366877, 47.302458, 10.03], [-1.367021, 47.30239, 10.02], [-1.367163, 47.302323, 10.01], [-1.367309, 47.302256, 10.0], [-1.367446, 47.302185, 9.99], [-1.36758, 47.302118, 9.98], [-1.367721, 47.302054, 9.98], [-1.367856, 47.301982, 9.97], [-1.367989, 47.301924, 9.96], [-1.368111, 47.301864, 9.96], [-1.368236, 47.301801, 9.99], [-1.36837, 47.301741, 10.01], [-1.368495, 47.301679, 10.03], [-1.368627, 47.301619, 10.06], [-1.368755, 47.301554, 10.08], [-1.368891, 47.301495, 10.1], [-1.369026, 47.301425, 10.13], [-1.369167, 47.301364, 10.15], [-1.369298, 47.301292, 10.18], [-1.36944, 47.301226, 10.2], [-1.369589, 47.301167, 10.23], [-1.369749, 47.301124, 10.26], [-1.369878, 47.30105, 10.28], [-1.370016, 47.300981, 10.31], [-1.370148, 47.300909, 10.33], [-1.370285, 47.300835, 10.31], [-1.370425, 47.300766, 10.23], [-1.370555, 47.300684, 10.15], [-1.370689, 47.300606, 10.07], [-1.370829, 47.300526, 9.99], [-1.370937, 47.300457, 9.92], [-1.37111, 47.30038, 9.82], [-1.371281, 47.300244, 9.7], [-1.371384, 47.300183, 9.64], [-1.371502, 47.300102, 9.56], [-1.371639, 47.300012, 9.47], [-1.371737, 47.299949, 9.41], [-1.371851, 47.29988, 9.34], [-1.371967, 47.299809, 9.27], [-1.372073, 47.299735, 9.2], [-1.372178, 47.299673, 9.13], [-1.372278, 47.299607, 9.15], [-1.372376, 47.299539, 9.19], [-1.372487, 47.299473, 9.22], [-1.372613, 47.299413, 9.26], [-1.372724, 47.299334, 9.3], [-1.372845, 47.299257, 9.34], [-1.372961, 47.29918, 9.38], [-1.373083, 47.299105, 9.42], [-1.373207, 47.29903, 9.45], [-1.373333, 47.298947, 9.5], [-1.373458, 47.298863, 9.54], [-1.373582, 47.298787, 9.58], [-1.373693, 47.298713, 9.62], [-1.373794, 47.298642, 9.65], [-1.373904, 47.298569, 9.69], [-1.37402, 47.298501, 9.72], [-1.374135, 47.298431, 9.77], [-1.374242, 47.298358, 9.86], [-1.37434, 47.298288, 9.95], [-1.374491, 47.298215, 10.07], [-1.374578, 47.298137, 10.16], [-1.374698, 47.298075, 10.26], [-1.374804, 47.298004, 10.36], [-1.374921, 47.297941, 10.45], [-1.375034, 47.297872, 10.55], [-1.375148, 47.297812, 10.64], [-1.375264, 47.297752, 10.73], [-1.375375, 47.297682, 10.83], [-1.3755, 47.297624, 10.93], [-1.375614, 47.297552, 11.03], [-1.375766, 47.297495, 11.14], [-1.375884, 47.297421, 11.24], [-1.376013, 47.29735, 11.35], [-1.376157, 47.297283, 11.45], [-1.376293, 47.297215, 11.41], [-1.37642, 47.297145, 11.36], [-1.376557, 47.297079, 11.32], [-1.376697, 47.297012, 11.27], [-1.376828, 47.296947, 11.23], [-1.376953, 47.296879, 11.18], [-1.377089, 47.296812, 11.14], [-1.377226, 47.296748, 11.09], [-1.377327, 47.296671, 11.05], [-1.377508, 47.296607, 11.0], [-1.377632, 47.296537, 10.95], [-1.37777, 47.296468, 10.91], [-1.377901, 47.296399, 10.86], [-1.378018, 47.296332, 10.82], [-1.378104, 47.296254, 10.78], [-1.37823, 47.296208, 10.74], [-1.378368, 47.296149, 10.76], [-1.378502, 47.296078, 10.79], [-1.378635, 47.296011, 10.82], [-1.378762, 47.295941, 10.85], [-1.378897, 47.295881, 10.87], [-1.379028, 47.295828, 10.9], [-1.379141, 47.295775, 10.92], [-1.379254, 47.295723, 10.95], [-1.379374, 47.295677, 10.97], [-1.379496, 47.295631, 10.99], [-1.37962, 47.295592, 11.02], [-1.379736, 47.295534, 11.04], [-1.379866, 47.295488, 11.06], [-1.379998, 47.295446, 11.09], [-1.380121, 47.295392, 11.11], [-1.380249, 47.29535, 11.14], [-1.380378, 47.295301, 11.16], [-1.380512, 47.295251, 11.17], [-1.380651, 47.295207, 11.05], [-1.380792, 47.295167, 10.93], [-1.380936, 47.295125, 10.81], [-1.381077, 47.29508, 10.69], [-1.381224, 47.295041, 10.56], [-1.38137, 47.295002, 10.44], [-1.381522, 47.294964, 10.31], [-1.381675, 47.294922, 10.18], [-1.381824, 47.294882, 10.06], [-1.381978, 47.294845, 9.93], [-1.382122, 47.294799, 9.8], [-1.382266, 47.29476, 9.68], [-1.38241, 47.294727, 9.56], [-1.382539, 47.294691, 9.45], [-1.382665, 47.294656, 9.34], [-1.382796, 47.294576, 9.21], [-1.382803, 47.294472, 9.11], [-1.382853, 47.294286, 9.15], [-1.382897, 47.294172, 9.17], [-1.383032, 47.294112, 9.2], [-1.383167, 47.294098, 9.22], [-1.383331, 47.294142, 9.24], [-1.383501, 47.294164, 9.27], [-1.383661, 47.294168, 9.29], [-1.383824, 47.294166, 9.32], [-1.383987, 47.294141, 9.34], [-1.384129, 47.294105, 9.36], [-1.384293, 47.294064, 9.39], [-1.384457, 47.294028, 9.41], [-1.384621, 47.293997, 9.44], [-1.384767, 47.293965, 9.46], [-1.384897, 47.293932, 9.48], [-1.385047, 47.293891, 9.47], [-1.385222, 47.293849, 9.43], [-1.385369, 47.293818, 9.39], [-1.385508, 47.293769, 9.36], [-1.385644, 47.293721, 9.32], [-1.385798, 47.293675, 9.28], [-1.385965, 47.293628, 9.24], [-1.386137, 47.293574, 9.19], [-1.386308, 47.293524, 9.15], [-1.386469, 47.293476, 9.11], [-1.38663, 47.293426, 9.06], [-1.386793, 47.293372, 9.02], [-1.386944, 47.293318, 8.98], [-1.387101, 47.293267, 8.94], [-1.387268, 47.293236, 8.9], [-1.387442, 47.293209, 8.87], [-1.387587, 47.293163, 8.92], [-1.387723, 47.29313, 8.95], [-1.387858, 47.2931, 8.99], [-1.387997, 47.293063, 9.03], [-1.388145, 47.29302, 9.07], [-1.388302, 47.292978, 9.12], [-1.388463, 47.292935, 9.16], [-1.388628, 47.292889, 9.21], [-1.388793, 47.292848, 9.25], [-1.388957, 47.292802, 9.3], [-1.389117, 47.292757, 9.35], [-1.389276, 47.292712, 9.39], [-1.389436, 47.292663, 9.44], [-1.389593, 47.292612, 9.48], [-1.389762, 47.292577, 9.53], [-1.389928, 47.292538, 9.55], [-1.390089, 47.292493, 9.53], [-1.390249, 47.292449, 9.51], [-1.390411, 47.292413, 9.48], [-1.390571, 47.292368, 9.46], [-1.390731, 47.292318, 9.44], [-1.390891, 47.292267, 9.41], [-1.391036, 47.292194, 9.39], [-1.391172, 47.292115, 9.36], [-1.391295, 47.292022, 9.34], [-1.391425, 47.291935, 9.31], [-1.39154, 47.291843, 9.29], [-1.391645, 47.291746, 9.27], [-1.391767, 47.291657, 9.24], [-1.391873, 47.291556, 9.22], [-1.391992, 47.291464, 9.21], [-1.392101, 47.291366, 9.21], [-1.392215, 47.291273, 9.22], [-1.392331, 47.291184, 9.23], [-1.39245, 47.291095, 9.24], [-1.392578, 47.291014, 9.24], [-1.392708, 47.290944, 9.25], [-1.392837, 47.290878, 9.25], [-1.39295, 47.290795, 9.26], [-1.393051, 47.290701, 9.27], [-1.393142, 47.290602, 9.27], [-1.393232, 47.290504, 9.28], [-1.393339, 47.290418, 9.29], [-1.393449, 47.290331, 9.29], [-1.393546, 47.290251, 9.3], [-1.393651, 47.290173, 9.31], [-1.393765, 47.2901, 9.31], [-1.393885, 47.290029, 9.31], [-1.393997, 47.289949, 9.31], [-1.394106, 47.289866, 9.32], [-1.394213, 47.289783, 9.32], [-1.394319, 47.289693, 9.32], [-1.394428, 47.289604, 9.33], [-1.394528, 47.289513, 9.33], [-1.394628, 47.289425, 9.33], [-1.394736, 47.289341, 9.34], [-1.394839, 47.28925, 9.34], [-1.394935, 47.289161, 9.34], [-1.395038, 47.289074, 9.35], [-1.39515, 47.288991, 9.35], [-1.395259, 47.288899, 9.35], [-1.395365, 47.288805, 9.36], [-1.395481, 47.288708, 9.37], [-1.395594, 47.288612, 9.38], [-1.39571, 47.288515, 9.39], [-1.395826, 47.288421, 9.4], [-1.395938, 47.288324, 9.41], [-1.396048, 47.288234, 9.42], [-1.39616, 47.288141, 9.43], [-1.396275, 47.288049, 9.44], [-1.396388, 47.287953, 9.45], [-1.396498, 47.287857, 9.46], [-1.396611, 47.287766, 9.47], [-1.396734, 47.287676, 9.48], [-1.396841, 47.28758, 9.49], [-1.396949, 47.287488, 9.5], [-1.397047, 47.287388, 9.51], [-1.397165, 47.2873, 9.51], [-1.397278, 47.287213, 9.51], [-1.397391, 47.287125, 9.51], [-1.397507, 47.287035, 9.51], [-1.397611, 47.286945, 9.51], [-1.397707, 47.286851, 9.51], [-1.397812, 47.286759, 9.51], [-1.39794, 47.286675, 9.51], [-1.398071, 47.286591, 9.51], [-1.398197, 47.286503, 9.51], [-1.39833, 47.286422, 9.5], [-1.398469, 47.286344, 9.5], [-1.398598, 47.286257, 9.5], [-1.398722, 47.28617, 9.5], [-1.398852, 47.286089, 9.5], [-1.398978, 47.286005, 9.45], [-1.399099, 47.285919, 9.39], [-1.399223, 47.285831, 9.33], [-1.399348, 47.285747, 9.27], [-1.399477, 47.285669, 9.21], [-1.399603, 47.285583, 9.15], [-1.399728, 47.285494, 9.09], [-1.399852, 47.285408, 9.03], [-1.399978, 47.285323, 8.97], [-1.4001, 47.285233, 8.9], [-1.400225, 47.285151, 8.85], [-1.40036, 47.285073, 8.79], [-1.400493, 47.284995, 8.73], [-1.400636, 47.284921, 8.66], [-1.400791, 47.28486, 8.6], [-1.400942, 47.28479, 8.64], [-1.401083, 47.284714, 8.67], [-1.401246, 47.284664, 8.71], [-1.401411, 47.28461, 8.74], [-1.401566, 47.284546, 8.78], [-1.401718, 47.284483, 8.82], [-1.401875, 47.284425, 8.85], [-1.402026, 47.284366, 8.89], [-1.402169, 47.284303, 8.92], [-1.402326, 47.284243, 8.96], [-1.40248, 47.284179, 8.99], [-1.402629, 47.28411, 9.03], [-1.402785, 47.284043, 9.07], [-1.402932, 47.283974, 9.1], [-1.403071, 47.283896, 9.13], [-1.403205, 47.283812, 9.13], [-1.403342, 47.283727, 9.12], [-1.403478, 47.283645, 9.12], [-1.403602, 47.283557, 9.12], [-1.403728, 47.283472, 9.11], [-1.403845, 47.283377, 9.11], [-1.403964, 47.283283, 9.11], [-1.404086, 47.283189, 9.1], [-1.404199, 47.283092, 9.1], [-1.404306, 47.282991, 9.1], [-1.404412, 47.282886, 9.09], [-1.404507, 47.28278, 9.09], [-1.404613, 47.282684, 9.08], [-1.404709, 47.282585, 9.08], [-1.4048, 47.282484, 9.06], [-1.404901, 47.282387, 9.04], [-1.404994, 47.282287, 9.01], [-1.405089, 47.282188, 8.98], [-1.405182, 47.282088, 8.96], [-1.405279, 47.281988, 8.93], [-1.405378, 47.28189, 8.9], [-1.405474, 47.28179, 8.87], [-1.405573, 47.281692, 8.85], [-1.405669, 47.281593, 8.82], [-1.40577, 47.281493, 8.79], [-1.405864, 47.281392, 8.76], [-1.40596, 47.28129, 8.74], [-1.406051, 47.281188, 8.71], [-1.406149, 47.281089, 8.68], [-1.406241, 47.28099, 8.67], [-1.406339, 47.280896, 8.67], [-1.406436, 47.280802, 8.68], [-1.406524, 47.2807, 8.68], [-1.406621, 47.280598, 8.69], [-1.40672, 47.280493, 8.69], [-1.406819, 47.280389, 8.7], [-1.406921, 47.280292, 8.7], [-1.407029, 47.2802, 8.7], [-1.407126, 47.280101, 8.71], [-1.40722, 47.280004, 8.71], [-1.407322, 47.279908, 8.72], [-1.40741, 47.279804, 8.72], [-1.407499, 47.279695, 8.72], [-1.407595, 47.279592, 8.73], [-1.40769, 47.279491, 8.75], [-1.407789, 47.279392, 8.78], [-1.407881, 47.279292, 8.82], [-1.407964, 47.279192, 8.85], [-1.408056, 47.279098, 8.88], [-1.408151, 47.279005, 8.92], [-1.408249, 47.278915, 8.95], [-1.408358, 47.278833, 8.98], [-1.40849, 47.278767, 9.02], [-1.40863, 47.278703, 9.05], [-1.408769, 47.278636, 9.08], [-1.408913, 47.278571, 9.12], [-1.409058, 47.278506, 9.15], [-1.409198, 47.278442, 9.19], [-1.409336, 47.278378, 9.22], [-1.40947, 47.278311, 9.25], [-1.409599, 47.278242, 9.27], [-1.409727, 47.27817, 9.28], [-1.409864, 47.278092, 9.29], [-1.409994, 47.278009, 9.3], [-1.410116, 47.277919, 9.3], [-1.41023, 47.277827, 9.31], [-1.410387, 47.277766, 9.32], [-1.410556, 47.27772, 9.33], [-1.410704, 47.277652, 9.34], [-1.410814, 47.277552, 9.35], [-1.410907, 47.277449, 9.36], [-1.411001, 47.277345, 9.37], [-1.411096, 47.277241, 9.38], [-1.411204, 47.277145, 9.39], [-1.411321, 47.277055, 9.4], [-1.411421, 47.27696, 9.39], [-1.411521, 47.276862, 9.38], [-1.411635, 47.276771, 9.37], [-1.411754, 47.276682, 9.36], [-1.411853, 47.276583, 9.35], [-1.41195, 47.276481, 9.34], [-1.412044, 47.27638, 9.33], [-1.412135, 47.276278, 9.32], [-1.412241, 47.276179, 9.31], [-1.412337, 47.276078, 9.3], [-1.412433, 47.275979, 9.29], [-1.412551, 47.275888, 9.28], [-1.412662, 47.275792, 9.27], [-1.412776, 47.275698, 9.26], [-1.412892, 47.275605, 9.25], [-1.413011, 47.275516, 9.22], [-1.413122, 47.275422, 9.19], [-1.413241, 47.275328, 9.16], [-1.413371, 47.275244, 9.13], [-1.413494, 47.275158, 9.1], [-1.41362, 47.275074, 9.07], [-1.413747, 47.274993, 9.04], [-1.41387, 47.274914, 9.01], [-1.413999, 47.274832, 8.98], [-1.414134, 47.274753, 8.95], [-1.414276, 47.274679, 8.92], [-1.414413, 47.274597, 8.89], [-1.414549, 47.274517, 8.86], [-1.414689, 47.274442, 8.83], [-1.414827, 47.274369, 8.8], [-1.414959, 47.274291, 8.77], [-1.41509, 47.274212, 8.74], [-1.415222, 47.274134, 8.72], [-1.415349, 47.274053, 8.69], [-1.415469, 47.273967, 8.67], [-1.415601, 47.273888, 8.64], [-1.415734, 47.273806, 8.61], [-1.415859, 47.27372, 8.59], [-1.41599, 47.273638, 8.56], [-1.41612, 47.27355, 8.53], [-1.41625, 47.273463, 8.51], [-1.416379, 47.273375, 8.48], [-1.416509, 47.27329, 8.45], [-1.416649, 47.273216, 8.43], [-1.416782, 47.273143, 8.4], [-1.41693, 47.273081, 8.39], [-1.417075, 47.273007, 8.39], [-1.417224, 47.27293, 8.38], [-1.417367, 47.272855, 8.37], [-1.417509, 47.272781, 8.36], [-1.417648, 47.272708, 8.35], [-1.417778, 47.272632, 8.34], [-1.417915, 47.272564, 8.33], [-1.418049, 47.27249, 8.32], [-1.41818, 47.272413, 8.31], [-1.418317, 47.272336, 8.3], [-1.418455, 47.272263, 8.3], [-1.418587, 47.272191, 8.29], [-1.418715, 47.272112, 8.28], [-1.418844, 47.272039, 8.27], [-1.418976, 47.271965, 8.26], [-1.419109, 47.271889, 8.25], [-1.41924, 47.271809, 8.24], [-1.419371, 47.271729, 8.23], [-1.419503, 47.271652, 8.22], [-1.419639, 47.271582, 8.2], [-1.419774, 47.271508, 8.19], [-1.419914, 47.271435, 8.18], [-1.420045, 47.271358, 8.17], [-1.420191, 47.271292, 8.16], [-1.4203, 47.271202, 8.15], [-1.420443, 47.271132, 8.14], [-1.420556, 47.271054, 8.13], [-1.420642, 47.270977, 8.12], [-1.420748, 47.270915, 8.11], [-1.420898, 47.270836, 8.12], [-1.421013, 47.270753, 8.16], [-1.42113, 47.270683, 8.2], [-1.421259, 47.270627, 8.23], [-1.421373, 47.270554, 8.27], [-1.421493, 47.270487, 8.31], [-1.421627, 47.270424, 8.35], [-1.421751, 47.270354, 8.39], [-1.42185, 47.270276, 8.42], [-1.421966, 47.270216, 8.46], [-1.422125, 47.27014, 8.51], [-1.422244, 47.270071, 8.55], [-1.422377, 47.269991, 8.59], [-1.422515, 47.269911, 8.63], [-1.422649, 47.269833, 8.68], [-1.422791, 47.269758, 8.72], [-1.422931, 47.269684, 8.75], [-1.423073, 47.269614, 8.74], [-1.423221, 47.269543, 8.73], [-1.423364, 47.269471, 8.72], [-1.423508, 47.269403, 8.71], [-1.423644, 47.269329, 8.7], [-1.423783, 47.26926, 8.69], [-1.423922, 47.269189, 8.69], [-1.424067, 47.26912, 8.68], [-1.424209, 47.269048, 8.67], [-1.424346, 47.268974, 8.66], [-1.424487, 47.268898, 8.65], [-1.424623, 47.268816, 8.64], [-1.424763, 47.268738, 8.63], [-1.424903, 47.268666, 8.63], [-1.425036, 47.268586, 8.62], [-1.425173, 47.268514, 8.6], [-1.425317, 47.268448, 8.59], [-1.425456, 47.268373, 8.57], [-1.425586, 47.268299, 8.56], [-1.425737, 47.268241, 8.54], [-1.425871, 47.26817, 8.53], [-1.426017, 47.268111, 8.52], [-1.426156, 47.268048, 8.5], [-1.426304, 47.267994, 8.49], [-1.426456, 47.267946, 8.48], [-1.426612, 47.267891, 8.46], [-1.426764, 47.26783, 8.45], [-1.426919, 47.267777, 8.43], [-1.427068, 47.267715, 8.42], [-1.427205, 47.267646, 8.4], [-1.427354, 47.267585, 8.38], [-1.427481, 47.267505, 8.36], [-1.427627, 47.267438, 8.34], [-1.42777, 47.26737, 8.32], [-1.427929, 47.267328, 8.29], [-1.428082, 47.267294, 8.27], [-1.428228, 47.267241, 8.25], [-1.428371, 47.267184, 8.23], [-1.42851, 47.267127, 8.21], [-1.428646, 47.267063, 8.19], [-1.428782, 47.266998, 8.17], [-1.428911, 47.266936, 8.15], [-1.429043, 47.266868, 8.13], [-1.429179, 47.266808, 8.1], [-1.429318, 47.266745, 8.08], [-1.429451, 47.266671, 8.06], [-1.429591, 47.266603, 8.06], [-1.429738, 47.26654, 8.05], [-1.429888, 47.266473, 8.05], [-1.430026, 47.266399, 8.04], [-1.430168, 47.266329, 8.04], [-1.430304, 47.266258, 8.03], [-1.430447, 47.266183, 8.03], [-1.43059, 47.266111, 8.02], [-1.43074, 47.266044, 8.02], [-1.430879, 47.265969, 8.01], [-1.431017, 47.26589, 8.01], [-1.431149, 47.265807, 8.0], [-1.431277, 47.265727, 7.99], [-1.431408, 47.265642, 7.99], [-1.431546, 47.265562, 8.0], [-1.431673, 47.265474, 8.1], [-1.431789, 47.265381, 8.19], [-1.431918, 47.265298, 8.28], [-1.432048, 47.265219, 8.37], [-1.43217, 47.265137, 8.45], [-1.432283, 47.265055, 8.54], [-1.432384, 47.264968, 8.62], [-1.432503, 47.264895, 8.7], [-1.432619, 47.264816, 8.78], [-1.432735, 47.264739, 8.87], [-1.432842, 47.264659, 8.95], [-1.432965, 47.264594, 9.03], [-1.433078, 47.264522, 9.11], [-1.433183, 47.264446, 9.18], [-1.433296, 47.26437, 9.26], [-1.433403, 47.264291, 9.34], [-1.433504, 47.264211, 9.41], [-1.433608, 47.264132, 9.48], [-1.433698, 47.264043, 9.54], [-1.433804, 47.263961, 9.61], [-1.433889, 47.263866, 9.68], [-1.433983, 47.263774, 9.75], [-1.43409, 47.263694, 9.82], [-1.434183, 47.263612, 9.89], [-1.434267, 47.263525, 9.95], [-1.43436, 47.263441, 10.02], [-1.434455, 47.263354, 10.09], [-1.434549, 47.263266, 10.15], [-1.434632, 47.263179, 10.22], [-1.434723, 47.263093, 10.29], [-1.434816, 47.26301, 10.35], [-1.4349, 47.262936, 10.41], [-1.435012, 47.262822, 10.42], [-1.435112, 47.262756, 10.35], [-1.43524, 47.26266, 10.25], [-1.435345, 47.262568, 10.16], [-1.43545, 47.262481, 10.07], [-1.435561, 47.262412, 10.0], [-1.43565, 47.262315, 9.91], [-1.435765, 47.262252, 9.83], [-1.435876, 47.262159, 9.74], [-1.436001, 47.262064, 9.64], [-1.436141, 47.261972, 9.54], [-1.436285, 47.261883, 9.44], [-1.436393, 47.261771, 9.33], [-1.43653, 47.261689, 9.24], [-1.436667, 47.261615, 9.15], [-1.436773, 47.261527, 9.05], [-1.436913, 47.261442, 8.91], [-1.437021, 47.261369, 8.8], [-1.437146, 47.261286, 8.66], [-1.437284, 47.261216, 8.53], [-1.437406, 47.261132, 8.4], [-1.437516, 47.261035, 8.27], [-1.437613, 47.260937, 8.14], [-1.437728, 47.260852, 8.01], [-1.437842, 47.260766, 7.88], [-1.437958, 47.260677, 7.75], [-1.438063, 47.260592, 7.63], [-1.438197, 47.260531, 7.51], [-1.438344, 47.260475, 7.38], [-1.438492, 47.260416, 7.25], [-1.438628, 47.260346, 7.12], [-1.438714, 47.26025, 7.12], [-1.438784, 47.26015, 7.17], [-1.438868, 47.260077, 7.21], [-1.438969, 47.259997, 7.25], [-1.439072, 47.259903, 7.3], [-1.43917, 47.259834, 7.34], [-1.439267, 47.259752, 7.39], [-1.43936, 47.259671, 7.43], [-1.439465, 47.25959, 7.47], [-1.439552, 47.259496, 7.52], [-1.439662, 47.259414, 7.57], [-1.439752, 47.259321, 7.61], [-1.43986, 47.259237, 7.66], [-1.43996, 47.259142, 7.71], [-1.440055, 47.259042, 7.76], [-1.440176, 47.258958, 7.81], [-1.440277, 47.258862, 7.85], [-1.440397, 47.258782, 7.86], [-1.440551, 47.258732, 7.87], [-1.440704, 47.258693, 7.88], [-1.440833, 47.258641, 7.89], [-1.440931, 47.258566, 7.9], [-1.441031, 47.258489, 7.91], [-1.44113, 47.258404, 7.92], [-1.44124, 47.258321, 7.93], [-1.441327, 47.258217, 7.94], [-1.441437, 47.258124, 7.95], [-1.44154, 47.258029, 7.97], [-1.441648, 47.257937, 7.98], [-1.441753, 47.257847, 7.99], [-1.441855, 47.257754, 8.0], [-1.441959, 47.257663, 8.01], [-1.442065, 47.257579, 8.03], [-1.442166, 47.257489, 8.06], [-1.442287, 47.257413, 8.1], [-1.442397, 47.257329, 8.13], [-1.442506, 47.257243, 8.17], [-1.442617, 47.257152, 8.2], [-1.442733, 47.257061, 8.24], [-1.442835, 47.256956, 8.28], [-1.44296, 47.256869, 8.31], [-1.443073, 47.256777, 8.35], [-1.443178, 47.25669, 8.39], [-1.443277, 47.256607, 8.42], [-1.443372, 47.256532, 8.45], [-1.44345, 47.256455, 8.48], [-1.443557, 47.256345, 8.52], [-1.443672, 47.256246, 8.56], [-1.443787, 47.256142, 8.51], [-1.443897, 47.256039, 8.43], [-1.444014, 47.255951, 8.35], [-1.444133, 47.255854, 8.27], [-1.444227, 47.255787, 8.21], [-1.444307, 47.255715, 8.15], [-1.444393, 47.255646, 8.1], [-1.444521, 47.255548, 8.01], [-1.444655, 47.255465, 7.93], [-1.444782, 47.255383, 7.86], [-1.444921, 47.255296, 7.77], [-1.445016, 47.255232, 7.71], [-1.445123, 47.255164, 7.65], [-1.445225, 47.255091, 7.59], [-1.445319, 47.255016, 7.52], [-1.445423, 47.254947, 7.46], [-1.445529, 47.254878, 7.42], [-1.445635, 47.254803, 7.45], [-1.445747, 47.254724, 7.49], [-1.445864, 47.254649, 7.52], [-1.44597, 47.254579, 7.55], [-1.446062, 47.254509, 7.58], [-1.446165, 47.254445, 7.61], [-1.446265, 47.254375, 7.64], [-1.446368, 47.254297, 7.67], [-1.44647, 47.254216, 7.7], [-1.446569, 47.254138, 7.74], [-1.446673, 47.254072, 7.77], [-1.446767, 47.254004, 7.79], [-1.446858, 47.253926, 7.82], [-1.446969, 47.253851, 7.86], [-1.447064, 47.253772, 7.89], [-1.447159, 47.253691, 7.92], [-1.447225, 47.253599, 7.95], [-1.447312, 47.253515, 7.96], [-1.447419, 47.253438, 7.94], [-1.447485, 47.253344, 7.93], [-1.447564, 47.253265, 7.92], [-1.447654, 47.253197, 7.9], [-1.447761, 47.253085, 7.89], [-1.447873, 47.25298, 7.87], [-1.447996, 47.252876, 7.85], [-1.448083, 47.252805, 7.84], [-1.448167, 47.252727, 7.83], [-1.448255, 47.252652, 7.81], [-1.448351, 47.252571, 7.8], [-1.448454, 47.252486, 7.78], [-1.448551, 47.252393, 7.77], [-1.448639, 47.252294, 7.75], [-1.448739, 47.252199, 7.74], [-1.44883, 47.252097, 7.72], [-1.448914, 47.25199, 7.71], [-1.448995, 47.25188, 7.7], [-1.449077, 47.251771, 7.7], [-1.449157, 47.251666, 7.69], [-1.44926, 47.251572, 7.68], [-1.449342, 47.251469, 7.67], [-1.449425, 47.251363, 7.66], [-1.449539, 47.251272, 7.65], [-1.449641, 47.251173, 7.64], [-1.449721, 47.251068, 7.63], [-1.449803, 47.25097, 7.63], [-1.449893, 47.250878, 7.62], [-1.449979, 47.250791, 7.61], [-1.450063, 47.250695, 7.6], [-1.450136, 47.250599, 7.6], [-1.450216, 47.250504, 7.6], [-1.450294, 47.250404, 7.62], [-1.450365, 47.250302, 7.64], [-1.450444, 47.250196, 7.66], [-1.450534, 47.250096, 7.68], [-1.450634, 47.249997, 7.69], [-1.450746, 47.249899, 7.71], [-1.450865, 47.249809, 7.73], [-1.450971, 47.24971, 7.75], [-1.451071, 47.249616, 7.77], [-1.451174, 47.249529, 7.79], [-1.451265, 47.24943, 7.8], [-1.451352, 47.249334, 7.82], [-1.451446, 47.24924, 7.84], [-1.451549, 47.249149, 7.86], [-1.451651, 47.249062, 7.88], [-1.451762, 47.24899, 7.91], [-1.451873, 47.248928, 7.94], [-1.451967, 47.24886, 7.97], [-1.452051, 47.248786, 8.0], [-1.452157, 47.248718, 8.04], [-1.452262, 47.248638, 8.07], [-1.452363, 47.248559, 8.11], [-1.452483, 47.248505, 8.14], [-1.452608, 47.248411, 8.18], [-1.452713, 47.248351, 8.21], [-1.452854, 47.24827, 8.25], [-1.453011, 47.248195, 8.29], [-1.453178, 47.248119, 8.34], [-1.453287, 47.248042, 8.37], [-1.453401, 47.247985, 8.4], [-1.453539, 47.247939, 8.44], [-1.453655, 47.247892, 8.45], [-1.45378, 47.247827, 8.43], [-1.453925, 47.247791, 8.4], [-1.45406, 47.247748, 8.38], [-1.454189, 47.247685, 8.35], [-1.45431, 47.247628, 8.33], [-1.454439, 47.247577, 8.31], [-1.454575, 47.24754, 8.28], [-1.454697, 47.247499, 8.26], [-1.454854, 47.247426, 8.23], [-1.455009, 47.247351, 8.2], [-1.45517, 47.247272, 8.17], [-1.455345, 47.247225, 8.14], [-1.455471, 47.247182, 8.12], [-1.455604, 47.247143, 8.1], [-1.455736, 47.247098, 8.07], [-1.455868, 47.247054, 8.05], [-1.456002, 47.247015, 8.07], [-1.456136, 47.246966, 8.12], [-1.456287, 47.24693, 8.18], [-1.456433, 47.246881, 8.24], [-1.456569, 47.246835, 8.29], [-1.456714, 47.246797, 8.34], [-1.456862, 47.246751, 8.4], [-1.457021, 47.246702, 8.46], [-1.457193, 47.246657, 8.53], [-1.457365, 47.246629, 8.59], [-1.45753, 47.246591, 8.65], [-1.457697, 47.246553, 8.71], [-1.457846, 47.246509, 8.77], [-1.458, 47.246467, 8.82], [-1.458149, 47.246412, 8.88], [-1.458289, 47.246357, 8.94], [-1.458456, 47.246318, 8.94], [-1.458621, 47.246283, 8.92], [-1.458776, 47.246243, 8.89], [-1.45893, 47.24619, 8.86], [-1.45908, 47.246139, 8.83], [-1.459232, 47.246104, 8.8], [-1.459364, 47.246037, 8.77], [-1.459481, 47.24597, 8.75], [-1.459613, 47.245908, 8.72], [-1.459742, 47.245853, 8.69], [-1.459871, 47.245793, 8.67], [-1.459999, 47.245739, 8.64], [-1.460119, 47.24568, 8.61], [-1.46025, 47.245616, 8.59], [-1.460378, 47.245558, 8.56], [-1.460494, 47.245483, 8.53], [-1.46062, 47.245419, 8.52], [-1.460746, 47.245361, 8.59], [-1.460869, 47.245297, 8.67], [-1.460988, 47.24523, 8.74], [-1.460976, 47.245221, 5.65], [-1.461034, 47.245185, 5.56], [-1.462075, 47.244361, 5.4], [-1.46283, 47.24378, 4.26], [-1.463679, 47.24329, 5.44], [-1.464107, 47.243033, 5.29], [-1.464347, 47.242879, 5.08], [-1.465013, 47.242383, 3.62], [-1.465998, 47.241612, 5.25], [-1.466731, 47.241059, 4.42], [-1.466997, 47.240877, 4.04], [-1.46713, 47.240816, 4.12], [-1.467244, 47.240807, 4.19], [-1.467282, 47.24079, 4.22], [-1.467307, 47.240793, 4.24], [-1.467306, 47.240796, 8.92], [-1.467392, 47.240714, 8.84], [-1.46744, 47.240621, 8.77], [-1.4675, 47.240537, 8.7], [-1.467578, 47.240457, 8.62], [-1.467668, 47.240381, 8.55], [-1.467757, 47.240306, 8.48], [-1.467836, 47.240225, 8.4], [-1.467923, 47.24015, 8.33], [-1.468006, 47.240073, 8.26], [-1.468094, 47.239998, 8.19], [-1.468166, 47.239912, 8.11], [-1.468248, 47.23984, 8.04], [-1.468326, 47.239763, 7.97], [-1.468411, 47.239688, 7.9], [-1.468496, 47.239609, 7.83], [-1.468565, 47.239527, 7.76], [-1.468627, 47.239442, 7.68], [-1.468696, 47.239309, 7.59], [-1.468789, 47.239241, 7.59], [-1.468916, 47.239144, 7.59], [-1.469005, 47.239076, 7.59], [-1.469085, 47.238996, 7.6], [-1.469179, 47.238926, 7.6], [-1.469282, 47.238862, 7.6], [-1.469381, 47.238787, 7.6], [-1.469467, 47.238707, 7.6], [-1.46958, 47.238643, 7.6], [-1.469681, 47.238571, 7.6], [-1.469774, 47.2385, 7.6], [-1.469871, 47.238432, 7.6], [-1.469968, 47.238363, 7.6], [-1.470077, 47.238309, 7.6], [-1.470173, 47.23824, 7.6], [-1.470268, 47.238176, 7.6], [-1.470366, 47.23811, 7.61], [-1.470461, 47.238044, 7.61], [-1.470556, 47.237979, 7.62], [-1.470654, 47.237913, 7.65], [-1.470744, 47.23784, 7.67], [-1.470843, 47.237773, 7.7], [-1.470946, 47.237706, 7.72], [-1.471039, 47.237631, 7.75], [-1.471129, 47.237555, 7.77], [-1.471222, 47.237472, 7.8], [-1.471323, 47.237393, 7.83], [-1.471414, 47.237302, 7.86], [-1.471532, 47.237232, 7.88], [-1.471646, 47.237152, 7.91], [-1.471742, 47.237069, 7.94], [-1.471856, 47.236989, 7.97], [-1.471951, 47.236904, 8.0], [-1.472073, 47.236835, 8.03], [-1.472221, 47.236785, 8.06], [-1.472309, 47.236694, 8.08], [-1.472394, 47.236604, 8.08], [-1.472482, 47.236516, 8.09], [-1.472584, 47.236433, 8.09], [-1.47268, 47.23635, 8.1], [-1.472765, 47.236265, 8.1], [-1.472854, 47.236179, 8.11], [-1.472935, 47.236091, 8.11], [-1.47302, 47.236009, 8.12], [-1.473117, 47.235931, 8.12], [-1.473209, 47.235853, 8.13], [-1.473279, 47.235768, 8.13], [-1.473346, 47.23568, 8.14], [-1.47341, 47.235593, 8.14], [-1.473481, 47.235505, 8.15], [-1.473569, 47.235425, 8.15], [-1.473645, 47.235341, 8.16], [-1.473708, 47.235251, 8.16], [-1.473766, 47.235159, 8.16], [-1.473823, 47.235067, 8.16], [-1.473903, 47.234988, 8.15], [-1.47398, 47.234905, 8.15], [-1.474029, 47.234808, 8.14], [-1.474068, 47.234711, 8.14], [-1.47411, 47.234613, 8.14], [-1.474158, 47.234519, 8.13], [-1.474205, 47.234425, 8.13], [-1.474254, 47.234334, 8.13], [-1.474305, 47.234243, 8.12], [-1.474369, 47.234158, 8.12], [-1.474446, 47.234032, 8.11], [-1.474502, 47.233949, 8.11], [-1.474554, 47.233862, 8.11], [-1.474601, 47.233771, 8.1], [-1.474643, 47.233677, 8.1], [-1.474686, 47.233586, 8.1], [-1.474729, 47.233492, 8.07], [-1.474776, 47.233392, 8.03], [-1.474829, 47.23329, 7.99], [-1.474903, 47.233205, 7.95], [-1.474987, 47.233127, 7.92], [-1.475046, 47.233044, 7.88], [-1.475094, 47.232955, 7.84], [-1.475133, 47.232865, 7.81], [-1.475189, 47.232777, 7.77], [-1.475244, 47.232691, 7.74], [-1.475375, 47.232591, 7.68], [-1.475485, 47.232535, 7.65], [-1.475595, 47.23248, 7.61], [-1.475698, 47.23242, 7.58], [-1.475846, 47.232328, 7.52], [-1.475967, 47.232268, 7.49], [-1.476085, 47.232209, 7.45], [-1.476208, 47.232155, 7.41], [-1.476395, 47.232092, 7.45], [-1.476507, 47.232036, 7.48], [-1.476675, 47.231969, 7.52], [-1.476798, 47.231916, 7.55], [-1.476908, 47.231866, 7.58], [-1.477029, 47.231817, 7.61], [-1.477143, 47.23176, 7.65], [-1.477271, 47.231717, 7.68], [-1.477388, 47.231665, 7.71], [-1.477519, 47.231609, 7.74], [-1.477643, 47.231553, 7.78], [-1.477767, 47.231496, 7.81], [-1.477893, 47.231453, 7.84], [-1.478025, 47.231413, 7.87], [-1.478165, 47.23136, 7.91], [-1.47831, 47.231308, 7.94], [-1.478442, 47.231243, 7.98], [-1.478568, 47.231172, 8.01], [-1.478698, 47.231098, 8.03], [-1.47882, 47.231018, 8.05], [-1.478936, 47.230933, 8.08], [-1.479048, 47.230845, 8.1], [-1.479152, 47.230751, 8.12], [-1.479268, 47.230669, 8.14], [-1.479385, 47.230579, 8.17], [-1.479502, 47.230496, 8.19], [-1.479616, 47.230409, 8.21], [-1.479731, 47.230325, 8.24], [-1.479844, 47.230236, 8.26], [-1.479957, 47.230155, 8.28], [-1.480087, 47.230077, 8.3], [-1.480231, 47.230019, 8.33], [-1.48036, 47.229943, 8.34], [-1.480485, 47.229866, 8.31], [-1.480594, 47.229785, 8.27], [-1.480691, 47.229701, 8.24], [-1.480816, 47.229655, 8.21], [-1.480959, 47.229567, 8.17], [-1.481103, 47.229501, 8.13], [-1.481098, 47.229403, 8.1], [-1.481101, 47.229292, 8.06], [-1.481135, 47.229178, 8.03], [-1.481197, 47.229068, 7.99], [-1.481311, 47.228982, 7.95], [-1.481437, 47.228902, 7.91], [-1.481554, 47.22882, 7.88], [-1.481685, 47.228739, 7.84], [-1.481819, 47.228663, 7.8], [-1.481952, 47.228576, 7.75], [-1.482083, 47.2285, 7.68], [-1.482206, 47.22841, 7.61], [-1.482328, 47.228331, 7.54], [-1.482449, 47.228255, 7.47], [-1.482567, 47.228169, 7.4], [-1.482696, 47.228088, 7.33], [-1.482818, 47.228013, 7.26], [-1.482941, 47.227933, 7.19], [-1.483062, 47.227865, 7.13], [-1.483168, 47.227785, 7.07], [-1.483285, 47.227728, 7.01], [-1.483375, 47.227646, 6.95], [-1.483479, 47.227572, 6.89], [-1.48359, 47.22751, 6.83], [-1.483667, 47.227432, 6.77], [-1.483777, 47.227371, 6.71], [-1.48387, 47.227299, 6.68], [-1.483946, 47.227222, 6.65], [-1.484037, 47.227146, 6.62], [-1.484143, 47.227092, 6.59], [-1.484263, 47.227044, 6.56], [-1.484387, 47.227001, 6.53], [-1.484512, 47.226967, 6.5], [-1.484627, 47.226917, 6.47], [-1.484748, 47.226861, 6.44], [-1.484859, 47.226799, 6.41], [-1.484999, 47.226739, 6.38], [-1.485133, 47.226693, 6.35], [-1.485285, 47.226645, 6.31], [-1.485439, 47.226602, 6.28], [-1.485597, 47.226556, 6.24], [-1.485745, 47.226495, 6.2], [-1.485889, 47.226434, 6.17], [-1.486034, 47.226396, 6.15], [-1.486173, 47.226343, 6.16], [-1.48631, 47.226287, 6.18], [-1.486455, 47.226235, 6.2], [-1.486611, 47.226183, 6.22], [-1.486763, 47.226131, 6.24], [-1.486926, 47.226088, 6.26], [-1.487089, 47.226041, 6.28], [-1.487249, 47.225996, 6.3], [-1.487413, 47.225946, 6.32], [-1.487573, 47.225904, 6.34], [-1.487727, 47.225859, 6.36], [-1.487888, 47.225809, 6.38], [-1.488037, 47.225754, 6.4], [-1.488188, 47.225696, 6.42], [-1.48836, 47.225656, 6.45], [-1.488503, 47.225596, 6.41], [-1.488657, 47.225545, 6.36], [-1.488806, 47.225508, 6.31], [-1.488962, 47.225475, 6.26], [-1.489108, 47.225428, 6.21], [-1.489256, 47.225391, 6.17], [-1.489408, 47.225339, 6.11], [-1.489551, 47.225285, 6.07], [-1.489687, 47.225223, 6.02], [-1.489824, 47.225159, 5.97], [-1.489983, 47.225129, 5.92], [-1.490133, 47.225093, 5.87], [-1.490293, 47.225051, 5.82], [-1.490446, 47.225004, 5.77], [-1.4906, 47.224958, 5.71], [-1.490757, 47.2249, 5.66], [-1.490909, 47.224848, 5.61], [-1.491067, 47.2248, 5.56], [-1.491242, 47.224757, 5.51], [-1.491398, 47.224712, 5.46], [-1.491562, 47.224662, 5.41], [-1.491706, 47.224594, 5.36], [-1.49185, 47.224537, 5.31], [-1.492015, 47.224484, 5.26], [-1.492167, 47.224426, 5.21], [-1.492321, 47.224369, 5.16], [-1.492471, 47.224306, 5.11], [-1.492597, 47.224241, 5.07], [-1.492751, 47.224188, 5.02], [-1.492892, 47.224132, 4.97], [-1.493049, 47.224074, 4.92], [-1.493213, 47.22402, 4.91], [-1.493375, 47.223974, 4.92], [-1.49352, 47.22391, 4.94], [-1.493655, 47.223851, 4.95], [-1.4938, 47.223795, 4.97], [-1.493935, 47.223731, 4.98], [-1.494066, 47.223671, 4.99], [-1.494206, 47.223603, 5.01], [-1.494338, 47.223552, 5.02], [-1.494464, 47.223492, 5.03], [-1.494625, 47.223442, 5.04], [-1.49477, 47.223399, 5.06], [-1.494931, 47.223362, 5.07], [-1.49509, 47.223294, 5.09], [-1.495252, 47.22324, 5.1], [-1.495409, 47.223189, 5.11], [-1.495566, 47.22314, 5.2], [-1.495712, 47.223074, 5.29], [-1.495847, 47.223028, 5.36], [-1.495997, 47.222979, 5.45], [-1.496135, 47.222928, 5.53], [-1.496295, 47.222898, 5.62], [-1.496448, 47.222861, 5.7], [-1.496606, 47.22283, 5.79], [-1.49675, 47.222788, 5.87], [-1.496901, 47.222732, 5.96], [-1.497035, 47.222676, 6.04], [-1.497171, 47.222623, 6.12], [-1.497313, 47.222585, 6.2], [-1.497459, 47.222548, 6.28], [-1.497612, 47.222535, 6.36], [-1.497783, 47.222525, 6.45], [-1.497953, 47.222491, 6.52], [-1.498132, 47.222464, 6.57], [-1.498306, 47.222419, 6.62], [-1.498472, 47.222375, 6.67], [-1.498643, 47.222335, 6.72], [-1.49882, 47.22231, 6.78], [-1.498981, 47.222258, 6.83], [-1.499139, 47.222213, 6.88], [-1.499288, 47.222184, 6.92], [-1.499433, 47.222153, 6.96], [-1.499555, 47.222113, 7.0], [-1.499686, 47.222086, 7.04], [-1.499833, 47.222043, 7.09], [-1.499971, 47.221997, 7.13], [-1.50013, 47.221942, 7.18], [-1.500313, 47.221909, 7.24], [-1.500492, 47.221881, 7.23], [-1.500674, 47.221845, 7.22], [-1.500834, 47.221811, 7.2], [-1.500999, 47.221762, 7.19], [-1.501122, 47.221712, 7.17], [-1.501288, 47.221663, 7.16], [-1.501473, 47.221613, 7.14], [-1.50158, 47.221555, 7.13], [-1.50172, 47.22152, 7.12], [-1.501858, 47.221491, 7.1], [-1.501996, 47.221472, 7.09], [-1.502172, 47.221428, 7.07], [-1.50235, 47.221372, 7.06], [-1.502481, 47.221335, 7.04], [-1.502665, 47.22128, 7.03], [-1.502791, 47.221227, 7.02], [-1.50291, 47.221177, 7.01], [-1.503057, 47.221087, 7.0], [-1.503184, 47.22103, 6.99], [-1.503299, 47.220979, 6.99], [-1.503414, 47.220922, 6.98], [-1.503558, 47.220877, 6.97], [-1.503741, 47.220854, 6.96], [-1.503878, 47.220808, 6.96], [-1.504049, 47.22075, 6.95], [-1.504176, 47.220721, 6.94], [-1.504311, 47.220702, 6.94], [-1.504454, 47.220688, 6.93], [-1.504599, 47.220678, 6.92], [-1.504734, 47.220644, 6.92], [-1.504873, 47.220628, 6.91], [-1.505008, 47.220621, 6.9], [-1.505155, 47.22062, 6.9], [-1.505288, 47.220604, 6.94], [-1.505426, 47.220589, 7.0], [-1.505565, 47.220578, 7.07], [-1.505702, 47.220565, 7.13], [-1.505838, 47.220553, 7.19], [-1.505982, 47.220566, 7.26], [-1.506126, 47.220551, 7.33], [-1.506273, 47.220534, 7.4], [-1.506412, 47.220532, 7.46], [-1.506554, 47.220527, 7.53], [-1.50669, 47.220515, 7.6], [-1.506862, 47.220501, 7.68], [-1.507012, 47.220477, 7.75], [-1.507179, 47.220465, 7.83], [-1.507304, 47.220435, 7.89], [-1.507453, 47.220416, 7.96], [-1.507599, 47.220414, 8.03], [-1.507869, 47.220333, 8.12], [-1.508044, 47.220276, 8.1], [-1.508162, 47.220233, 8.08], [-1.508331, 47.220174, 8.06], [-1.508454, 47.220108, 8.04], [-1.508588, 47.220059, 8.02], [-1.508735, 47.220025, 8.0], [-1.508861, 47.219979, 7.98], [-1.508995, 47.219936, 7.97], [-1.509136, 47.219904, 7.95], [-1.509276, 47.219869, 7.93], [-1.509407, 47.21983, 7.91], [-1.509539, 47.219791, 7.9], [-1.509669, 47.219755, 7.88], [-1.509796, 47.219719, 7.86], [-1.509929, 47.219688, 7.84], [-1.510107, 47.219633, 7.82], [-1.510282, 47.219584, 7.77], [-1.510464, 47.219542, 7.69], [-1.51057, 47.219477, 7.64], [-1.510656, 47.219403, 7.58], [-1.510812, 47.219334, 7.5], [-1.510938, 47.219292, 7.44], [-1.51106, 47.219252, 7.39], [-1.511188, 47.219206, 7.33], [-1.511318, 47.219165, 7.27], [-1.51145, 47.219121, 7.21], [-1.511581, 47.219079, 7.15], [-1.511706, 47.219041, 7.1], [-1.511832, 47.218997, 7.04], [-1.511957, 47.218955, 6.98], [-1.512095, 47.218913, 6.92], [-1.512229, 47.218867, 6.86], [-1.512369, 47.218821, 6.79], [-1.51251, 47.218776, 6.73], [-1.51265, 47.218732, 6.79], [-1.512788, 47.218683, 6.86], [-1.512926, 47.218636, 6.93], [-1.51306, 47.218591, 7.0], [-1.513191, 47.218551, 7.07], [-1.513366, 47.218505, 7.15], [-1.51349, 47.218469, 7.21], [-1.513618, 47.218424, 7.28], [-1.513749, 47.218393, 7.34], [-1.513879, 47.218366, 7.4], [-1.514018, 47.218334, 7.47], [-1.514156, 47.218311, 7.54], [-1.514291, 47.218279, 7.6], [-1.51442, 47.218258, 7.66], [-1.514561, 47.218232, 7.73], [-1.514703, 47.218204, 7.8], [-1.514841, 47.218176, 7.86], [-1.514975, 47.21814, 7.93], [-1.515081, 47.218071, 7.93], [-1.515202, 47.218022, 7.91], [-1.515334, 47.217974, 7.9], [-1.515456, 47.217921, 7.89], [-1.515574, 47.217872, 7.88], [-1.515693, 47.217812, 7.87], [-1.515818, 47.217749, 7.86], [-1.515936, 47.217667, 7.84], [-1.516052, 47.217584, 7.83], [-1.51618, 47.217508, 7.81], [-1.516301, 47.217447, 7.8], [-1.516422, 47.217388, 7.79], [-1.51654, 47.217333, 7.78], [-1.516669, 47.217279, 7.77], [-1.516808, 47.217227, 7.75], [-1.51692, 47.217162, 7.74], [-1.517041, 47.217109, 7.73], [-1.517167, 47.217055, 7.74], [-1.517287, 47.217005, 7.77], [-1.517412, 47.216955, 7.8], [-1.517534, 47.216899, 7.83], [-1.517656, 47.216843, 7.86], [-1.517781, 47.21679, 7.89], [-1.517901, 47.216735, 7.92], [-1.518034, 47.216686, 7.95], [-1.518147, 47.216625, 7.98], [-1.518274, 47.216576, 8.01], [-1.518403, 47.216539, 8.04], [-1.518531, 47.216497, 8.07], [-1.518665, 47.216475, 8.1], [-1.518857, 47.216446, 8.14], [-1.518951, 47.216379, 8.17], [-1.519068, 47.216315, 8.2], [-1.519201, 47.216276, 8.23], [-1.519325, 47.21624, 8.26], [-1.519513, 47.216215, 8.27], [-1.51965, 47.216172, 8.26], [-1.519751, 47.216099, 8.25], [-1.519874, 47.216046, 8.24], [-1.52001, 47.216007, 8.23], [-1.520157, 47.215967, 8.22], [-1.52031, 47.215916, 8.21], [-1.520468, 47.215869, 8.2], [-1.520618, 47.21582, 8.18], [-1.520767, 47.215773, 8.17], [-1.520911, 47.215728, 8.16], [-1.52106, 47.215682, 8.15], [-1.521205, 47.215637, 8.14], [-1.521347, 47.21559, 8.13], [-1.521486, 47.215542, 8.12], [-1.521626, 47.21549, 8.11], [-1.521773, 47.21545, 8.1], [-1.521918, 47.215406, 8.08], [-1.522066, 47.215359, 8.06], [-1.522211, 47.215306, 8.04], [-1.522351, 47.215254, 8.02], [-1.522501, 47.215208, 8.0], [-1.52265, 47.215166, 7.98], [-1.522801, 47.215119, 7.96], [-1.522949, 47.215071, 7.94], [-1.523099, 47.215024, 7.92], [-1.523241, 47.214979, 7.9], [-1.523378, 47.214936, 7.88], [-1.523514, 47.214892, 7.86], [-1.523657, 47.214847, 7.84], [-1.523797, 47.214802, 7.82], [-1.523932, 47.21476, 7.8], [-1.524073, 47.21472, 7.78], [-1.524212, 47.214675, 7.77], [-1.524351, 47.214627, 7.78], [-1.524497, 47.214582, 7.78], [-1.524631, 47.214535, 7.79], [-1.524773, 47.214493, 7.79], [-1.524907, 47.214445, 7.79], [-1.525046, 47.214398, 7.8], [-1.525189, 47.214356, 7.8], [-1.525324, 47.214309, 7.81], [-1.525452, 47.21426, 7.81], [-1.525593, 47.21422, 7.82], [-1.525726, 47.214185, 7.82], [-1.525853, 47.21414, 7.83], [-1.525991, 47.2141, 7.83], [-1.526126, 47.214059, 7.83], [-1.526262, 47.214018, 7.84], [-1.526398, 47.213978, 7.84], [-1.526528, 47.213935, 7.85], [-1.526661, 47.213907, 7.78], [-1.526793, 47.213881, 7.67], [-1.526917, 47.213845, 7.56], [-1.527073, 47.213805, 7.42], [-1.528981, 47.213448, 5.84], [-1.529157, 47.213408, 5.77], [-1.529158, 47.213413, 3.41], [-1.529937, 47.213316, 4.58], [-1.530287, 47.213282, 3.49], [-1.530577, 47.21326, 3.46], [-1.530988, 47.213242, 3.52], [-1.531348, 47.213173, 3.15], [-1.531386, 47.213158, 3.03], [-1.531803, 47.213115, 2.87], [-1.532364, 47.213046, 2.01], [-1.532554, 47.213074, 2.28], [-1.532987, 47.213069, 2.8], [-1.533321, 47.213034, 3.56], [-1.533835, 47.212942, 5.01], [-1.534456, 47.212878, 6.96], [-1.534497, 47.212877, 6.91], [-1.534824, 47.212981, 6.65], [-1.534923, 47.213, 6.59], [-1.534985, 47.212994, 6.53], [-1.535042, 47.21298, 6.46], [-1.536221, 47.21302, 4.99], [-1.536265, 47.213011, 5.11], [-1.536291, 47.212928, 4.92], [-1.536329, 47.212917, 5.02], [-1.536387, 47.212926, 5.25], [-1.536474, 47.212915, 5.53], [-1.536618, 47.212882, 5.94], [-1.536636, 47.212902, 6.06], [-1.536622, 47.212908, 9.88], [-1.536779, 47.212949, 9.91], [-1.536937, 47.21302, 9.94], [-1.537062, 47.213055, 9.97], [-1.537195, 47.213085, 9.99], [-1.537322, 47.213125, 10.02], [-1.537491, 47.213152, 10.05], [-1.537677, 47.213175, 10.08], [-1.537856, 47.213199, 10.12], [-1.538041, 47.213224, 10.15], [-1.538174, 47.213238, 10.18], [-1.538365, 47.213268, 10.21], [-1.538495, 47.21329, 10.24], [-1.538633, 47.213312, 10.26], [-1.538774, 47.213336, 10.29], [-1.538914, 47.213352, 10.31], [-1.539097, 47.213378, 10.27], [-1.539275, 47.213396, 10.11], [-1.539252, 47.213487, 9.99], [-1.539166, 47.213564, 9.87], [-1.53916, 47.213661, 9.74], [-1.539235, 47.213736, 9.62], [-1.539276, 47.213838, 9.49], [-1.539356, 47.213934, 9.35], [-1.539514, 47.213928, 9.21], [-1.539674, 47.213907, 9.06], [-1.539838, 47.213852, 8.9], [-1.540029, 47.213858, 8.73], [-1.540124, 47.213934, 8.6], [-1.540221, 47.214002, 8.48], [-1.540318, 47.214067, 8.36], [-1.540409, 47.214137, 8.24], [-1.540512, 47.214194, 8.12], [-1.540609, 47.214261, 8.0], [-1.540703, 47.214337, 7.96], [-1.540825, 47.214399, 7.92], [-1.540929, 47.214475, 7.87], [-1.541034, 47.214558, 7.83], [-1.541147, 47.214638, 7.78], [-1.541269, 47.214712, 7.74], [-1.541377, 47.214798, 7.69], [-1.541493, 47.214867, 7.64], [-1.541605, 47.214925, 7.6], [-1.541679, 47.215, 7.57], [-1.541797, 47.215043, 7.53], [-1.54191, 47.215095, 7.49], [-1.542021, 47.215153, 7.45], [-1.542129, 47.215216, 7.41], [-1.54224, 47.215274, 7.37], [-1.542346, 47.21533, 7.33], [-1.542444, 47.215397, 7.29], [-1.542542, 47.215471, 7.25], [-1.542677, 47.215562, 7.34], [-1.542807, 47.215624, 7.43], [-1.54295, 47.21564, 7.5], [-1.543077, 47.215725, 7.59], [-1.543197, 47.215798, 7.67], [-1.543315, 47.215882, 7.76], [-1.543469, 47.215955, 7.86], [-1.543639, 47.216015, 7.96], [-1.543795, 47.216042, 8.04], [-1.54393, 47.216031, 8.11], [-1.544104, 47.216044, 8.2], [-1.54429, 47.216044, 8.29], [-1.544478, 47.216041, 8.39], [-1.544672, 47.216012, 8.49], [-1.544816, 47.216, 8.57], [-1.54494, 47.215969, 8.66], [-1.545064, 47.215933, 8.79], [-1.545235, 47.215871, 8.98], [-1.545387, 47.215816, 9.15], [-1.545527, 47.215756, 9.31], [-1.545669, 47.215709, 9.47], [-1.545779, 47.215656, 9.6], [-1.545897, 47.215607, 9.73], [-1.546068, 47.21557, 9.91], [-1.546189, 47.215531, 10.04], [-1.546304, 47.215465, 10.19], [-1.546278, 47.215363, 10.34], [-1.546209, 47.215285, 10.47], [-1.546126, 47.215203, 10.61], [-1.54611, 47.215209, 10.49], [-1.54594, 47.215001, 10.72], [-1.545961, 47.214992, 10.69], [-1.546043, 47.214959, 10.57], [-1.546634, 47.215664, 8.91], [-1.546764, 47.215858, 8.71], [-1.546784, 47.215911, 8.72], [-1.546791, 47.21598, 8.74], [-1.546789, 47.216047, 8.77], [-1.546766, 47.216151, 8.79], [-1.546742, 47.216203, 8.78], [-1.546638, 47.216316, 9.06], [-1.546669, 47.21642, 9.47], [-1.546715, 47.21642, 9.53], [-1.546781, 47.216457, 9.74], [-1.546875, 47.216537, 10.14], [-1.547002, 47.216624, 10.33], [-1.547066, 47.216637, 10.22], [-1.547323, 47.216938, 10.69], [-1.547575, 47.21727, 13.06], [-1.54769, 47.217229, 12.42], [-1.547666, 47.217202, 12.14], [-1.54808, 47.217044, 10.47], [-1.548108, 47.217077, 10.85], [-1.548151, 47.21706, 10.72], [-1.548184, 47.217047, 10.62], [-1.548197, 47.217063, 10.79], [-1.548212, 47.217065, 10.83], [-1.548732, 47.217022, 11.3], [-1.548736, 47.217052, 11.49], [-1.548767, 47.217091, 11.92], [-1.548789, 47.217112, 12.18]]}, "properties": {"name": "🚲 Loire à Vélo 2026 - Étape 4 - Ancenis ➡️ Nantes", "source_file": "acte-3_etape-4_ancenis_nantes.gpx", "point_count": 2816, "distance_km": 36.25, "duration_s": 14849, "elevation_gain_m": 93.9, "elevation_loss_m": 94.5}}]}
