{"type":"FeatureCollection","features":[{"type":"Feature","geometry":{"type":"LineString","coordinates":[[1.874502,48.081702],[1.874374,48.081821],[1.875309,48.082045],[1.875743,48.082521],[1.878343,48.081514],[1.878607,48.08113],[1.878832,48.077116],[1.8839,48.077427],[1.88571,48.079187],[1.886118,48.079342],[1.893927,48.07394],[1.894177,48.073541],[1.894931,48.071145],[1.895235,48.07079],[1.897129,48.069935],[1.898658,48.068992],[1.905001,48.064234],[1.90901,48.062781],[1.912733,48.061755],[1.914684,48.060658],[1.915944,48.060385],[1.915879,48.060471],[1.916055,48.060307],[1.915688,48.059068],[1.91358,48.055221],[1.909535,48.054018],[1.904597,48.051604],[1.902918,48.05001],[1.901031,48.048727],[1.900254,48.049064],[1.898579,48.049376],[1.893502,48.049963],[1.892151,48.048455],[1.890672,48.047212],[1.889736,48.045585],[1.888502,48.044531],[1.887309,48.042661],[1.886238,48.041624],[1.883356,48.040372],[1.882264,48.039598],[1.881336,48.038634],[1.881187,48.038309],[1.88161,48.037154],[1.884753,48.033927],[1.887783,48.02868],[1.887865,48.028252],[1.884091,48.02752],[1.883199,48.027073],[1.882572,48.026347],[1.882367,48.025066],[1.881499,48.024201],[1.880335,48.023872],[1.877934,48.023813],[1.875089,48.023266],[1.8749,48.023101],[1.874974,48.02278],[1.87468,48.023062],[1.874195,48.022547],[1.873654,48.021565],[1.87532,48.021262],[1.875346,48.020912],[1.875044,48.020746],[1.875247,48.020908],[1.875111,48.020873],[1.875271,48.021154],[1.875142,48.021336],[1.873702,48.021556],[1.874183,48.022592],[1.873315,48.022774],[1.87417,48.022443],[1.873731,48.021479],[1.875306,48.021268],[1.875267,48.020816],[1.875022,48.020804],[1.868778,48.025278],[1.858975,48.023395],[1.847545,48.013226],[1.846797,48.011231],[1.844753,48.009702],[1.843776,48.008384],[1.841843,47.999804],[1.840551,47.998401],[1.839,47.995271],[1.837008,47.992783],[1.836988,47.991988],[1.836469,47.991925],[1.837936,47.986326],[1.839093,47.983819],[1.840276,47.982233],[1.840284,47.98061],[1.841029,47.979159],[1.842,47.976657],[1.839139,47.972594],[1.839092,47.970213],[1.838639,47.969479],[1.837825,47.96913],[1.834083,47.968759],[1.833448,47.968533],[1.827445,47.961585],[1.827144,47.960963],[1.826775,47.956696],[1.826411,47.955936],[1.827228,47.954307],[1.828908,47.952692],[1.8308,47.948389],[1.8415,47.936067],[1.843328,47.93416],[1.843243,47.93396],[1.844271,47.933772],[1.845849,47.931322],[1.846758,47.930441],[1.846371,47.930023],[1.846725,47.929865],[1.848331,47.928294],[1.848366,47.928062],[1.847901,47.927721],[1.848339,47.927141],[1.848004,47.926462],[1.84617,47.925569],[1.844602,47.924015],[1.845202,47.92335],[1.845485,47.922269],[1.847704,47.919992],[1.844229,47.918804],[1.841641,47.917473],[1.84012,47.916923],[1.839892,47.915856],[1.847553,47.914639],[1.851705,47.914359],[1.858247,47.913201],[1.85935,47.913415],[1.857875,47.91293],[1.857196,47.912521],[1.856989,47.912181],[1.858004,47.908751],[1.858066,47.908038],[1.85834,47.908126],[1.8581,47.908215],[1.858042,47.908092],[1.858445,47.907138],[1.857587,47.905329],[1.858652,47.90501],[1.858964,47.904775],[1.859505,47.902634],[1.859755,47.902386],[1.860027,47.902409],[1.859542,47.902434],[1.859341,47.902295],[1.859926,47.900836],[1.859554,47.900264],[1.859459,47.899786],[1.859538,47.898425],[1.860141,47.896142],[1.860674,47.896189],[1.86085,47.896027],[1.860723,47.895714],[1.861318,47.89521],[1.861947,47.895],[1.864898,47.895961],[1.868121,47.896253],[1.876306,47.89758],[1.876056,47.893338],[1.876286,47.893323],[1.876699,47.892911],[1.876427,47.893013],[1.876286,47.893323],[1.876056,47.893338],[1.875555,47.892986],[1.875786,47.892168],[1.875582,47.891902],[1.875587,47.891481],[1.875843,47.891184],[1.876377,47.889225],[1.876679,47.887329],[1.8775,47.885858],[1.87786,47.884731],[1.877962,47.884615],[1.878342,47.88473],[1.879719,47.88289],[1.880891,47.882152],[1.880693,47.881262],[1.881125,47.879519],[1.881068,47.877922],[1.881268,47.877298],[1.881291,47.8765],[1.881483,47.876232],[1.881209,47.876061],[1.881323,47.87592],[1.881353,47.87343],[1.882131,47.872668],[1.885844,47.872438],[1.886685,47.870465],[1.886347,47.870373],[1.886047,47.869788],[1.88364,47.869992],[1.881707,47.869661],[1.88123,47.868652],[1.881054,47.867478],[1.881333,47.865438],[1.880845,47.861144],[1.882648,47.861047],[1.883756,47.861274],[1.883984,47.861067],[1.885349,47.860628],[1.886851,47.859476]]},"properties":{"name":"Artenay ➡️ Orléans","source_file":"acte-1_etape-4_artenay_orleans.gpx","point_count":205,"distance_km":39.03,"duration_s":11700,"elevation_gain_m":186,"elevation_loss_m":201}}]}