{"type":"FeatureCollection","features":[{"type":"Feature","geometry":{"type":"LineString","coordinates":[[-1.548796,47.21712],[-1.5477,47.217421],[-1.549615,47.219815],[-1.550357,47.219547],[-1.550133,47.219292],[-1.550802,47.218592],[-1.551523,47.218216],[-1.551453,47.218069],[-1.552909,47.216268],[-1.555601,47.215307],[-1.556013,47.215009],[-1.555318,47.214132],[-1.555992,47.213188],[-1.557578,47.21252],[-1.558171,47.212431],[-1.558792,47.211967],[-1.55929,47.211082],[-1.559748,47.210716],[-1.561543,47.210069],[-1.56176,47.209818],[-1.563416,47.209904],[-1.566175,47.209034],[-1.566584,47.209111],[-1.568133,47.208602],[-1.568277,47.208331],[-1.571685,47.207182],[-1.572692,47.206296],[-1.572965,47.206352],[-1.573371,47.206124],[-1.574311,47.205327],[-1.574325,47.204764],[-1.576069,47.202023],[-1.576559,47.201846],[-1.57826,47.200613],[-1.580543,47.199686],[-1.584812,47.198632],[-1.588568,47.198357],[-1.588545,47.198114],[-1.589524,47.197919],[-1.589552,47.197771],[-1.592384,47.197354],[-1.593955,47.196881],[-1.59618,47.196508],[-1.599385,47.195561],[-1.609768,47.194658],[-1.614649,47.194795],[-1.615856,47.194504],[-1.618103,47.194279],[-1.619686,47.194492],[-1.619808,47.194656],[-1.624339,47.194659],[-1.631439,47.195044],[-1.636207,47.194455],[-1.637684,47.194417],[-1.638246,47.194683],[-1.638665,47.194555],[-1.638644,47.194316],[-1.638847,47.194222],[-1.646285,47.19377],[-1.647197,47.193406],[-1.650741,47.194821],[-1.654486,47.195908],[-1.659041,47.196827],[-1.660129,47.197208],[-1.660268,47.197597],[-1.660566,47.197671],[-1.660592,47.19791],[-1.660898,47.198171],[-1.662178,47.198488],[-1.662637,47.198825],[-1.662907,47.199988],[-1.662628,47.201015],[-1.66271,47.201189],[-1.667239,47.201123],[-1.667742,47.20146],[-1.668641,47.201429],[-1.676605,47.204955],[-1.683371,47.207068],[-1.683858,47.207418],[-1.684559,47.207417],[-1.68812,47.208436],[-1.690153,47.208795],[-1.703287,47.209766],[-1.70737,47.209537],[-1.710566,47.210403],[-1.712183,47.209767],[-1.713061,47.208586],[-1.71354,47.208327],[-1.721332,47.208574],[-1.724842,47.208864],[-1.72512,47.209028],[-1.72817,47.209202],[-1.731179,47.210239],[-1.73169,47.211171],[-1.731895,47.211257],[-1.736641,47.211085],[-1.740504,47.211803],[-1.742238,47.210584],[-1.743543,47.210049],[-1.748675,47.209395],[-1.749806,47.206857],[-1.751847,47.206009],[-1.750992,47.205008],[-1.751185,47.204228],[-1.751839,47.203769],[-1.75292,47.203325],[-1.754914,47.203061],[-1.755035,47.202915],[-1.759339,47.203877],[-1.76543,47.204666],[-1.769763,47.205516],[-1.773481,47.205706],[-1.775666,47.206099],[-1.779307,47.205808],[-1.784977,47.206234],[-1.785426,47.20648],[-1.785903,47.207964],[-1.786623,47.208322],[-1.789199,47.207855],[-1.790802,47.20715],[-1.793939,47.20683],[-1.798325,47.206922],[-1.807175,47.207609],[-1.811589,47.208503],[-1.816013,47.210014],[-1.819389,47.211776],[-1.822627,47.213799],[-1.822842,47.21422],[-1.823424,47.214502],[-1.824385,47.213832],[-1.82815,47.216098],[-1.832859,47.218559],[-1.843286,47.223706],[-1.844817,47.224127],[-1.845774,47.224579],[-1.846717,47.225391],[-1.849648,47.22691],[-1.882544,47.243266],[-1.886571,47.24508],[-1.897783,47.249607],[-1.899291,47.249824],[-1.900481,47.250386],[-1.901415,47.251336],[-1.916179,47.259455],[-1.91955,47.26106],[-1.923502,47.26242],[-1.926239,47.26313],[-1.931542,47.264223],[-1.941012,47.265805],[-1.943295,47.265748],[-1.946246,47.26628],[-1.948514,47.267295],[-1.950688,47.266167],[-1.950868,47.265892],[-1.950923,47.264776],[-1.951834,47.264679],[-1.953085,47.264879],[-1.954902,47.265672],[-1.956591,47.266042],[-1.959077,47.266996],[-1.963431,47.268186],[-1.968214,47.270014],[-1.969602,47.270783],[-1.97153,47.271013],[-1.973617,47.2723],[-1.9752,47.272739],[-1.977061,47.273001],[-1.977416,47.27321],[-1.977758,47.273897],[-1.97805,47.27406],[-1.98072,47.274493],[-1.984653,47.274085],[-1.986168,47.275181],[-1.989776,47.276037],[-1.990951,47.27595],[-1.992392,47.275319],[-1.994209,47.275021],[-1.996705,47.275662],[-1.999299,47.275721],[-2.000812,47.276423],[-2.002073,47.276789],[-2.00431,47.276733],[-2.004506,47.277612],[-2.004829,47.278184],[-2.005892,47.279332],[-2.00627,47.279483],[-2.006847,47.27958],[-2.008226,47.27831],[-2.009666,47.277576],[-2.012801,47.278951],[-2.014855,47.279381],[-2.01586,47.282774],[-2.015782,47.283336],[-2.016255,47.283742],[-2.016838,47.285515],[-2.017546,47.286063],[-2.017385,47.286267],[-2.017787,47.286619],[-2.018355,47.286558],[-2.020737,47.287466],[-2.021505,47.287944],[-2.022555,47.288214],[-2.026622,47.288543],[-2.026929,47.288629],[-2.026892,47.288943],[-2.027043,47.289019],[-2.028779,47.289545],[-2.028581,47.289817],[-2.030071,47.28994]]},"properties":{"name":"Nantes ➡️ Paimboeuf","source_file":"acte-3_etape-5_nantes_paimboeuf.gpx","point_count":209,"distance_km":44.29,"duration_s":9840,"elevation_gain_m":142,"elevation_loss_m":150}}]}