{"type": "FeatureCollection", "features": [{"type": "Feature", "geometry": {"type": "LineString", "coordinates": [[-0.650667, 47.375544], [-0.648065, 47.372407], [-0.647992, 47.371948], [-0.647389, 47.371998], [-0.644989, 47.372884], [-0.643767, 47.370604], [-0.64236, 47.369957], [-0.643703, 47.36636], [-0.651416, 47.361162], [-0.654583, 47.360552], [-0.654779, 47.360659], [-0.654721, 47.361103], [-0.655182, 47.36118], [-0.655556, 47.360317], [-0.655072, 47.358977], [-0.655183, 47.358771], [-0.655714, 47.358757], [-0.658934, 47.357918], [-0.658849, 47.357324], [-0.658991, 47.357237], [-0.663199, 47.356412], [-0.665878, 47.355696], [-0.665664, 47.355329], [-0.665987, 47.354944], [-0.66767, 47.354573], [-0.672763, 47.351661], [-0.673127, 47.351292], [-0.672993, 47.351524], [-0.67332, 47.351028], [-0.674589, 47.350406], [-0.675567, 47.349], [-0.67561, 47.348381], [-0.676643, 47.348219], [-0.678118, 47.347399], [-0.679441, 47.346915], [-0.682743, 47.346284], [-0.684568, 47.346666], [-0.685541, 47.346657], [-0.68929, 47.345415], [-0.691031, 47.345343], [-0.692943, 47.345418], [-0.693401, 47.345574], [-0.695853, 47.345004], [-0.697748, 47.344921], [-0.702237, 47.344207], [-0.707105, 47.343857], [-0.708712, 47.344005], [-0.70994, 47.344722], [-0.711237, 47.344643], [-0.71408, 47.344887], [-0.716072, 47.34529], [-0.716817, 47.345541], [-0.717601, 47.346244], [-0.718905, 47.346696], [-0.720985, 47.346885], [-0.722892, 47.347463], [-0.725507, 47.347588], [-0.728295, 47.348177], [-0.729596, 47.348708], [-0.731083, 47.348599], [-0.733429, 47.348965], [-0.735261, 47.348998], [-0.736023, 47.349514], [-0.737478, 47.349385], [-0.740435, 47.350321], [-0.740664, 47.350717], [-0.741723, 47.350732], [-0.744201, 47.351296], [-0.744508, 47.351109], [-0.745333, 47.351579], [-0.746581, 47.351612], [-0.747897, 47.351398], [-0.748703, 47.351082], [-0.749115, 47.350403], [-0.749757, 47.350093], [-0.750654, 47.349973], [-0.756917, 47.350662], [-0.758129, 47.35064], [-0.760484, 47.351839], [-0.760457, 47.35255], [-0.76246, 47.35324], [-0.761485, 47.354977], [-0.76387, 47.355247], [-0.76664, 47.355833], [-0.772354, 47.359213], [-0.772748, 47.359816], [-0.772223, 47.360612], [-0.77232, 47.360684], [-0.774662, 47.361409], [-0.775132, 47.361826], [-0.777335, 47.361896], [-0.777014, 47.3626], [-0.778023, 47.365184], [-0.777661, 47.365594], [-0.77785, 47.365878], [-0.780147, 47.366425], [-0.78648, 47.368572], [-0.78769, 47.36886], [-0.789965, 47.369066], [-0.791855, 47.369085], [-0.791205, 47.369069], [-0.791187, 47.368934], [-0.792394, 47.36646], [-0.794303, 47.366371], [-0.795805, 47.366848], [-0.79695, 47.366925], [-0.799567, 47.367501], [-0.802894, 47.369454], [-0.802909, 47.369673], [-0.802144, 47.371107], [-0.802215, 47.371528], [-0.807358, 47.372728], [-0.810106, 47.373704], [-0.811751, 47.373996], [-0.813412, 47.374061], [-0.820095, 47.376157], [-0.824824, 47.377084], [-0.827002, 47.377804], [-0.828899, 47.379041], [-0.830977, 47.381363], [-0.832547, 47.382598], [-0.834122, 47.383387], [-0.838557, 47.384824], [-0.839285, 47.38548], [-0.839341, 47.385691], [-0.839149, 47.38603], [-0.839259, 47.386129], [-0.84122, 47.387335], [-0.843428, 47.388979], [-0.84654, 47.389395], [-0.847699, 47.389361], [-0.848885, 47.389104], [-0.849236, 47.388726], [-0.848943, 47.387962], [-0.850452, 47.386779], [-0.852371, 47.387821], [-0.8583, 47.389757], [-0.858964, 47.390198], [-0.859974, 47.391377], [-0.860998, 47.391956], [-0.860724, 47.391934], [-0.860889, 47.391831], [-0.862054, 47.39227], [-0.867165, 47.392078], [-0.874675, 47.392385], [-0.881295, 47.394123], [-0.884458, 47.394603], [-0.888412, 47.395985], [-0.892547, 47.396346], [-0.893937, 47.396616], [-0.902913, 47.399673], [-0.904764, 47.40014], [-0.906331, 47.400244], [-0.912273, 47.400023], [-0.91418, 47.399612], [-0.916837, 47.398611], [-0.920672, 47.403013], [-0.923044, 47.401739], [-0.923448, 47.401771], [-0.924556, 47.401345], [-0.924706, 47.401279], [-0.924646, 47.401074], [-0.924915, 47.400928], [-0.926912, 47.400174], [-0.930076, 47.399588], [-0.930802, 47.400711], [-0.930973, 47.400705], [-0.93508, 47.398404], [-0.939004, 47.397289], [-0.941558, 47.396792], [-0.941608, 47.396448], [-0.941445, 47.396115], [-0.942114, 47.395822], [-0.942548, 47.394377], [-0.941459, 47.393227], [-0.941257, 47.392939], [-0.941287, 47.392708], [-0.942967, 47.391322], [-0.946112, 47.389358], [-0.94757, 47.387993], [-0.949538, 47.386653], [-0.950873, 47.385292], [-0.953055, 47.384096], [-0.955129, 47.382661], [-0.959083, 47.380984], [-0.960382, 47.380135], [-0.961434, 47.379948], [-0.962078, 47.380413], [-0.963718, 47.380111], [-0.963737, 47.379695], [-0.963978, 47.379596], [-0.967788, 47.379306], [-0.973229, 47.378215], [-0.977269, 47.377866], [-0.981714, 47.377114], [-0.984555, 47.377059], [-0.988723, 47.377507], [-0.98902, 47.377372], [-0.989667, 47.377463], [-0.996204, 47.376963], [-0.998839, 47.376154], [-1.002469, 47.374526], [-1.011349, 47.372334], [-1.01666, 47.371397], [-1.016742, 47.371297], [-1.014603, 47.367816], [-1.014683, 47.366985], [-1.014155, 47.366809], [-1.012154, 47.367308]]}, "properties": {"name": "🚲 Loire à Vélo 2026 - Étape 2 - Béhuard ➡️ Saint-Florent-le-Vieil", "source_file": "acte-3_etape-2_behuard_st-florent-le-vieil.gpx", "point_count": 2990, "distance_km": 37.7, "duration_s": 22815, "elevation_gain_m": 97.4, "elevation_loss_m": 100.3}}]}
