{"type": "FeatureCollection", "features": [{"type": "Feature", "geometry": {"type": "LineString", "coordinates": [[-1.014292, 47.367031, 15.88], [-1.014305, 47.367128, 15.88], [-1.014323, 47.367234, 15.88], [-1.01435, 47.36735, 15.88], [-1.014394, 47.367467, 15.88], [-1.01444, 47.367584, 15.88], [-1.014496, 47.3677, 15.88], [-1.014552, 47.367816, 15.88], [-1.014629, 47.367923, 15.94], [-1.014687, 47.368035, 16.2], [-1.014755, 47.368147, 16.47], [-1.014827, 47.368255, 16.74], [-1.014885, 47.368362, 16.99], [-1.014956, 47.368465, 17.25], [-1.015014, 47.36857, 17.5], [-1.015075, 47.368673, 17.75], [-1.015145, 47.368773, 17.99], [-1.015208, 47.368876, 18.24], [-1.01527, 47.368975, 18.48], [-1.015332, 47.36908, 18.74], [-1.015393, 47.369181, 18.98], [-1.015459, 47.369286, 19.24], [-1.015522, 47.369392, 19.49], [-1.01558, 47.369502, 19.75], [-1.015647, 47.369614, 19.8], [-1.01571, 47.36973, 19.58], [-1.015778, 47.36984, 19.36], [-1.015849, 47.36995, 19.14], [-1.015914, 47.370065, 18.92], [-1.015988, 47.370171, 18.71], [-1.016058, 47.37029, 18.48], [-1.016126, 47.370403, 18.26], [-1.016201, 47.370518, 18.03], [-1.016284, 47.370629, 17.81], [-1.016352, 47.370745, 17.58], [-1.016418, 47.370872, 17.34], [-1.01649, 47.370997, 17.1], [-1.016572, 47.371115, 16.86], [-1.016644, 47.371237, 16.61], [-1.016746, 47.371329, 16.29], [-1.016878, 47.371263, 15.98], [-1.016952, 47.371174, 15.69], [-1.017102, 47.371113, 15.36], [-1.017284, 47.371082, 15.01], [-1.017449, 47.37105, 14.68], [-1.017584, 47.371016, 14.41], [-1.017812, 47.370995, 13.97], [-1.018017, 47.370985, 13.59], [-1.018172, 47.370981, 13.29], [-1.018335, 47.370948, 12.97], [-1.018515, 47.370931, 12.63], [-1.018694, 47.370928, 12.29], [-1.018865, 47.370919, 11.97], [-1.019036, 47.370914, 11.64], [-1.019224, 47.370915, 11.58], [-1.019411, 47.370917, 11.54], [-1.019591, 47.370921, 11.49], [-1.019775, 47.370935, 11.44], [-1.019949, 47.370958, 11.4], [-1.020133, 47.370957, 11.35], [-1.020312, 47.370978, 11.3], [-1.020475, 47.371016, 11.26], [-1.020643, 47.371062, 11.21], [-1.020812, 47.371107, 11.16], [-1.020969, 47.371153, 11.12], [-1.021119, 47.371193, 11.08], [-1.021267, 47.371229, 11.04], [-1.021406, 47.371259, 11.0], [-1.021526, 47.3713, 10.97], [-1.021699, 47.371307, 10.96], [-1.021695, 47.371182, 10.98], [-1.021635, 47.371074, 11.01], [-1.021798, 47.371018, 11.03], [-1.02198, 47.371015, 11.05], [-1.022124, 47.371008, 11.07], [-1.022299, 47.370979, 11.1], [-1.022446, 47.37098, 11.11], [-1.02263, 47.37098, 11.14], [-1.022794, 47.371004, 11.16], [-1.022968, 47.371034, 11.18], [-1.023125, 47.371025, 11.2], [-1.023308, 47.371022, 11.23], [-1.023444, 47.37105, 11.25], [-1.023575, 47.371087, 11.26], [-1.023748, 47.371055, 11.29], [-1.023919, 47.371022, 11.31], [-1.024095, 47.371019, 11.32], [-1.024248, 47.37104, 11.34], [-1.024414, 47.371004, 11.36], [-1.0246, 47.371009, 11.38], [-1.024767, 47.370992, 11.4], [-1.024919, 47.370981, 11.41], [-1.025095, 47.370985, 11.43], [-1.025241, 47.370995, 11.45], [-1.02542, 47.370995, 11.46], [-1.02557, 47.370992, 11.48], [-1.025724, 47.370961, 11.5], [-1.025871, 47.370949, 11.51], [-1.026028, 47.370922, 11.53], [-1.026186, 47.370947, 11.55], [-1.026325, 47.370923, 11.56], [-1.026465, 47.370918, 11.61], [-1.026619, 47.370913, 11.68], [-1.026756, 47.370897, 11.75], [-1.026905, 47.370864, 11.83], [-1.027054, 47.370855, 11.91], [-1.027192, 47.370864, 11.98], [-1.027345, 47.370848, 12.05], [-1.027505, 47.370837, 12.13], [-1.027531, 47.370926, 12.2], [-1.027558, 47.371026, 12.28], [-1.027568, 47.371142, 12.36], [-1.027556, 47.371246, 12.44], [-1.027564, 47.37134, 12.51], [-1.027576, 47.371453, 12.59], [-1.027582, 47.371543, 12.66], [-1.02759, 47.371653, 12.74], [-1.027639, 47.371742, 12.81], [-1.027798, 47.371737, 12.89], [-1.027932, 47.371743, 12.91], [-1.028085, 47.371738, 12.91], [-1.028238, 47.371739, 12.92], [-1.028406, 47.371736, 12.93], [-1.028578, 47.371741, 12.94], [-1.028755, 47.371747, 12.95], [-1.028936, 47.371764, 12.96], [-1.029116, 47.371769, 12.97], [-1.029292, 47.371766, 12.98], [-1.029473, 47.371773, 12.99], [-1.029655, 47.371774, 13.0], [-1.029837, 47.371785, 13.0], [-1.030011, 47.371774, 13.01], [-1.03019, 47.371793, 13.02], [-1.030371, 47.371777, 13.03], [-1.030544, 47.3718, 13.02], [-1.030722, 47.371789, 12.97], [-1.030905, 47.371799, 12.93], [-1.031081, 47.3718, 12.89], [-1.03126, 47.371802, 12.85], [-1.031434, 47.371813, 12.81], [-1.031602, 47.371803, 12.77], [-1.031776, 47.371825, 12.73], [-1.031957, 47.37184, 12.68], [-1.032118, 47.37185, 12.65], [-1.032281, 47.37184, 12.61], [-1.032453, 47.371845, 12.57], [-1.032625, 47.371862, 12.53], [-1.032787, 47.371892, 12.49], [-1.03296, 47.371927, 12.44], [-1.033124, 47.371966, 12.41], [-1.033303, 47.371983, 12.38], [-1.033472, 47.37202, 12.36], [-1.033654, 47.372058, 12.34], [-1.03382, 47.372088, 12.31], [-1.033971, 47.372114, 12.29], [-1.034121, 47.372114, 12.27], [-1.034266, 47.372173, 12.25], [-1.034422, 47.372214, 12.23], [-1.034595, 47.372228, 12.21], [-1.034764, 47.37226, 12.18], [-1.034937, 47.372293, 12.16], [-1.035118, 47.372316, 12.14], [-1.035291, 47.372343, 12.11], [-1.035455, 47.372394, 12.09], [-1.03564, 47.372408, 12.07], [-1.035812, 47.37245, 12.06], [-1.035994, 47.372461, 12.06], [-1.036171, 47.372495, 12.06], [-1.036345, 47.372531, 12.05], [-1.036522, 47.372554, 12.05], [-1.036698, 47.372593, 12.05], [-1.036876, 47.372625, 12.04], [-1.037049, 47.372657, 12.04], [-1.037216, 47.37269, 12.04], [-1.037395, 47.372721, 12.04], [-1.037552, 47.372777, 12.03], [-1.037706, 47.372831, 12.03], [-1.037863, 47.372868, 12.03], [-1.038036, 47.372907, 12.02], [-1.038203, 47.372931, 12.02], [-1.038397, 47.372948, 11.99], [-1.038602, 47.372958, 11.96], [-1.038815, 47.372947, 11.92], [-1.039005, 47.372921, 11.89], [-1.039184, 47.372913, 11.87], [-1.039359, 47.372888, 11.84], [-1.039531, 47.372866, 11.81], [-1.039701, 47.372842, 11.79], [-1.039881, 47.372822, 11.76], [-1.040058, 47.372802, 11.73], [-1.040234, 47.372799, 11.71], [-1.040421, 47.372793, 11.68], [-1.040596, 47.372768, 11.65], [-1.040774, 47.372759, 11.62], [-1.040943, 47.372749, 11.63], [-1.041122, 47.372753, 11.64], [-1.041299, 47.372748, 11.66], [-1.041488, 47.372713, 11.67], [-1.041669, 47.372723, 11.68], [-1.041847, 47.372711, 11.69], [-1.042028, 47.372688, 11.7], [-1.042195, 47.372682, 11.72], [-1.042354, 47.372678, 11.73], [-1.042507, 47.372662, 11.74], [-1.042655, 47.37266, 11.75], [-1.042793, 47.372652, 11.76], [-1.04299, 47.372633, 11.77], [-1.043147, 47.372627, 11.78], [-1.043304, 47.372595, 11.79], [-1.043486, 47.372592, 11.81], [-1.043662, 47.37257, 11.85], [-1.043841, 47.37255, 11.89], [-1.04402, 47.372526, 11.92], [-1.044197, 47.372506, 11.96], [-1.044374, 47.372472, 12.0], [-1.04455, 47.372443, 12.04], [-1.044728, 47.372419, 12.07], [-1.044905, 47.372381, 12.11], [-1.045078, 47.372349, 12.15], [-1.045256, 47.372307, 12.19], [-1.045434, 47.372276, 12.23], [-1.045618, 47.372262, 12.26], [-1.045799, 47.37224, 12.3], [-1.045973, 47.37222, 12.34], [-1.046147, 47.3722, 12.34], [-1.04632, 47.372173, 12.33], [-1.046496, 47.372154, 12.33], [-1.046671, 47.372158, 12.32], [-1.046854, 47.372169, 12.31], [-1.047025, 47.372172, 12.3], [-1.047204, 47.37217, 12.3], [-1.047388, 47.372175, 12.29], [-1.047569, 47.372181, 12.28], [-1.047754, 47.372188, 12.27], [-1.04793, 47.372199, 12.27], [-1.048114, 47.372211, 12.26], [-1.048293, 47.372225, 12.25], [-1.048474, 47.372227, 12.25], [-1.048651, 47.372243, 12.24], [-1.048835, 47.372254, 12.23], [-1.049004, 47.372264, 12.21], [-1.049148, 47.372276, 12.2], [-1.049307, 47.3723, 12.19], [-1.049468, 47.372324, 12.18], [-1.04964, 47.372357, 12.17], [-1.049831, 47.372402, 12.16], [-1.050018, 47.372421, 12.14], [-1.0502, 47.372457, 12.13], [-1.050384, 47.372497, 12.12], [-1.050568, 47.372521, 12.11], [-1.050753, 47.37255, 12.09], [-1.050939, 47.372559, 12.08], [-1.051122, 47.372588, 12.07], [-1.051307, 47.3726, 12.04], [-1.051493, 47.37262, 11.99], [-1.051673, 47.372632, 11.94], [-1.051863, 47.372638, 11.89], [-1.052043, 47.372641, 11.84], [-1.052242, 47.37265, 11.78], [-1.052436, 47.372651, 11.73], [-1.052604, 47.372651, 11.68], [-1.052791, 47.372664, 11.63], [-1.052978, 47.372673, 11.58], [-1.053159, 47.372671, 11.53], [-1.053353, 47.372669, 11.48], [-1.053524, 47.372671, 11.43], [-1.053708, 47.372665, 11.38], [-1.053881, 47.372642, 11.33], [-1.054055, 47.372607, 11.31], [-1.054226, 47.37256, 11.28], [-1.054396, 47.372546, 11.26], [-1.054577, 47.372526, 11.23], [-1.054752, 47.372522, 11.21], [-1.054908, 47.372546, 11.19], [-1.055094, 47.372548, 11.16], [-1.055225, 47.37262, 11.14], [-1.055201, 47.372756, 11.11], [-1.05518, 47.372884, 11.09], [-1.055183, 47.373007, 11.06], [-1.055183, 47.373131, 11.04], [-1.055268, 47.373233, 11.01], [-1.055451, 47.373256, 10.99], [-1.055618, 47.373232, 10.97], [-1.055798, 47.373163, 10.99], [-1.055905, 47.373068, 11.0], [-1.056071, 47.373018, 11.02], [-1.056244, 47.373003, 11.03], [-1.05642, 47.373005, 11.05], [-1.056605, 47.372997, 11.06], [-1.056777, 47.37299, 11.07], [-1.05696, 47.372973, 11.09], [-1.057129, 47.372931, 11.1], [-1.0573, 47.372912, 11.12], [-1.057479, 47.372898, 11.13], [-1.057651, 47.372869, 11.15], [-1.057816, 47.372835, 11.16], [-1.057992, 47.372815, 11.18], [-1.058164, 47.372793, 11.2], [-1.058343, 47.372772, 11.25], [-1.058526, 47.372751, 11.29], [-1.058708, 47.372728, 11.34], [-1.058884, 47.372717, 11.38], [-1.059072, 47.372712, 11.43], [-1.059254, 47.372692, 11.47], [-1.059441, 47.372693, 11.52], [-1.059624, 47.372691, 11.56], [-1.059802, 47.37271, 11.61], [-1.059971, 47.372754, 11.65], [-1.060147, 47.372784, 11.69], [-1.060308, 47.37284, 11.74], [-1.060473, 47.372881, 11.78], [-1.060643, 47.372933, 11.83], [-1.0608, 47.37299, 11.85], [-1.060973, 47.373026, 11.87], [-1.061143, 47.373067, 11.88], [-1.061312, 47.373101, 11.9], [-1.061494, 47.373133, 11.92], [-1.061668, 47.373142, 11.93], [-1.061853, 47.373144, 11.95], [-1.062023, 47.373153, 11.97], [-1.062213, 47.373147, 11.99], [-1.062391, 47.373135, 12.0], [-1.06258, 47.373139, 12.02], [-1.062756, 47.373138, 12.04], [-1.062944, 47.373136, 12.06], [-1.063123, 47.373139, 12.07], [-1.063304, 47.373127, 12.08], [-1.063474, 47.373126, 12.03], [-1.06366, 47.373123, 11.97], [-1.063839, 47.373132, 11.92], [-1.064016, 47.373132, 11.87], [-1.064205, 47.373134, 11.81], [-1.064381, 47.373127, 11.76], [-1.06456, 47.373139, 11.7], [-1.064736, 47.373165, 11.65], [-1.064896, 47.373214, 11.6], [-1.065058, 47.373254, 11.54], [-1.065218, 47.373301, 11.49], [-1.065396, 47.37334, 11.44], [-1.065562, 47.373377, 11.38], [-1.065713, 47.373403, 11.34], [-1.065867, 47.373413, 11.29], [-1.066036, 47.373393, 11.28], [-1.066202, 47.373362, 11.27], [-1.066341, 47.373287, 11.25], [-1.066484, 47.373221, 11.24], [-1.06661, 47.373146, 11.23], [-1.066754, 47.373078, 11.22], [-1.066902, 47.373022, 11.2], [-1.067049, 47.372964, 11.19], [-1.067201, 47.372918, 11.18], [-1.067354, 47.372863, 11.17], [-1.067525, 47.372834, 11.15], [-1.067699, 47.372826, 11.14], [-1.067876, 47.372823, 11.13], [-1.068049, 47.372838, 11.12], [-1.068209, 47.372857, 11.1], [-1.068358, 47.372876, 11.12], [-1.068507, 47.372879, 11.15], [-1.068625, 47.372813, 11.18], [-1.068747, 47.372722, 11.21], [-1.068889, 47.372641, 11.25], [-1.069056, 47.37259, 11.29], [-1.069222, 47.372559, 11.32], [-1.069393, 47.372542, 11.36], [-1.069562, 47.372531, 11.39], [-1.069738, 47.372545, 11.43], [-1.069917, 47.37256, 11.46], [-1.070082, 47.372591, 11.5], [-1.070265, 47.372603, 11.53], [-1.070443, 47.372614, 11.57], [-1.070623, 47.372633, 11.6], [-1.070806, 47.372653, 11.64], [-1.07099, 47.372676, 11.66], [-1.071177, 47.372694, 11.68], [-1.071362, 47.372717, 11.71], [-1.071546, 47.372725, 11.73], [-1.071713, 47.372735, 11.75], [-1.071858, 47.372771, 11.77], [-1.072001, 47.372812, 11.79], [-1.072174, 47.372831, 11.81], [-1.072338, 47.372843, 11.83], [-1.072491, 47.372891, 11.85], [-1.072654, 47.372926, 11.88], [-1.072816, 47.372965, 11.9], [-1.072979, 47.373006, 11.92], [-1.073142, 47.373043, 11.94], [-1.073313, 47.373075, 11.96], [-1.0735, 47.373108, 11.95], [-1.073681, 47.373141, 11.94], [-1.073856, 47.373163, 11.93], [-1.074018, 47.3732, 11.92], [-1.074179, 47.373213, 11.92], [-1.074348, 47.373248, 11.91], [-1.074532, 47.373275, 11.9], [-1.074713, 47.373293, 11.89], [-1.074895, 47.373314, 11.88], [-1.075081, 47.373322, 11.87], [-1.075265, 47.373337, 11.86], [-1.075452, 47.373339, 11.85], [-1.075632, 47.373348, 11.84], [-1.075815, 47.373348, 11.83], [-1.075997, 47.373353, 11.84], [-1.076183, 47.373342, 11.87], [-1.076365, 47.373345, 11.89], [-1.076549, 47.373315, 11.92], [-1.07674, 47.373301, 11.96], [-1.076921, 47.373298, 11.98], [-1.077113, 47.373281, 12.01], [-1.077292, 47.37325, 12.04], [-1.077467, 47.373252, 12.07], [-1.077623, 47.373259, 12.1], [-1.077745, 47.373384, 12.13], [-1.077829, 47.373497, 12.16], [-1.077909, 47.373603, 12.19], [-1.078002, 47.373709, 12.22], [-1.078083, 47.373811, 12.24], [-1.07816, 47.373918, 12.22], [-1.07821, 47.374015, 12.2], [-1.078324, 47.374105, 12.18], [-1.078545, 47.374167, 12.15], [-1.078758, 47.374175, 12.12], [-1.078954, 47.374164, 12.1], [-1.079152, 47.374169, 12.07], [-1.079342, 47.374173, 12.05], [-1.079531, 47.374178, 12.03], [-1.079718, 47.374181, 12.0], [-1.079897, 47.374187, 11.98], [-1.080074, 47.37419, 11.96], [-1.080253, 47.374196, 11.94], [-1.080435, 47.3742, 11.91], [-1.080611, 47.37421, 11.88], [-1.080789, 47.374213, 11.85], [-1.080969, 47.374214, 11.82], [-1.081152, 47.374223, 11.79], [-1.081331, 47.374219, 11.75], [-1.081512, 47.374229, 11.72], [-1.081696, 47.374225, 11.69], [-1.081874, 47.374234, 11.66], [-1.082044, 47.37424, 11.63], [-1.082208, 47.374235, 11.6], [-1.082366, 47.37424, 11.57], [-1.08253, 47.374246, 11.54], [-1.082706, 47.374249, 11.51], [-1.082881, 47.374259, 11.48], [-1.083056, 47.374264, 11.44], [-1.083231, 47.374266, 11.39], [-1.083401, 47.374264, 11.32], [-1.083565, 47.374267, 11.26], [-1.08372, 47.374264, 11.19], [-1.083869, 47.374268, 11.13], [-1.084015, 47.374263, 11.08], [-1.08406, 47.374167, 11.02], [-1.084214, 47.374094, 10.94], [-1.084348, 47.374037, 10.88], [-1.084508, 47.374011, 10.82], [-1.084682, 47.374007, 10.75], [-1.084851, 47.373993, 10.68], [-1.085005, 47.373975, 10.62], [-1.085152, 47.373972, 10.56], [-1.085292, 47.373982, 10.5], [-1.08543, 47.373987, 10.45], [-1.085591, 47.373984, 10.39], [-1.085757, 47.37399, 10.42], [-1.085928, 47.373995, 10.47], [-1.086101, 47.373989, 10.51], [-1.08628, 47.37399, 10.56], [-1.086463, 47.373991, 10.6], [-1.086643, 47.373994, 10.65], [-1.086818, 47.37401, 10.69], [-1.086992, 47.374056, 10.74], [-1.087133, 47.374131, 10.79], [-1.087259, 47.374223, 10.83], [-1.087393, 47.374303, 10.88], [-1.087569, 47.374326, 10.92], [-1.087756, 47.374317, 10.97], [-1.087935, 47.374335, 11.02], [-1.088119, 47.374334, 11.06], [-1.088293, 47.374338, 11.05], [-1.088481, 47.374339, 11.04], [-1.088657, 47.37434, 11.03], [-1.088834, 47.374348, 11.02], [-1.089016, 47.374357, 11.01], [-1.089198, 47.374353, 11.01], [-1.089378, 47.374322, 11.0], [-1.089549, 47.37429, 10.99], [-1.089723, 47.374251, 10.98], [-1.089892, 47.374216, 10.97], [-1.090062, 47.374179, 10.96], [-1.090224, 47.37415, 10.96], [-1.090358, 47.374123, 10.95], [-1.090488, 47.374063, 10.94], [-1.090652, 47.374048, 10.94], [-1.090798, 47.374034, 10.91], [-1.090943, 47.373991, 10.87], [-1.09111, 47.373953, 10.84], [-1.091287, 47.373921, 10.8], [-1.091464, 47.373897, 10.76], [-1.091646, 47.373878, 10.72], [-1.091828, 47.373878, 10.68], [-1.092012, 47.37387, 10.64], [-1.092194, 47.373873, 10.6], [-1.092373, 47.373871, 10.56], [-1.092553, 47.373876, 10.53], [-1.092732, 47.373874, 10.49], [-1.092914, 47.37386, 10.45], [-1.093099, 47.37387, 10.41], [-1.093283, 47.373867, 10.37], [-1.09346, 47.373864, 10.36], [-1.093641, 47.373861, 10.35], [-1.093817, 47.373862, 10.34], [-1.093983, 47.373861, 10.34], [-1.094141, 47.373871, 10.33], [-1.094293, 47.373859, 10.32], [-1.094431, 47.373866, 10.32], [-1.094564, 47.373863, 10.31], [-1.094704, 47.373859, 10.3], [-1.094855, 47.373834, 10.3], [-1.095014, 47.373796, 10.29], [-1.095172, 47.373758, 10.28], [-1.095329, 47.373716, 10.27], [-1.09549, 47.373672, 10.26], [-1.095656, 47.373625, 10.25], [-1.09582, 47.373583, 10.25], [-1.095982, 47.373531, 10.28], [-1.096149, 47.373482, 10.32], [-1.096315, 47.373434, 10.36], [-1.096474, 47.373379, 10.4], [-1.096638, 47.373333, 10.44], [-1.0968, 47.373292, 10.48], [-1.096977, 47.373254, 10.52], [-1.097144, 47.373204, 10.57], [-1.097319, 47.37316, 10.61], [-1.097485, 47.373113, 10.65], [-1.097626, 47.373077, 10.68], [-1.097762, 47.373095, 10.72], [-1.097882, 47.373165, 10.75], [-1.09799, 47.373239, 10.79], [-1.098131, 47.373308, 10.83], [-1.098281, 47.373384, 10.81], [-1.098424, 47.373466, 10.7], [-1.098563, 47.373548, 10.58], [-1.09868, 47.373641, 10.46], [-1.09878, 47.373744, 10.35], [-1.098857, 47.373855, 10.24], [-1.098942, 47.37393, 10.15], [-1.098897, 47.373831, 10.05], [-1.098836, 47.373741, 9.96], [-1.098946, 47.373686, 9.87], [-1.099085, 47.373744, 9.77], [-1.099217, 47.373834, 9.65], [-1.099344, 47.373913, 9.54], [-1.09945, 47.373995, 9.44], [-1.099603, 47.374029, 9.34], [-1.099774, 47.373996, 9.22], [-1.099934, 47.373971, 9.19], [-1.100101, 47.373944, 9.22], [-1.100269, 47.373925, 9.24], [-1.100444, 47.373902, 9.27], [-1.100588, 47.373876, 9.3], [-1.100738, 47.373861, 9.32], [-1.10091, 47.37384, 9.35], [-1.101064, 47.373821, 9.37], [-1.101203, 47.373806, 9.39], [-1.101357, 47.373778, 9.42], [-1.10153, 47.373757, 9.45], [-1.101704, 47.373739, 9.47], [-1.101876, 47.373715, 9.5], [-1.10205, 47.373699, 9.53], [-1.102228, 47.373674, 9.56], [-1.102408, 47.37365, 9.59], [-1.102584, 47.37363, 9.62], [-1.102754, 47.373602, 9.66], [-1.102925, 47.373584, 9.7], [-1.103104, 47.373553, 9.74], [-1.103275, 47.373543, 9.78], [-1.103428, 47.373516, 9.82], [-1.103576, 47.3735, 9.85], [-1.103712, 47.373488, 9.88], [-1.103903, 47.373459, 9.93], [-1.10406, 47.373436, 9.96], [-1.104232, 47.373433, 10.0], [-1.104402, 47.373416, 10.04], [-1.104555, 47.373399, 10.08], [-1.104743, 47.373385, 10.12], [-1.104877, 47.373362, 10.15], [-1.105007, 47.373319, 10.19], [-1.105142, 47.373313, 10.19], [-1.105283, 47.373387, 10.18], [-1.105387, 47.373453, 10.17], [-1.105518, 47.373507, 10.16], [-1.105655, 47.373565, 10.15], [-1.105803, 47.373626, 10.14], [-1.10594, 47.373677, 10.13], [-1.106081, 47.373747, 10.11], [-1.106218, 47.37383, 10.1], [-1.106382, 47.373886, 10.09], [-1.106527, 47.373954, 10.08], [-1.106671, 47.374021, 10.07], [-1.106809, 47.374094, 10.05], [-1.106971, 47.374158, 10.04], [-1.107134, 47.374214, 10.03], [-1.107269, 47.374296, 10.03], [-1.107433, 47.374354, 10.2], [-1.107579, 47.374435, 10.36], [-1.10774, 47.3745, 10.53], [-1.107894, 47.374574, 10.69], [-1.10803, 47.374654, 10.85], [-1.108172, 47.374713, 11.0], [-1.108317, 47.374758, 11.14], [-1.108472, 47.374818, 11.3], [-1.108657, 47.374823, 11.46], [-1.108834, 47.374839, 11.62], [-1.109004, 47.374854, 11.77], [-1.109181, 47.374858, 11.93], [-1.109355, 47.374873, 12.08], [-1.109522, 47.374878, 12.23], [-1.109665, 47.374889, 12.35], [-1.109833, 47.374914, 12.34], [-1.109999, 47.374913, 12.32], [-1.110173, 47.374912, 12.3], [-1.110358, 47.374953, 12.28], [-1.110488, 47.374974, 12.27], [-1.110671, 47.374969, 12.25], [-1.110809, 47.374993, 12.24], [-1.110949, 47.375002, 12.22], [-1.111096, 47.375014, 12.2], [-1.111285, 47.375015, 12.18], [-1.111438, 47.375005, 12.17], [-1.111636, 47.374993, 12.15], [-1.111851, 47.374997, 12.12], [-1.112052, 47.375006, 12.1], [-1.112249, 47.375009, 12.08], [-1.112431, 47.375017, 12.06], [-1.112612, 47.375015, 12.04], [-1.112787, 47.375025, 12.02], [-1.112958, 47.37503, 12.01], [-1.113134, 47.375036, 11.99], [-1.113306, 47.375041, 11.97], [-1.113485, 47.375044, 11.95], [-1.113665, 47.37505, 11.93], [-1.113849, 47.375056, 11.91], [-1.114027, 47.375057, 11.89], [-1.114199, 47.375054, 11.87], [-1.114383, 47.375063, 11.85], [-1.114564, 47.375067, 11.83], [-1.11474, 47.375075, 11.81], [-1.114928, 47.375077, 11.79], [-1.115111, 47.375081, 11.75], [-1.115287, 47.375082, 11.71], [-1.11546, 47.375087, 11.68], [-1.115644, 47.375089, 11.63], [-1.11583, 47.375098, 11.59], [-1.116013, 47.375095, 11.55], [-1.116195, 47.375101, 11.51], [-1.116377, 47.375097, 11.47], [-1.116563, 47.375106, 11.43], [-1.11674, 47.37511, 11.39], [-1.116923, 47.375116, 11.35], [-1.117099, 47.375121, 11.31], [-1.117285, 47.375133, 11.26], [-1.117468, 47.375129, 11.22], [-1.117645, 47.375132, 11.19], [-1.117821, 47.375143, 11.21], [-1.118006, 47.37515, 11.22], [-1.118183, 47.375145, 11.24], [-1.118363, 47.375155, 11.25], [-1.118538, 47.375156, 11.27], [-1.118717, 47.375161, 11.28], [-1.118899, 47.375168, 11.3], [-1.119079, 47.375169, 11.31], [-1.119256, 47.375176, 11.33], [-1.119437, 47.375182, 11.34], [-1.119619, 47.375182, 11.36], [-1.119802, 47.375186, 11.37], [-1.11998, 47.375196, 11.39], [-1.120162, 47.375202, 11.4], [-1.120328, 47.375206, 11.42], [-1.120484, 47.37521, 11.44], [-1.12063, 47.375213, 11.45], [-1.120768, 47.375221, 11.47], [-1.120905, 47.375217, 11.48], [-1.121058, 47.375205, 11.5], [-1.121213, 47.375205, 11.52], [-1.121352, 47.375186, 11.53], [-1.121495, 47.37523, 11.55], [-1.121665, 47.375229, 11.57], [-1.121798, 47.375244, 11.58], [-1.121966, 47.375242, 11.6], [-1.122156, 47.375247, 11.62], [-1.122342, 47.37525, 11.64], [-1.122523, 47.375253, 11.66], [-1.122692, 47.37526, 11.68], [-1.122847, 47.375262, 11.69], [-1.122997, 47.375272, 11.67], [-1.123155, 47.37527, 11.63], [-1.123319, 47.375276, 11.58], [-1.123489, 47.375278, 11.53], [-1.123658, 47.375279, 11.49], [-1.123831, 47.375279, 11.44], [-1.124004, 47.375284, 11.39], [-1.124179, 47.375289, 11.35], [-1.124361, 47.375292, 11.3], [-1.124544, 47.375298, 11.24], [-1.124724, 47.375299, 11.2], [-1.124893, 47.375304, 11.15], [-1.12505, 47.375308, 11.11], [-1.12521, 47.375309, 11.06], [-1.125376, 47.375284, 11.02], [-1.125556, 47.375286, 10.97], [-1.125736, 47.375301, 10.96], [-1.125912, 47.375306, 10.96], [-1.126091, 47.375302, 10.95], [-1.126266, 47.375318, 10.95], [-1.126446, 47.375325, 10.94], [-1.126626, 47.37533, 10.93], [-1.126812, 47.375337, 10.93], [-1.126999, 47.375338, 10.92], [-1.127182, 47.375349, 10.92], [-1.127363, 47.375347, 10.91], [-1.127547, 47.375348, 10.9], [-1.127734, 47.375347, 10.9], [-1.127916, 47.375356, 10.89], [-1.128097, 47.375367, 10.89], [-1.128276, 47.375373, 10.86], [-1.128463, 47.37536, 10.81], [-1.128652, 47.375344, 10.76], [-1.128843, 47.375353, 10.7], [-1.129023, 47.375374, 10.65], [-1.129207, 47.375365, 10.6], [-1.129393, 47.375361, 10.55], [-1.129578, 47.375345, 10.5], [-1.129759, 47.375349, 10.45], [-1.129925, 47.375373, 10.4], [-1.13009, 47.375365, 10.36], [-1.130257, 47.37539, 10.31], [-1.130437, 47.3754, 10.26], [-1.130615, 47.375395, 10.21], [-1.130795, 47.375399, 10.16], [-1.130969, 47.375403, 10.15], [-1.131146, 47.375402, 10.15], [-1.13133, 47.375404, 10.15], [-1.131513, 47.375414, 10.15], [-1.131694, 47.375423, 10.15], [-1.131875, 47.375429, 10.15], [-1.132051, 47.375433, 10.15], [-1.132236, 47.375432, 10.15], [-1.132411, 47.37544, 10.14], [-1.132583, 47.375441, 10.14], [-1.132763, 47.375445, 10.14], [-1.132945, 47.375453, 10.14], [-1.133132, 47.375455, 10.14], [-1.133317, 47.375456, 10.14], [-1.1335, 47.375462, 10.14], [-1.133686, 47.375471, 10.14], [-1.133873, 47.375469, 10.13], [-1.13406, 47.375478, 10.13], [-1.134246, 47.375482, 10.13], [-1.134429, 47.375483, 10.12], [-1.134604, 47.37549, 10.12], [-1.134776, 47.375487, 10.12], [-1.134937, 47.375493, 10.12], [-1.135093, 47.3755, 10.11], [-1.135239, 47.375506, 10.11], [-1.135374, 47.375482, 10.11], [-1.135554, 47.375478, 10.11], [-1.135732, 47.375491, 10.1], [-1.135914, 47.375497, 10.1], [-1.136102, 47.375515, 10.1], [-1.13624, 47.375519, 10.23], [-1.136386, 47.375524, 10.41], [-1.136532, 47.375531, 10.59], [-1.136682, 47.375529, 10.77], [-1.136834, 47.375539, 10.96], [-1.136992, 47.375512, 11.16], [-1.137126, 47.375454, 11.35], [-1.137262, 47.375406, 11.54], [-1.137382, 47.375358, 11.71], [-1.137547, 47.375329, 11.92], [-1.137686, 47.375316, 12.09], [-1.137947, 47.375355, 12.42], [-1.138109, 47.375351, 12.62], [-1.138248, 47.37536, 12.79], [-1.138424, 47.375363, 13.01], [-1.138597, 47.375363, 13.22], [-1.138763, 47.375368, 13.34], [-1.138953, 47.375354, 13.3], [-1.139089, 47.375324, 13.26], [-1.139233, 47.375302, 13.23], [-1.139388, 47.375274, 13.19], [-1.139548, 47.375238, 13.15], [-1.139731, 47.3752, 13.1], [-1.13993, 47.375182, 13.06], [-1.140123, 47.375161, 13.01], [-1.14032, 47.375143, 12.97], [-1.140517, 47.375126, 12.92], [-1.1407, 47.375103, 12.87], [-1.140871, 47.375078, 12.83], [-1.141056, 47.375058, 12.79], [-1.141237, 47.375038, 12.75], [-1.141409, 47.375011, 12.72], [-1.141585, 47.374993, 12.69], [-1.141768, 47.374961, 12.67], [-1.141944, 47.374935, 12.64], [-1.142121, 47.374898, 12.62], [-1.14229, 47.374847, 12.6], [-1.142465, 47.374798, 12.57], [-1.142638, 47.374746, 12.55], [-1.142805, 47.374703, 12.52], [-1.14297, 47.374658, 12.5], [-1.143126, 47.374611, 12.48], [-1.143274, 47.374567, 12.46], [-1.143427, 47.374535, 12.43], [-1.143568, 47.374485, 12.41], [-1.143714, 47.374451, 12.39], [-1.143852, 47.37441, 12.38], [-1.143998, 47.374371, 12.36], [-1.144137, 47.374327, 12.35], [-1.14425, 47.374277, 12.33], [-1.144413, 47.37422, 12.31], [-1.144569, 47.374179, 12.3], [-1.144703, 47.374147, 12.28], [-1.144854, 47.374126, 12.27], [-1.145029, 47.374079, 12.25], [-1.145176, 47.374044, 12.23], [-1.145316, 47.373988, 12.22], [-1.145473, 47.373952, 12.2], [-1.145623, 47.373901, 12.19], [-1.14578, 47.373856, 12.17], [-1.145942, 47.373805, 12.15], [-1.146105, 47.373752, 12.13], [-1.146271, 47.373707, 12.11], [-1.146427, 47.373652, 12.07], [-1.146588, 47.373602, 12.02], [-1.146753, 47.373552, 11.98], [-1.146911, 47.373503, 11.93], [-1.147073, 47.37345, 11.89], [-1.147237, 47.3734, 11.84], [-1.147396, 47.37335, 11.8], [-1.147559, 47.373303, 11.76], [-1.147719, 47.373254, 11.71], [-1.147883, 47.373203, 11.67], [-1.148043, 47.373152, 11.62], [-1.148201, 47.373105, 11.58], [-1.148352, 47.373061, 11.54], [-1.148501, 47.373013, 11.5], [-1.148642, 47.372971, 11.46], [-1.14879, 47.372927, 11.49], [-1.148942, 47.372874, 11.53], [-1.1491, 47.372825, 11.57], [-1.149262, 47.372778, 11.61], [-1.149419, 47.372731, 11.65], [-1.149582, 47.37268, 11.69], [-1.14974, 47.372634, 11.73], [-1.149898, 47.37258, 11.77], [-1.150062, 47.372531, 11.81], [-1.150223, 47.37248, 11.86], [-1.150377, 47.372438, 11.89], [-1.150508, 47.372388, 11.93], [-1.15064, 47.372348, 11.96], [-1.15078, 47.372309, 12.0], [-1.150921, 47.372268, 12.03], [-1.151059, 47.372238, 12.06], [-1.151203, 47.372207, 12.11], [-1.151364, 47.372166, 12.16], [-1.151508, 47.372134, 12.21], [-1.151668, 47.372111, 12.25], [-1.151855, 47.372065, 12.31], [-1.151988, 47.372029, 12.36], [-1.152135, 47.371985, 12.4], [-1.152282, 47.371944, 12.45], [-1.15244, 47.371917, 12.5], [-1.152594, 47.371884, 12.55], [-1.15276, 47.371867, 12.6], [-1.152928, 47.371859, 12.65], [-1.153097, 47.371846, 12.7], [-1.153263, 47.371829, 12.75], [-1.153431, 47.371808, 12.8], [-1.153605, 47.37179, 12.85], [-1.15378, 47.371769, 12.81], [-1.15396, 47.371749, 12.76], [-1.154131, 47.371731, 12.72], [-1.154301, 47.371721, 12.67], [-1.154469, 47.371708, 12.62], [-1.154648, 47.371694, 12.57], [-1.154822, 47.371678, 12.52], [-1.154991, 47.371662, 12.48], [-1.15516, 47.371646, 12.43], [-1.155323, 47.37165, 12.39], [-1.155487, 47.371644, 12.34], [-1.155677, 47.37164, 12.29], [-1.155883, 47.371632, 12.23], [-1.156067, 47.371624, 12.18], [-1.156236, 47.371616, 12.14], [-1.156403, 47.37161, 12.14], [-1.156555, 47.371604, 12.16], [-1.156721, 47.371599, 12.18], [-1.156888, 47.371591, 12.19], [-1.157056, 47.371588, 12.21], [-1.157229, 47.371582, 12.23], [-1.157412, 47.371574, 12.25], [-1.157587, 47.371569, 12.26], [-1.157761, 47.371563, 12.28], [-1.157936, 47.371557, 12.3], [-1.158111, 47.371549, 12.32], [-1.158293, 47.37154, 12.34], [-1.158473, 47.37153, 12.35], [-1.158653, 47.371527, 12.37], [-1.158829, 47.371521, 12.39], [-1.159007, 47.371519, 12.4], [-1.159188, 47.371506, 12.41], [-1.159362, 47.3715, 12.42], [-1.159538, 47.371489, 12.43], [-1.159714, 47.37149, 12.44], [-1.15988, 47.371482, 12.45], [-1.160036, 47.371476, 12.46], [-1.160187, 47.371471, 12.47], [-1.160331, 47.371459, 12.47], [-1.160485, 47.371452, 12.48], [-1.160636, 47.371449, 12.49], [-1.160795, 47.371444, 12.5], [-1.16095, 47.37144, 12.51], [-1.161105, 47.371435, 12.52], [-1.161258, 47.371427, 12.52], [-1.161411, 47.371427, 12.53], [-1.161562, 47.37142, 12.54], [-1.161719, 47.371417, 12.53], [-1.161875, 47.371411, 12.51], [-1.162028, 47.371405, 12.5], [-1.162181, 47.371395, 12.49], [-1.162345, 47.371388, 12.47], [-1.162511, 47.371383, 12.46], [-1.162675, 47.371382, 12.44], [-1.162839, 47.371378, 12.43], [-1.163005, 47.371369, 12.41], [-1.163175, 47.371355, 12.4], [-1.163329, 47.371321, 12.39], [-1.163506, 47.371304, 12.37], [-1.163686, 47.371292, 12.35], [-1.163874, 47.371288, 12.34], [-1.164054, 47.371278, 12.32], [-1.16423, 47.371268, 12.31], [-1.164396, 47.371272, 12.28], [-1.164549, 47.371267, 12.26], [-1.164691, 47.371263, 12.25], [-1.164847, 47.371257, 12.23], [-1.164994, 47.371254, 12.21], [-1.165148, 47.371247, 12.19], [-1.16529, 47.371238, 12.17], [-1.165426, 47.371237, 12.15], [-1.165614, 47.371224, 12.13], [-1.165758, 47.371214, 12.11], [-1.165907, 47.371208, 12.09], [-1.166063, 47.371208, 12.07], [-1.166225, 47.371198, 12.05], [-1.16638, 47.371178, 12.03], [-1.16653, 47.371147, 12.01], [-1.166677, 47.371099, 11.99], [-1.166821, 47.371042, 11.96], [-1.166965, 47.370987, 11.87], [-1.167103, 47.370929, 11.78], [-1.16722, 47.370849, 11.68], [-1.167328, 47.370786, 11.6], [-1.167445, 47.370698, 11.5], [-1.167562, 47.370618, 11.41], [-1.167703, 47.370559, 11.32], [-1.167849, 47.370499, 11.22], [-1.167989, 47.370452, 11.13], [-1.168172, 47.370407, 11.03], [-1.168293, 47.370362, 10.95], [-1.168426, 47.37031, 10.86], [-1.168558, 47.370263, 10.78], [-1.168711, 47.370223, 10.69], [-1.168859, 47.370223, 10.6], [-1.169011, 47.370231, 10.52], [-1.169157, 47.370235, 10.57], [-1.169323, 47.370221, 10.79], [-1.169448, 47.370184, 10.97], [-1.169587, 47.370094, 11.22], [-1.169714, 47.36999, 11.48], [-1.169808, 47.369924, 11.65], [-1.169889, 47.369848, 11.83], [-1.169982, 47.369774, 12.02], [-1.170109, 47.369673, 12.27], [-1.170236, 47.369568, 12.53], [-1.170324, 47.369497, 12.71], [-1.170411, 47.369424, 12.89], [-1.170502, 47.369348, 13.08], [-1.170596, 47.369277, 13.26], [-1.170706, 47.369211, 13.46], [-1.170798, 47.369139, 13.64], [-1.170889, 47.369071, 13.81], [-1.170995, 47.369007, 13.85], [-1.171086, 47.368932, 13.62], [-1.17118, 47.368865, 13.41], [-1.171167, 47.368738, 13.11], [-1.17122, 47.368613, 12.81], [-1.171328, 47.368538, 12.57], [-1.17142, 47.368459, 12.34], [-1.171518, 47.368387, 12.11], [-1.171607, 47.36831, 11.88], [-1.171691, 47.368236, 11.67], [-1.171796, 47.368175, 11.45], [-1.171863, 47.368036, 11.11], [-1.171946, 47.367912, 10.79], [-1.172038, 47.367804, 10.51], [-1.172131, 47.367692, 10.21], [-1.172244, 47.367595, 9.92], [-1.172359, 47.367499, 9.83], [-1.172461, 47.367402, 9.98], [-1.172558, 47.36732, 10.11], [-1.172649, 47.367245, 10.23], [-1.172779, 47.367148, 10.4], [-1.172887, 47.36705, 10.55], [-1.172931, 47.366958, 10.67], [-1.17305, 47.366916, 10.78], [-1.173147, 47.366849, 10.9], [-1.173244, 47.366766, 11.03], [-1.173457, 47.366656, 11.26], [-1.173582, 47.366595, 11.39], [-1.173717, 47.366532, 11.53], [-1.173847, 47.36647, 11.67], [-1.174001, 47.366438, 11.8], [-1.174138, 47.366409, 11.92], [-1.174256, 47.366366, 12.02], [-1.174281, 47.366237, 12.08], [-1.174318, 47.366148, 12.13], [-1.17438, 47.366057, 12.18], [-1.174438, 47.365961, 12.23], [-1.174515, 47.365868, 12.28], [-1.174582, 47.365768, 12.33], [-1.174652, 47.365681, 12.38], [-1.174727, 47.3656, 12.43], [-1.174815, 47.365529, 12.47], [-1.174908, 47.365454, 12.52], [-1.175002, 47.365383, 12.56], [-1.175094, 47.3653, 12.61], [-1.175189, 47.365219, 12.66], [-1.175277, 47.365136, 12.71], [-1.175388, 47.365055, 12.77], [-1.175494, 47.364968, 12.82], [-1.175607, 47.364877, 12.88], [-1.175724, 47.364783, 12.99], [-1.175835, 47.364687, 13.11], [-1.175949, 47.364596, 13.22], [-1.176062, 47.364509, 13.33], [-1.176166, 47.364428, 13.43], [-1.176262, 47.364348, 13.53], [-1.176349, 47.364267, 13.63], [-1.176448, 47.364181, 13.73], [-1.176555, 47.364092, 13.84], [-1.176664, 47.364006, 13.95], [-1.176772, 47.363924, 14.05], [-1.17687, 47.36384, 14.15], [-1.176987, 47.363785, 14.24], [-1.177123, 47.363772, 14.33], [-1.177278, 47.363779, 14.43], [-1.177406, 47.363863, 14.55], [-1.177465, 47.363969, 14.59], [-1.177531, 47.364076, 14.59], [-1.177596, 47.364179, 14.59], [-1.177641, 47.364276, 14.59], [-1.177671, 47.364378, 14.59], [-1.177726, 47.364461, 14.59], [-1.177535, 47.364534, 14.59], [-1.177408, 47.364506, 14.59], [-1.177255, 47.364459, 14.59], [-1.177121, 47.364401, 14.59], [-1.177035, 47.364331, 14.59]]}, "properties": {"name": "🚲 Loire à Vélo 2026 - Étape 3 - St-Florent-le-Vieil ➡️ Ancenis", "source_file": "acte-3_etape-3_st-florent-le-vieil_ancenis.gpx", "point_count": 1069, "distance_km": 13.84, "duration_s": 3236, "elevation_gain_m": 26.7, "elevation_loss_m": 28.0}}]}
