{"type":"FeatureCollection","features":[{"type":"Feature","geometry":{"type":"LineString","coordinates":[[2.298551,48.471258],[2.298399,48.471297],[2.298172,48.471832],[2.298531,48.472444],[2.298129,48.472539],[2.298725,48.472442],[2.297564,48.472726],[2.283255,48.471257],[2.281453,48.471598],[2.277248,48.473498],[2.276584,48.473361],[2.27427,48.472065],[2.272803,48.47207],[2.271163,48.471463],[2.270562,48.471638],[2.269259,48.473178],[2.266492,48.474143],[2.261666,48.474617],[2.259682,48.473971],[2.258635,48.473975],[2.256286,48.474362],[2.254724,48.474386],[2.253218,48.474315],[2.251562,48.473958],[2.251034,48.474204],[2.250687,48.474775],[2.250329,48.47504],[2.247152,48.475446],[2.245985,48.475012],[2.243776,48.474501],[2.242968,48.474466],[2.238736,48.47324],[2.234577,48.473179],[2.238953,48.473255],[2.243027,48.474487],[2.243908,48.474516],[2.245249,48.474927],[2.245791,48.474859],[2.246293,48.475113],[2.244837,48.475029],[2.243954,48.474775],[2.242959,48.474861],[2.240622,48.474626],[2.240258,48.47478],[2.240199,48.475134],[2.240575,48.475641],[2.24129,48.475938],[2.242398,48.476076],[2.242376,48.47644],[2.242637,48.476004],[2.243042,48.476205],[2.243148,48.476496],[2.244007,48.477173],[2.244051,48.477793],[2.243713,48.478292],[2.240418,48.480545],[2.236934,48.48125],[2.232282,48.483659],[2.229522,48.48478],[2.228481,48.485447],[2.224823,48.487073],[2.220579,48.490078],[2.21877,48.491492],[2.218018,48.49227],[2.193371,48.464844],[2.192967,48.464017],[2.19256,48.462014],[2.19227,48.459309],[2.191939,48.458368],[2.191592,48.457973],[2.191484,48.457052],[2.190857,48.455986],[2.190816,48.455457],[2.191128,48.454206],[2.19032,48.452793],[2.190323,48.452457],[2.189968,48.451653],[2.189111,48.450572],[2.188688,48.45036],[2.188508,48.449831],[2.1876,48.449276],[2.186121,48.447739],[2.184995,48.446987],[2.183981,48.44601],[2.183906,48.445686],[2.183411,48.445356],[2.182896,48.44457],[2.182511,48.444473],[2.181957,48.443615],[2.181466,48.443312],[2.181312,48.443005],[2.181432,48.443055],[2.181243,48.443075],[2.180416,48.441104],[2.180105,48.441027],[2.179057,48.441373],[2.177835,48.441216],[2.173438,48.439964],[2.170492,48.436606],[2.169485,48.43519],[2.168828,48.434839],[2.166557,48.435651],[2.165454,48.436212],[2.165121,48.436089],[2.163996,48.43665],[2.163455,48.436033],[2.163195,48.435966],[2.16221,48.436617],[2.160963,48.436087],[2.160377,48.436672],[2.159813,48.4365],[2.159841,48.436288],[2.159734,48.436557],[2.159503,48.436502],[2.159802,48.43646]]},"properties":{"name":"Boissy-St-Cutté ➡️ Étampes","source_file":"acte-1_etape-2_boissy-le-culle_etampes.gpx","point_count":115,"distance_km":19.25,"duration_s":5280,"elevation_gain_m":175,"elevation_loss_m":166}}]}