{"type":"FeatureCollection","features":[{"type":"Feature","geometry":{"type":"LineString","coordinates":[[0.988798,47.417164],[0.986373,47.416341],[0.985913,47.416584],[0.985921,47.416786],[0.985059,47.416814],[0.982964,47.415976],[0.982797,47.415728],[0.984283,47.413939],[0.98427,47.413727],[0.983602,47.413399],[0.984484,47.412884],[0.986755,47.412608],[0.986637,47.412054],[0.987802,47.411777],[0.98789,47.411568],[0.989038,47.410912],[0.99013,47.411011],[0.990443,47.410761],[0.99093,47.411039],[0.990885,47.41125],[0.991024,47.411256],[0.991663,47.410911],[0.993405,47.409045],[0.994119,47.408554],[0.99402,47.406837],[0.994932,47.405212],[0.995897,47.403952],[1.001425,47.403073],[1.002317,47.402465],[1.002523,47.401952],[1.002403,47.401574],[1.002547,47.401564],[1.002541,47.401974],[1.002672,47.40206],[1.003662,47.401679],[1.005189,47.401495],[1.004988,47.400776],[1.005315,47.40015],[1.005971,47.400241],[1.007263,47.399952],[1.008678,47.400225],[1.008456,47.400139],[1.008896,47.399252],[1.010254,47.398779],[1.010736,47.398794],[1.011989,47.39791],[1.011988,47.397539],[1.011035,47.396431],[1.01081,47.394066],[1.011509,47.392028],[1.01267,47.391697],[1.012845,47.389784],[1.013278,47.388876],[1.011884,47.385641],[1.012874,47.384634],[1.017541,47.381234],[1.015634,47.374046],[1.015623,47.373444],[1.015932,47.372348],[1.01795,47.369734],[1.018244,47.369203],[1.018139,47.368626],[1.018354,47.368409],[1.020045,47.367569],[1.020501,47.366777],[1.024365,47.364562],[1.025543,47.363412],[1.026009,47.362718],[1.026016,47.362099],[1.022467,47.356021],[1.021967,47.355548],[1.020507,47.354687],[1.018655,47.352437],[1.01786,47.351936],[1.016769,47.351576],[1.016388,47.351158],[1.016018,47.35021],[1.015259,47.349289],[1.014995,47.348717],[1.014949,47.34789],[1.015345,47.347109],[1.016035,47.346461],[1.016355,47.346417],[1.017698,47.347296],[1.019321,47.348093],[1.020974,47.348476],[1.022509,47.348454],[1.023223,47.346333],[1.023081,47.346067],[1.022505,47.345884],[1.022698,47.345761],[1.022041,47.345074],[1.021968,47.344756],[1.022653,47.344349],[1.022954,47.343873],[1.026895,47.343779],[1.027467,47.343313],[1.030111,47.343773],[1.030776,47.343488],[1.032407,47.34345],[1.035995,47.341818],[1.036909,47.340516],[1.037825,47.338485],[1.039082,47.337248],[1.039358,47.336704],[1.041678,47.336268],[1.042117,47.336049],[1.044074,47.333142],[1.04654,47.332921],[1.046108,47.331177],[1.046226,47.330992],[1.048766,47.330375],[1.050729,47.330273],[1.051901,47.330396],[1.056279,47.331428],[1.058751,47.331524],[1.058825,47.332291],[1.058952,47.332352],[1.063535,47.332251],[1.064626,47.332089],[1.066405,47.329818],[1.06653,47.329851]]},"properties":{"name":"Amboise ➡️ Chenonceaux","source_file":"acte-2_etape-2_amboise_chenonceaux.gpx","point_count":122,"distance_km":16.7,"duration_s":3060,"elevation_gain_m":154,"elevation_loss_m":145}}]}