{"type":"FeatureCollection","features":[{"type":"Feature","geometry":{"type":"LineString","coordinates":[[2.169241,48.440368],[2.167031,48.438764],[2.163193,48.437181],[2.163378,48.436888],[2.167047,48.435316],[2.166675,48.434236],[2.1661,48.433892],[2.16581,48.43388],[2.164316,48.434758],[2.160968,48.436182],[2.160153,48.435881],[2.159671,48.436446],[2.15875,48.436471],[2.155033,48.434612],[2.154543,48.434313],[2.154551,48.434123],[2.154216,48.434149],[2.150116,48.432378],[2.147693,48.431053],[2.147585,48.430843],[2.147789,48.430071],[2.149383,48.427582],[2.149617,48.426432],[2.1485,48.424707],[2.146846,48.422737],[2.146728,48.422417],[2.146809,48.421988],[2.145873,48.420628],[2.14376,48.419447],[2.142001,48.417559],[2.137341,48.414054],[2.13454,48.411543],[2.132173,48.40508],[2.129054,48.398549],[2.125443,48.387128],[2.124407,48.382481],[2.12374,48.377513],[2.124311,48.374291],[2.126045,48.369363],[2.126223,48.368472],[2.125752,48.367065],[2.124926,48.36572],[2.12312,48.363575],[2.12323,48.362774],[2.120382,48.362415],[2.120563,48.362272],[2.120382,48.362285],[2.120484,48.360736],[2.120905,48.360392],[2.121392,48.359646],[2.121825,48.358944],[2.121832,48.358637],[2.121046,48.358148],[2.120171,48.357925],[2.119527,48.357464],[2.119059,48.356292],[2.118449,48.355695],[2.117231,48.355264],[2.115059,48.354905],[2.113253,48.354215],[2.112473,48.353686],[2.112155,48.353267],[2.111985,48.352616],[2.111154,48.350939],[2.110002,48.349703],[2.109773,48.348777],[2.109356,48.347953],[2.107118,48.346903],[2.105415,48.345377],[2.105277,48.344442],[2.104261,48.34323],[2.104139,48.34285],[2.104489,48.341697],[2.104319,48.341106],[2.103677,48.340121],[2.103486,48.338767],[2.103076,48.337933],[2.10305,48.337344],[2.103291,48.336341],[2.103004,48.335937],[2.102012,48.335425],[2.101308,48.335306],[2.098569,48.335597],[2.096381,48.33564],[2.095295,48.33532],[2.094305,48.334319],[2.093602,48.332367],[2.091336,48.329404],[2.09082,48.328932],[2.088911,48.327949],[2.088379,48.327464],[2.086904,48.325277],[2.08621,48.323019],[2.085458,48.321823],[2.085234,48.320391],[2.085206,48.319721],[2.085432,48.318946],[2.085298,48.31893],[2.089769,48.318318],[2.088302,48.318454],[2.086933,48.318795],[2.085388,48.318545],[2.085288,48.31824],[2.085416,48.317923],[2.086717,48.317168],[2.085636,48.317762],[2.085244,48.318251],[2.08377,48.318603],[2.08308,48.318707],[2.081366,48.318278],[2.079897,48.316994],[2.080552,48.316167],[2.082503,48.315045],[2.082519,48.314879],[2.080875,48.314793],[2.079041,48.314306],[2.075552,48.312301],[2.074609,48.313077],[2.074913,48.313257],[2.075186,48.313273],[2.074659,48.312992],[2.075498,48.312321],[2.074746,48.311861],[2.068824,48.309343],[2.066263,48.308536],[2.061307,48.3061],[2.060627,48.304248],[2.060175,48.303532],[2.058046,48.303749],[2.056565,48.304316],[2.055873,48.304414],[2.055881,48.303771],[2.055205,48.301161],[2.054109,48.298101],[2.053742,48.297406],[2.052318,48.296468],[2.050662,48.293032],[2.050617,48.292608],[2.050763,48.292377],[2.051636,48.291784],[2.051804,48.291237],[2.051574,48.290627],[2.049614,48.288584],[2.049006,48.28762],[2.048885,48.287097],[2.048526,48.286786],[2.047494,48.284891],[2.045484,48.282187],[2.044211,48.279757],[2.041937,48.278195],[2.036552,48.273619],[2.032524,48.27172],[2.032308,48.26969],[2.031599,48.267512],[2.031156,48.266637],[2.030967,48.266524],[2.029182,48.266948],[2.026623,48.262812],[2.02593,48.262258],[2.023863,48.261195],[2.023017,48.260546],[2.021765,48.259316],[2.020893,48.258175],[2.02012,48.256786],[2.01969,48.256349],[2.015998,48.253272],[2.012399,48.251038],[2.008241,48.248955],[2.007638,48.247085],[2.00749,48.247022],[2.008387,48.246203],[2.008248,48.245596],[2.007713,48.243809],[2.006321,48.240974],[2.005837,48.238583],[2.006045,48.23669],[2.00507,48.228378],[2.003853,48.226605],[2.004425,48.222027],[1.996606,48.218791],[1.995323,48.21745],[1.994819,48.217125],[1.994542,48.216482],[1.993683,48.215383],[1.989238,48.210407],[1.988972,48.208583],[1.989013,48.205891],[1.988637,48.204453],[1.987975,48.202872],[1.985578,48.199508],[1.984067,48.19411],[1.982127,48.190253],[1.981486,48.188494],[1.980932,48.185564],[1.980595,48.185303],[1.979698,48.185095],[1.977949,48.184902],[1.977795,48.184448],[1.977629,48.18453],[1.981704,48.183342],[1.981525,48.182525],[1.979084,48.178275],[1.978629,48.177187],[1.97787,48.172814],[1.978298,48.171178],[1.97884,48.169925],[1.978761,48.16982],[1.97974,48.169531],[1.979921,48.168927],[1.978846,48.165227],[1.977271,48.162049],[1.976796,48.15901],[1.976459,48.157954],[1.975107,48.156086],[1.974449,48.154266],[1.974417,48.154031],[1.975132,48.153749],[1.97614,48.152787],[1.976614,48.152166],[1.976647,48.151837],[1.975357,48.150315],[1.974948,48.150139],[1.975045,48.149972],[1.972367,48.145303],[1.971809,48.143273],[1.970827,48.140763],[1.970204,48.138181],[1.969738,48.137778],[1.968381,48.137227],[1.967163,48.137432],[1.966953,48.137583],[1.966906,48.137901],[1.966671,48.137979],[1.962524,48.138281],[1.953689,48.137313],[1.950312,48.136411],[1.94477,48.133724],[1.938342,48.133653],[1.93534,48.133885],[1.934935,48.133623],[1.934587,48.133676],[1.934377,48.133437],[1.934408,48.13414],[1.933915,48.134197],[1.934146,48.134227],[1.93396,48.13406],[1.934007,48.13425],[1.934506,48.13437],[1.933818,48.134072],[1.933697,48.134153],[1.93379,48.134225],[1.933909,48.134141],[1.933591,48.13389],[1.933772,48.134129],[1.934252,48.133974],[1.934163,48.134163],[1.934407,48.134185],[1.934387,48.133599],[1.934175,48.133279],[1.933322,48.132718],[1.93277,48.13182],[1.932313,48.130602],[1.932271,48.129307],[1.932436,48.129005],[1.932753,48.126888],[1.933269,48.125899],[1.933615,48.124412],[1.933907,48.123791],[1.934758,48.122715],[1.935124,48.121861],[1.935521,48.119969],[1.935787,48.116279],[1.93711,48.113562],[1.938128,48.112185],[1.938351,48.110965],[1.938006,48.109902],[1.936401,48.109549],[1.930984,48.107372],[1.925605,48.102978],[1.920279,48.100228],[1.897727,48.09651],[1.897399,48.096149],[1.897469,48.096503],[1.896518,48.096433],[1.89619,48.096303],[1.895804,48.095452],[1.895601,48.095361],[1.893772,48.095577],[1.891379,48.095378],[1.888984,48.095644],[1.891244,48.095361],[1.894043,48.095591],[1.894612,48.095442],[1.894483,48.093945],[1.89503,48.091487],[1.895258,48.088383],[1.894592,48.08527],[1.894869,48.080408],[1.894653,48.079749],[1.886144,48.079418],[1.885728,48.079264],[1.883747,48.077421],[1.878943,48.077243],[1.878781,48.077374],[1.878867,48.078018],[1.878652,48.080771],[1.878903,48.081367],[1.878202,48.081596],[1.878088,48.081778],[1.878464,48.082218],[1.877932,48.081805],[1.875945,48.082396],[1.875388,48.082078],[1.874538,48.081898],[1.874379,48.08165],[1.874581,48.081602]]},"properties":{"name":"Étampes ➡️ Artenay","source_file":"acte-1_etape-3_etampes_artenay.gpx","point_count":316,"distance_km":59.13,"duration_s":19560,"elevation_gain_m":465,"elevation_loss_m":417}}]}