{"type": "FeatureCollection", "features": [{"type": "Feature", "geometry": {"type": "LineString", "coordinates": [[-1.014292, 47.367031], [-1.014552, 47.367816], [-1.016746, 47.371329], [-1.017102, 47.371113], [-1.018515, 47.370931], [-1.020312, 47.370978], [-1.021699, 47.371307], [-1.021635, 47.371074], [-1.021798, 47.371018], [-1.023575, 47.371087], [-1.027505, 47.370837], [-1.027639, 47.371742], [-1.032625, 47.371862], [-1.038397, 47.372948], [-1.043147, 47.372627], [-1.046496, 47.372154], [-1.049148, 47.372276], [-1.051673, 47.372632], [-1.055094, 47.372548], [-1.055225, 47.37262], [-1.055183, 47.373131], [-1.055451, 47.373256], [-1.056071, 47.373018], [-1.059624, 47.372691], [-1.061494, 47.373133], [-1.064381, 47.373127], [-1.065867, 47.373413], [-1.067354, 47.372863], [-1.068507, 47.372879], [-1.068889, 47.372641], [-1.069562, 47.372531], [-1.071713, 47.372735], [-1.074895, 47.373314], [-1.077623, 47.373259], [-1.07821, 47.374015], [-1.078545, 47.374167], [-1.083869, 47.374268], [-1.084508, 47.374011], [-1.086643, 47.373994], [-1.087393, 47.374303], [-1.089016, 47.374357], [-1.091646, 47.373878], [-1.094704, 47.373859], [-1.097626, 47.373077], [-1.098563, 47.373548], [-1.098942, 47.37393], [-1.098836, 47.373741], [-1.098946, 47.373686], [-1.099603, 47.374029], [-1.105142, 47.373313], [-1.108472, 47.374818], [-1.111096, 47.375014], [-1.136834, 47.375539], [-1.137547, 47.375329], [-1.138953, 47.375354], [-1.142121, 47.374898], [-1.152594, 47.371884], [-1.15516, 47.371646], [-1.16653, 47.371147], [-1.167849, 47.370499], [-1.169587, 47.370094], [-1.17118, 47.368865], [-1.17122, 47.368613], [-1.172931, 47.366958], [-1.174256, 47.366366], [-1.174727, 47.3656], [-1.17687, 47.36384], [-1.177406, 47.363863], [-1.177726, 47.364461], [-1.177535, 47.364534], [-1.177035, 47.364331]]}, "properties": {"name": "🚲 Loire à Vélo 2026 - Étape 3 - St-Florent-le-Vieil ➡️ Ancenis", "source_file": "acte-3_etape-3_st-florent-le-vieil_ancenis.gpx", "point_count": 1069, "distance_km": 13.84, "duration_s": 3236, "elevation_gain_m": 26.7, "elevation_loss_m": 28.0}}]}
