{"type":"FeatureCollection","features":[{"type":"Feature","geometry":{"type":"LineString","coordinates":[[1.886506,47.859797],[1.885466,47.860564],[1.883999,47.861056],[1.883715,47.86129],[1.883071,47.861055],[1.881153,47.861071],[1.878155,47.86147],[1.874662,47.862708],[1.87341,47.863826],[1.873671,47.864564],[1.873937,47.864843],[1.874023,47.866482],[1.873331,47.866963],[1.873103,47.867632],[1.873384,47.868019],[1.873085,47.86816],[1.872534,47.868032],[1.867683,47.868007],[1.864474,47.868475],[1.861069,47.868138],[1.858004,47.868519],[1.847023,47.868682],[1.846664,47.870121],[1.846418,47.870224],[1.843086,47.869996],[1.84145,47.869642],[1.837948,47.868115],[1.835743,47.867833],[1.83005,47.866061],[1.828279,47.865231],[1.824394,47.864142],[1.822829,47.864017],[1.821017,47.863563],[1.817605,47.863241],[1.808224,47.863159],[1.802228,47.861816],[1.799897,47.862318],[1.797127,47.863349],[1.795184,47.863731],[1.792192,47.86357],[1.790358,47.862888],[1.785357,47.863499],[1.782221,47.862478],[1.781492,47.862174],[1.780419,47.861225],[1.776054,47.858359],[1.773848,47.857557],[1.772889,47.856982],[1.770873,47.856607],[1.767556,47.854971],[1.761523,47.852787],[1.755658,47.850094],[1.755027,47.849577],[1.752486,47.848135],[1.752285,47.847707],[1.750457,47.84619],[1.747747,47.843082],[1.746858,47.842219],[1.746259,47.841916],[1.74564,47.841839],[1.744827,47.84209],[1.740756,47.841987],[1.735238,47.841164],[1.731933,47.84029],[1.72941,47.83945],[1.72619,47.838108],[1.72397,47.836353],[1.720414,47.834977],[1.71698,47.832732],[1.716262,47.832459],[1.715247,47.83247],[1.713075,47.830472],[1.711968,47.829789],[1.707899,47.826161],[1.707165,47.825899],[1.706188,47.824737],[1.705289,47.823125],[1.704013,47.821872],[1.701567,47.822924],[1.698359,47.824551],[1.698455,47.824645],[1.697848,47.824836],[1.697413,47.826064],[1.696275,47.825728],[1.695098,47.824896],[1.694705,47.825104],[1.695012,47.82517],[1.691021,47.817863],[1.686963,47.814842],[1.685618,47.814076],[1.684571,47.813058],[1.683937,47.812086],[1.683418,47.81041],[1.68332,47.806924],[1.684199,47.803914],[1.685458,47.801982],[1.685833,47.801114],[1.683922,47.798778],[1.683434,47.797357],[1.683178,47.797268],[1.683473,47.79753],[1.683226,47.79735],[1.683369,47.79715],[1.683345,47.797363],[1.682247,47.796128],[1.678891,47.79322],[1.676534,47.791743],[1.673801,47.790849],[1.671603,47.790644],[1.669109,47.790634],[1.666564,47.791012],[1.665879,47.790645],[1.664944,47.790412],[1.660748,47.790022],[1.656429,47.78878],[1.655392,47.789166],[1.654631,47.788823],[1.653141,47.788525],[1.651239,47.7877],[1.650106,47.787607],[1.649361,47.787065],[1.647282,47.786001],[1.646587,47.784826],[1.644943,47.783807],[1.643675,47.782311],[1.641496,47.780655],[1.637297,47.779141],[1.636292,47.779559],[1.635373,47.778819],[1.635284,47.778449],[1.63427,47.777874],[1.634023,47.778059],[1.640207,47.775527],[1.642092,47.775592],[1.64304,47.776795],[1.642454,47.777456],[1.642007,47.777607],[1.641486,47.777363],[1.641912,47.776945],[1.641869,47.776823],[1.641216,47.776715],[1.641041,47.776538],[1.641776,47.77676]]},"properties":{"name":"Orléans ➡️ Beaugency","source_file":"acte-1_etape-5_orleans_beaugency.gpx","point_count":143,"distance_km":27.65,"duration_s":7740,"elevation_gain_m":131,"elevation_loss_m":151}}]}