{"type": "FeatureCollection", "features": [{"type": "Feature", "geometry": {"type": "LineString", "coordinates": [[-2.03016, 47.289877], [-2.032642, 47.289834], [-2.033147, 47.28951], [-2.033948, 47.289311], [-2.039954, 47.288836], [-2.042572, 47.287103], [-2.04252, 47.286943], [-2.045965, 47.284728], [-2.056953, 47.279639], [-2.058556, 47.277703], [-2.059279, 47.277534], [-2.061799, 47.277719], [-2.061838, 47.278051], [-2.061523, 47.278679], [-2.061816, 47.278664], [-2.062103, 47.27967], [-2.062883, 47.280007], [-2.062637, 47.28064], [-2.062928, 47.281173], [-2.063578, 47.281459], [-2.071626, 47.281009], [-2.076518, 47.28112], [-2.078734, 47.280751], [-2.082438, 47.280486], [-2.099324, 47.278534], [-2.102468, 47.277786], [-2.107869, 47.275967], [-2.11099, 47.275294], [-2.114682, 47.274941], [-2.116268, 47.275261], [-2.126935, 47.274868], [-2.128917, 47.274652], [-2.129663, 47.27442], [-2.13245, 47.274271], [-2.134594, 47.273659], [-2.134466, 47.273261], [-2.140456, 47.270556], [-2.141432, 47.270425], [-2.141557, 47.270516], [-2.141483, 47.270747], [-2.142296, 47.270411], [-2.143099, 47.270651], [-2.143459, 47.270605], [-2.147575, 47.269439], [-2.149849, 47.269209], [-2.150001, 47.268749], [-2.150209, 47.268899], [-2.150133, 47.269215], [-2.150417, 47.269454], [-2.152089, 47.269813], [-2.154295, 47.269775], [-2.15846, 47.269374], [-2.16007, 47.269072], [-2.161237, 47.268651], [-2.161048, 47.26801], [-2.161058, 47.267212], [-2.162388, 47.267079], [-2.162599, 47.267192], [-2.162471, 47.268003], [-2.166731, 47.268212], [-2.166988, 47.268307], [-2.166951, 47.268791], [-2.167242, 47.268779], [-2.167299, 47.268277]]}, "properties": {"name": "🚲 Loire à Vélo 2026 - Étape 6 - Paimboeuf ➡️ L'océan", "source_file": "acte-3_etape-6_paimboeuf_saint-brevin-les-pins.gpx", "point_count": 658, "distance_km": 12.22, "duration_s": 3427, "elevation_gain_m": 25.8, "elevation_loss_m": 26.0}}]}
