{"type": "FeatureCollection", "features": [{"type": "Feature", "geometry": {"type": "LineString", "coordinates": [[-0.650667, 47.375544, 19.35], [-0.650535, 47.375481, 19.35], [-0.650475, 47.375391, 19.35], [-0.650376, 47.375293, 19.35], [-0.650295, 47.375181, 19.35], [-0.6502, 47.375069, 19.35], [-0.650099, 47.374967, 19.35], [-0.650036, 47.374866, 19.35], [-0.649957, 47.374757, 19.39], [-0.649865, 47.374656, 19.51], [-0.649775, 47.374542, 19.65], [-0.649708, 47.374456, 19.75], [-0.64964, 47.374375, 19.85], [-0.649547, 47.37426, 19.98], [-0.64946, 47.37414, 20.12], [-0.649355, 47.374023, 20.27], [-0.649277, 47.373938, 20.37], [-0.64921, 47.373859, 20.47], [-0.649146, 47.373774, 20.57], [-0.649077, 47.373684, 20.67], [-0.649007, 47.373601, 20.77], [-0.648932, 47.373509, 20.88], [-0.648879, 47.373403, 21.0], [-0.648804, 47.37331, 21.11], [-0.648717, 47.373227, 21.21], [-0.648648, 47.373134, 21.13], [-0.648579, 47.373042, 21.01], [-0.648492, 47.372949, 20.88], [-0.648415, 47.372847, 20.74], [-0.648331, 47.372744, 20.61], [-0.648239, 47.372634, 20.46], [-0.648163, 47.372519, 20.31], [-0.648065, 47.372407, 20.16], [-0.648004, 47.372286, 20.01], [-0.647992, 47.372161, 19.87], [-0.64796, 47.372052, 19.74], [-0.647992, 47.371948, 19.62], [-0.647764, 47.371931, 19.44], [-0.647582, 47.371943, 19.29], [-0.647389, 47.371998, 19.12], [-0.647249, 47.372083, 18.92], [-0.647113, 47.372155, 18.74], [-0.646974, 47.372216, 18.56], [-0.646841, 47.372274, 18.39], [-0.646714, 47.372326, 18.23], [-0.646591, 47.372369, 18.09], [-0.646429, 47.372438, 17.88], [-0.646311, 47.372481, 17.74], [-0.64618, 47.372515, 17.59], [-0.64606, 47.372564, 17.44], [-0.645919, 47.372613, 17.27], [-0.645792, 47.372666, 17.11], [-0.645671, 47.372706, 16.97], [-0.645548, 47.372746, 16.82], [-0.645416, 47.372783, 16.67], [-0.645296, 47.372829, 16.52], [-0.645126, 47.372861, 16.34], [-0.644989, 47.372884, 16.26], [-0.644949, 47.372763, 16.19], [-0.644902, 47.372653, 16.12], [-0.644868, 47.372554, 16.05], [-0.644773, 47.372453, 15.98], [-0.644719, 47.372348, 15.92], [-0.644664, 47.372245, 15.85], [-0.644614, 47.372146, 15.79], [-0.644557, 47.372053, 15.73], [-0.644537, 47.371963, 15.67], [-0.644463, 47.371868, 15.61], [-0.644416, 47.371759, 15.54], [-0.64438, 47.371649, 15.47], [-0.644329, 47.371545, 15.4], [-0.644278, 47.371441, 15.34], [-0.64421, 47.371355, 15.28], [-0.644172, 47.371261, 15.22], [-0.644131, 47.371154, 15.22], [-0.644057, 47.371056, 15.22], [-0.643995, 47.370964, 15.22], [-0.64393, 47.370862, 15.21], [-0.643893, 47.370765, 15.21], [-0.643832, 47.370684, 15.21], [-0.643767, 47.370604, 15.21], [-0.643649, 47.370513, 15.21], [-0.64354, 47.370449, 15.21], [-0.64339, 47.370382, 15.21], [-0.643208, 47.370352, 15.2], [-0.643057, 47.370279, 15.2], [-0.642898, 47.370219, 15.2], [-0.642736, 47.370157, 15.2], [-0.642569, 47.370111, 15.2], [-0.642435, 47.370053, 15.2], [-0.64236, 47.369957, 15.28], [-0.642416, 47.369854, 15.37], [-0.642433, 47.36975, 15.46], [-0.642477, 47.369641, 15.56], [-0.642536, 47.369534, 15.66], [-0.642578, 47.369421, 15.76], [-0.642618, 47.369311, 15.85], [-0.642644, 47.369195, 15.95], [-0.64268, 47.369075, 16.06], [-0.64274, 47.368964, 16.16], [-0.642759, 47.368832, 16.27], [-0.6428, 47.368705, 16.38], [-0.642836, 47.368587, 16.48], [-0.642905, 47.368472, 16.59], [-0.642935, 47.36834, 16.7], [-0.642974, 47.368226, 16.75], [-0.643008, 47.368112, 16.77], [-0.643061, 47.368003, 16.79], [-0.643095, 47.367897, 16.82], [-0.643115, 47.367781, 16.84], [-0.64317, 47.367667, 16.87], [-0.64321, 47.367545, 16.89], [-0.643251, 47.367423, 16.92], [-0.643293, 47.367298, 16.95], [-0.643314, 47.367166, 16.98], [-0.643374, 47.367056, 17.0], [-0.643393, 47.366931, 17.03], [-0.643454, 47.366815, 17.05], [-0.643495, 47.366698, 17.08], [-0.643539, 47.366581, 17.11], [-0.643593, 47.366464, 17.13], [-0.643703, 47.36636, 17.16], [-0.643834, 47.366262, 17.19], [-0.643932, 47.366199, 17.22], [-0.644073, 47.366105, 17.25], [-0.644191, 47.366047, 17.27], [-0.644278, 47.365964, 17.29], [-0.644374, 47.365896, 17.32], [-0.64448, 47.365828, 17.34], [-0.644582, 47.365757, 17.36], [-0.644685, 47.365683, 17.39], [-0.644792, 47.365609, 17.41], [-0.644897, 47.365536, 17.43], [-0.645012, 47.365466, 17.46], [-0.645118, 47.365394, 17.48], [-0.645233, 47.36532, 17.51], [-0.64533, 47.365235, 17.53], [-0.645442, 47.36516, 17.51], [-0.645554, 47.3651, 17.5], [-0.64564, 47.365016, 17.49], [-0.645797, 47.364905, 17.47], [-0.645914, 47.364824, 17.46], [-0.646051, 47.364731, 17.44], [-0.646165, 47.364653, 17.43], [-0.646288, 47.364581, 17.41], [-0.646391, 47.364488, 17.4], [-0.646517, 47.364404, 17.38], [-0.646644, 47.364315, 17.37], [-0.646785, 47.364233, 17.35], [-0.646868, 47.36416, 17.34], [-0.646963, 47.364092, 17.33], [-0.647057, 47.364025, 17.32], [-0.647167, 47.363966, 17.31], [-0.647253, 47.363888, 17.26], [-0.647362, 47.36383, 17.21], [-0.647493, 47.363739, 17.15], [-0.647595, 47.363647, 17.1], [-0.6477, 47.363576, 17.05], [-0.647808, 47.363498, 17.0], [-0.647916, 47.363428, 16.95], [-0.648038, 47.363344, 16.89], [-0.64815, 47.363283, 16.84], [-0.648254, 47.363197, 16.79], [-0.648351, 47.363126, 16.74], [-0.648471, 47.363059, 16.69], [-0.648553, 47.362979, 16.64], [-0.648668, 47.362922, 16.6], [-0.648764, 47.362834, 16.54], [-0.648883, 47.362772, 16.5], [-0.649013, 47.362685, 16.44], [-0.649113, 47.362618, 16.42], [-0.649222, 47.362545, 16.41], [-0.649349, 47.362469, 16.39], [-0.649466, 47.362387, 16.37], [-0.649588, 47.362344, 16.36], [-0.649706, 47.362269, 16.35], [-0.64983, 47.362203, 16.33], [-0.649969, 47.362146, 16.32], [-0.650095, 47.36207, 16.3], [-0.650227, 47.361988, 16.28], [-0.650375, 47.361915, 16.26], [-0.650507, 47.36182, 16.25], [-0.650655, 47.361734, 16.23], [-0.650792, 47.361637, 16.21], [-0.650874, 47.361559, 16.19], [-0.65095, 47.361485, 16.18], [-0.651063, 47.361408, 16.25], [-0.651153, 47.361328, 16.32], [-0.651285, 47.361225, 16.42], [-0.651416, 47.361162, 16.5], [-0.651585, 47.361105, 16.59], [-0.651764, 47.36107, 16.68], [-0.651915, 47.361019, 16.77], [-0.652069, 47.360986, 16.84], [-0.652225, 47.360962, 16.92], [-0.652364, 47.36093, 16.99], [-0.652492, 47.360886, 17.06], [-0.652679, 47.360846, 17.16], [-0.652868, 47.360804, 17.26], [-0.652995, 47.360778, 17.32], [-0.65312, 47.360747, 17.39], [-0.653255, 47.36073, 17.45], [-0.653378, 47.360688, 17.5], [-0.65357, 47.360665, 17.54], [-0.65374, 47.360622, 17.58], [-0.653917, 47.36061, 17.63], [-0.654082, 47.360575, 17.67], [-0.654222, 47.360563, 17.7], [-0.6544, 47.360566, 17.74], [-0.654583, 47.360552, 17.78], [-0.654752, 47.36056, 17.82], [-0.654779, 47.360659, 17.86], [-0.654742, 47.36076, 17.89], [-0.654709, 47.360878, 17.94], [-0.654676, 47.360998, 17.98], [-0.654721, 47.361103, 18.02], [-0.654864, 47.361158, 18.05], [-0.655043, 47.361176, 18.1], [-0.655182, 47.36118, 18.17], [-0.655232, 47.361096, 18.25], [-0.655275, 47.361, 18.33], [-0.655311, 47.360904, 18.41], [-0.655351, 47.360804, 18.49], [-0.655394, 47.360703, 18.58], [-0.655439, 47.360602, 18.66], [-0.655475, 47.360507, 18.74], [-0.65551, 47.360408, 18.82], [-0.655556, 47.360317, 18.9], [-0.655541, 47.360189, 19.0], [-0.655498, 47.360091, 19.08], [-0.655462, 47.359985, 19.17], [-0.655425, 47.359878, 19.26], [-0.655366, 47.359778, 19.35], [-0.655339, 47.359676, 19.43], [-0.6553, 47.359577, 19.51], [-0.655254, 47.35946, 19.56], [-0.655215, 47.359365, 19.58], [-0.655187, 47.359277, 19.6], [-0.655143, 47.359162, 19.62], [-0.655098, 47.35907, 19.64], [-0.655072, 47.358977, 19.66], [-0.655183, 47.358771, 19.71], [-0.655357, 47.358803, 19.73], [-0.65554, 47.358793, 19.76], [-0.655714, 47.358757, 19.78], [-0.655862, 47.358707, 19.81], [-0.656007, 47.358679, 19.83], [-0.656148, 47.358646, 19.85], [-0.656273, 47.358602, 19.87], [-0.656404, 47.358575, 19.89], [-0.656586, 47.358542, 19.91], [-0.656749, 47.358502, 19.85], [-0.656879, 47.358458, 19.79], [-0.657043, 47.35843, 19.73], [-0.657181, 47.358396, 19.68], [-0.657338, 47.35835, 19.62], [-0.657507, 47.358297, 19.55], [-0.657697, 47.35826, 19.48], [-0.657859, 47.358223, 19.41], [-0.657999, 47.358173, 19.36], [-0.658112, 47.358106, 19.3], [-0.658283, 47.358064, 19.23], [-0.658456, 47.358018, 19.17], [-0.658606, 47.357981, 19.11], [-0.658773, 47.357952, 19.04], [-0.658934, 47.357918, 18.98], [-0.658927, 47.357807, 18.96], [-0.658907, 47.35771, 19.0], [-0.658921, 47.35762, 19.04], [-0.658909, 47.357522, 19.08], [-0.658898, 47.357428, 19.13], [-0.658849, 47.357324, 19.17], [-0.658991, 47.357237, 19.23], [-0.659137, 47.357203, 19.28], [-0.659298, 47.357174, 19.33], [-0.659471, 47.357152, 19.38], [-0.65964, 47.357112, 19.44], [-0.659808, 47.357078, 19.49], [-0.65997, 47.357044, 19.54], [-0.660131, 47.357007, 19.59], [-0.660296, 47.356979, 19.64], [-0.660475, 47.356937, 19.7], [-0.660669, 47.356902, 19.69], [-0.66086, 47.356855, 19.53], [-0.661042, 47.356832, 19.38], [-0.661173, 47.356807, 19.28], [-0.661305, 47.356736, 19.15], [-0.661465, 47.356751, 19.02], [-0.661612, 47.356723, 18.9], [-0.661768, 47.35669, 18.77], [-0.661932, 47.356656, 18.63], [-0.662101, 47.356616, 18.49], [-0.662285, 47.356582, 18.34], [-0.662465, 47.356545, 18.2], [-0.662647, 47.356518, 18.05], [-0.662823, 47.356484, 17.91], [-0.662998, 47.35645, 17.76], [-0.663199, 47.356412, 17.64], [-0.663361, 47.356372, 17.61], [-0.663527, 47.356329, 17.57], [-0.663697, 47.356284, 17.54], [-0.663867, 47.356239, 17.51], [-0.664019, 47.356181, 17.47], [-0.664179, 47.356148, 17.44], [-0.664339, 47.356101, 17.41], [-0.664502, 47.356052, 17.38], [-0.664669, 47.35601, 17.35], [-0.664839, 47.35596, 17.31], [-0.665009, 47.355922, 17.28], [-0.665175, 47.355881, 17.25], [-0.665329, 47.355855, 17.22], [-0.66547, 47.355819, 17.19], [-0.665612, 47.355778, 17.16], [-0.665746, 47.355731, 17.19], [-0.665878, 47.355696, 17.21], [-0.665777, 47.35552, 17.26], [-0.665668, 47.355444, 17.28], [-0.665664, 47.355329, 17.31], [-0.665746, 47.355232, 17.34], [-0.665849, 47.355137, 17.37], [-0.665926, 47.355034, 17.4], [-0.665987, 47.354944, 17.42], [-0.666329, 47.35492, 17.48], [-0.666477, 47.354882, 17.5], [-0.666615, 47.354841, 17.53], [-0.666761, 47.354805, 17.56], [-0.666911, 47.354771, 17.58], [-0.667064, 47.35473, 17.61], [-0.667216, 47.354688, 17.61], [-0.667376, 47.354653, 17.62], [-0.667525, 47.354614, 17.63], [-0.66767, 47.354573, 17.64], [-0.66779, 47.354499, 17.65], [-0.66791, 47.354414, 17.66], [-0.668048, 47.354334, 17.67], [-0.668185, 47.35426, 17.68], [-0.668316, 47.354179, 17.69], [-0.668458, 47.3541, 17.7], [-0.6686, 47.354026, 17.71], [-0.668732, 47.353952, 17.72], [-0.668845, 47.353886, 17.72], [-0.668961, 47.353816, 17.73], [-0.66906, 47.353753, 17.74], [-0.669161, 47.353688, 17.74], [-0.669289, 47.353629, 17.72], [-0.669421, 47.353548, 17.68], [-0.669522, 47.353489, 17.66], [-0.669642, 47.353428, 17.63], [-0.66975, 47.353354, 17.6], [-0.669877, 47.353284, 17.57], [-0.669996, 47.353218, 17.54], [-0.670127, 47.353141, 17.51], [-0.670234, 47.353087, 17.48], [-0.670339, 47.35303, 17.46], [-0.670498, 47.352937, 17.42], [-0.67061, 47.352878, 17.39], [-0.670759, 47.352817, 17.36], [-0.670884, 47.352737, 17.33], [-0.670994, 47.352677, 17.3], [-0.671139, 47.352603, 17.27], [-0.67125, 47.352546, 17.25], [-0.671354, 47.352484, 17.26], [-0.671465, 47.352417, 17.27], [-0.671578, 47.352352, 17.27], [-0.671687, 47.352281, 17.28], [-0.67181, 47.352219, 17.29], [-0.671931, 47.352123, 17.3], [-0.672064, 47.352043, 17.31], [-0.672191, 47.351965, 17.31], [-0.67234, 47.351884, 17.32], [-0.672488, 47.351807, 17.33], [-0.672616, 47.351738, 17.34], [-0.672763, 47.351661, 17.35], [-0.672899, 47.351578, 17.36], [-0.672992, 47.351498, 17.37], [-0.673079, 47.351398, 17.37], [-0.673127, 47.351292, 17.38], [-0.672993, 47.351524, 17.38], [-0.673077, 47.351435, 17.38], [-0.673127, 47.351338, 17.38], [-0.673156, 47.351246, 17.38], [-0.673211, 47.351137, 17.39], [-0.67332, 47.351028, 17.39], [-0.67342, 47.350964, 17.39], [-0.673534, 47.350909, 17.39], [-0.673644, 47.350851, 17.39], [-0.673766, 47.350806, 17.39], [-0.673932, 47.350754, 17.39], [-0.67406, 47.350711, 17.39], [-0.674179, 47.350664, 17.39], [-0.674292, 47.350607, 17.39], [-0.6744, 47.350541, 17.39], [-0.674493, 47.350474, 17.39], [-0.674589, 47.350406, 17.37], [-0.674654, 47.350325, 17.34], [-0.674718, 47.350242, 17.32], [-0.67481, 47.350158, 17.3], [-0.674866, 47.350064, 17.27], [-0.674915, 47.349972, 17.25], [-0.67496, 47.349881, 17.23], [-0.675015, 47.349797, 17.2], [-0.675066, 47.34971, 17.18], [-0.67511, 47.349614, 17.16], [-0.675165, 47.349521, 17.13], [-0.675215, 47.349424, 17.11], [-0.675289, 47.349342, 17.08], [-0.675355, 47.349258, 17.06], [-0.675435, 47.349165, 17.03], [-0.675499, 47.34908, 17.01], [-0.675567, 47.349, 16.99], [-0.675602, 47.348885, 16.96], [-0.675626, 47.348763, 16.98], [-0.675616, 47.348651, 16.99], [-0.675564, 47.348567, 17.01], [-0.675554, 47.34847, 17.02], [-0.67561, 47.348381, 17.04], [-0.675729, 47.348314, 17.06], [-0.675859, 47.34828, 17.07], [-0.675994, 47.348259, 17.09], [-0.676111, 47.348203, 17.1], [-0.676244, 47.348186, 17.12], [-0.676371, 47.348245, 17.13], [-0.676513, 47.348255, 17.15], [-0.676643, 47.348219, 17.16], [-0.676791, 47.348141, 17.18], [-0.676913, 47.348073, 17.2], [-0.677028, 47.347973, 17.22], [-0.677153, 47.347873, 17.24], [-0.677259, 47.347813, 17.3], [-0.677405, 47.347773, 17.39], [-0.677507, 47.347714, 17.46], [-0.677628, 47.347661, 17.54], [-0.67775, 47.347609, 17.61], [-0.677888, 47.347527, 17.71], [-0.678004, 47.347455, 17.8], [-0.678118, 47.347399, 17.87], [-0.678235, 47.347345, 17.95], [-0.678395, 47.347279, 18.05], [-0.678571, 47.347228, 18.15], [-0.678715, 47.347157, 18.25], [-0.678886, 47.347105, 18.35], [-0.679065, 47.347052, 18.45], [-0.679183, 47.347008, 18.52], [-0.679312, 47.346964, 18.6], [-0.679441, 47.346915, 18.73], [-0.679631, 47.346873, 19.14], [-0.679774, 47.346827, 19.47], [-0.679936, 47.3468, 19.81], [-0.680099, 47.346793, 20.15], [-0.680247, 47.346758, 20.47], [-0.680403, 47.346744, 20.79], [-0.680752, 47.346618, 21.61], [-0.680889, 47.346593, 21.9], [-0.681014, 47.346558, 22.18], [-0.681171, 47.346523, 22.52], [-0.681358, 47.346488, 22.92], [-0.681505, 47.346462, 23.24], [-0.681684, 47.346429, 23.62], [-0.681848, 47.346396, 23.97], [-0.682014, 47.346366, 23.98], [-0.682196, 47.346358, 23.66], [-0.68239, 47.346313, 23.3], [-0.682534, 47.346299, 23.04], [-0.682743, 47.346284, 22.68], [-0.682894, 47.346291, 22.41], [-0.683026, 47.346307, 22.17], [-0.683209, 47.346329, 21.85], [-0.683396, 47.346355, 21.51], [-0.683591, 47.346389, 21.16], [-0.683781, 47.346436, 20.8], [-0.683969, 47.346478, 20.46], [-0.684121, 47.346515, 20.17], [-0.684301, 47.346566, 19.83], [-0.684425, 47.3466, 19.59], [-0.684568, 47.346666, 19.45], [-0.684752, 47.346666, 19.4], [-0.684923, 47.346691, 19.35], [-0.685085, 47.3467, 19.31], [-0.685237, 47.346702, 19.27], [-0.685396, 47.346669, 19.23], [-0.685541, 47.346657, 19.19], [-0.685694, 47.346609, 19.14], [-0.685861, 47.346562, 19.1], [-0.686019, 47.346519, 19.05], [-0.686176, 47.34648, 19.01], [-0.686347, 47.346439, 18.96], [-0.686508, 47.346372, 18.91], [-0.686681, 47.346326, 18.86], [-0.686826, 47.346266, 18.82], [-0.686961, 47.34621, 18.79], [-0.687118, 47.346163, 19.03], [-0.68727, 47.346108, 19.28], [-0.687438, 47.346055, 19.54], [-0.687617, 47.346, 19.82], [-0.687785, 47.345947, 20.08], [-0.687944, 47.345902, 20.33], [-0.688097, 47.34584, 20.58], [-0.688219, 47.345772, 20.81], [-0.688346, 47.345725, 21.01], [-0.688471, 47.345679, 21.21], [-0.688591, 47.345591, 21.46], [-0.68876, 47.345527, 21.74], [-0.68889, 47.345489, 21.94], [-0.689017, 47.345456, 22.13], [-0.689152, 47.345435, 22.33], [-0.68929, 47.345415, 22.53], [-0.68944, 47.34541, 22.56], [-0.68958, 47.345402, 22.58], [-0.689738, 47.345384, 22.59], [-0.689901, 47.345374, 22.61], [-0.690077, 47.345368, 22.63], [-0.690261, 47.345367, 22.65], [-0.690418, 47.345357, 22.67], [-0.690567, 47.345352, 22.68], [-0.690714, 47.345355, 22.7], [-0.690883, 47.345362, 22.72], [-0.691031, 47.345343, 22.74], [-0.69121, 47.345356, 22.75], [-0.691366, 47.345368, 22.77], [-0.691526, 47.345375, 22.79], [-0.691681, 47.345401, 22.81], [-0.691832, 47.345408, 22.82], [-0.691977, 47.345434, 22.74], [-0.692131, 47.34544, 22.39], [-0.692266, 47.345443, 22.08], [-0.692444, 47.345429, 21.68], [-0.692605, 47.345463, 21.29], [-0.692778, 47.345432, 20.89], [-0.692943, 47.345418, 20.51], [-0.693103, 47.34549, 20.08], [-0.693216, 47.34556, 19.73], [-0.693401, 47.345574, 19.31], [-0.693556, 47.345544, 18.94], [-0.693693, 47.345522, 18.62], [-0.693872, 47.345483, 18.19], [-0.694014, 47.345446, 17.85], [-0.694149, 47.345403, 17.51], [-0.694297, 47.345384, 17.17], [-0.6945, 47.345297, 16.88], [-0.694696, 47.345264, 17.04], [-0.694825, 47.345238, 17.15], [-0.694956, 47.345212, 17.26], [-0.695098, 47.345175, 17.38], [-0.695246, 47.345134, 17.51], [-0.695378, 47.345093, 17.63], [-0.695507, 47.34506, 17.74], [-0.6957, 47.345037, 17.9], [-0.695853, 47.345004, 18.03], [-0.695998, 47.344994, 18.15], [-0.69615, 47.344989, 18.28], [-0.69633, 47.344966, 18.42], [-0.696471, 47.344954, 18.54], [-0.696631, 47.344933, 18.67], [-0.69679, 47.344914, 18.8], [-0.696928, 47.344892, 18.92], [-0.69709, 47.344877, 19.09], [-0.697244, 47.344869, 19.28], [-0.697411, 47.344902, 19.5], [-0.697592, 47.344923, 19.72], [-0.697748, 47.344921, 19.91], [-0.697877, 47.3449, 20.07], [-0.698025, 47.344843, 20.28], [-0.698163, 47.344821, 20.45], [-0.698293, 47.344804, 20.62], [-0.698432, 47.34477, 20.8], [-0.698584, 47.344745, 20.99], [-0.698729, 47.344729, 21.17], [-0.698893, 47.344681, 21.39], [-0.699073, 47.344643, 21.62], [-0.69925, 47.344607, 21.84], [-0.699438, 47.344575, 22.08], [-0.699576, 47.344562, 22.24], [-0.699768, 47.344542, 22.43], [-0.699906, 47.344536, 22.56], [-0.700057, 47.344524, 22.7], [-0.700233, 47.344531, 22.87], [-0.700399, 47.344516, 23.03], [-0.700578, 47.344495, 23.21], [-0.700741, 47.344477, 23.37], [-0.700907, 47.344449, 23.53], [-0.701087, 47.344424, 23.71], [-0.701254, 47.344365, 23.89], [-0.701417, 47.344342, 24.05], [-0.701589, 47.344321, 24.21], [-0.701761, 47.344288, 24.39], [-0.701946, 47.344256, 24.57], [-0.702084, 47.344229, 24.71], [-0.702237, 47.344207, 24.7], [-0.702387, 47.344195, 24.62], [-0.702525, 47.344181, 24.55], [-0.702659, 47.344198, 24.47], [-0.702814, 47.34418, 24.39], [-0.702985, 47.344175, 24.3], [-0.703156, 47.344169, 24.21], [-0.703289, 47.344146, 24.14], [-0.703423, 47.344148, 24.07], [-0.703585, 47.344116, 23.98], [-0.703734, 47.344104, 23.91], [-0.703896, 47.344081, 23.82], [-0.704066, 47.344082, 23.73], [-0.704268, 47.344066, 23.63], [-0.704421, 47.344053, 23.55], [-0.704594, 47.344057, 23.45], [-0.704752, 47.344029, 23.37], [-0.704912, 47.343991, 23.04], [-0.705088, 47.343975, 22.7], [-0.70525, 47.343961, 22.38], [-0.70545, 47.343949, 21.99], [-0.705601, 47.343944, 21.7], [-0.705756, 47.343928, 21.39], [-0.705898, 47.343924, 21.12], [-0.706031, 47.343919, 20.86], [-0.706215, 47.343916, 20.5], [-0.706352, 47.343912, 20.23], [-0.706524, 47.343907, 19.9], [-0.706685, 47.34389, 19.58], [-0.706832, 47.343886, 19.3], [-0.706967, 47.343868, 19.03], [-0.707105, 47.343857, 18.76], [-0.707263, 47.343876, 18.45], [-0.707439, 47.343919, 18.16], [-0.707608, 47.34393, 18.04], [-0.707773, 47.343946, 17.91], [-0.707954, 47.343954, 17.77], [-0.708091, 47.343965, 17.67], [-0.708235, 47.34398, 17.55], [-0.708389, 47.343989, 17.44], [-0.708558, 47.344003, 17.31], [-0.708712, 47.344005, 17.19], [-0.708839, 47.344051, 17.08], [-0.708945, 47.344114, 16.97], [-0.709071, 47.344158, 16.86], [-0.709184, 47.344232, 16.74], [-0.709294, 47.344303, 16.63], [-0.709399, 47.344381, 16.51], [-0.709486, 47.344469, 16.39], [-0.709592, 47.344539, 16.28], [-0.709685, 47.344622, 16.19], [-0.709807, 47.344676, 16.16], [-0.70994, 47.344722, 16.13], [-0.71012, 47.344713, 16.1], [-0.710274, 47.34471, 16.07], [-0.710419, 47.344707, 16.04], [-0.710575, 47.344716, 16.01], [-0.710727, 47.344705, 15.99], [-0.710912, 47.34467, 15.95], [-0.711095, 47.344663, 15.92], [-0.711237, 47.344643, 15.89], [-0.711374, 47.344667, 15.86], [-0.711514, 47.344669, 15.84], [-0.711658, 47.34468, 15.81], [-0.7118, 47.344706, 15.78], [-0.711941, 47.344733, 15.76], [-0.7121, 47.34475, 15.73], [-0.712226, 47.344783, 15.72], [-0.712417, 47.34479, 15.97], [-0.712588, 47.344809, 16.21], [-0.712752, 47.344838, 16.43], [-0.712885, 47.344857, 16.62], [-0.713084, 47.34489, 16.89], [-0.713262, 47.344908, 17.14], [-0.713397, 47.344917, 17.32], [-0.713594, 47.344907, 17.58], [-0.713776, 47.34491, 17.83], [-0.713925, 47.344906, 18.03], [-0.71408, 47.344887, 18.24], [-0.714217, 47.344901, 18.43], [-0.714384, 47.344929, 18.66], [-0.71458, 47.34497, 18.94], [-0.714718, 47.345, 19.13], [-0.71485, 47.345031, 19.28], [-0.715043, 47.345052, 19.27], [-0.715212, 47.345093, 19.26], [-0.715391, 47.345149, 19.24], [-0.715525, 47.345178, 19.24], [-0.715665, 47.345205, 19.23], [-0.715804, 47.345237, 19.22], [-0.715929, 47.345268, 19.21], [-0.716072, 47.34529, 19.21], [-0.716212, 47.345344, 19.2], [-0.716353, 47.345375, 19.19], [-0.716503, 47.345421, 19.18], [-0.716681, 47.345468, 19.17], [-0.716817, 47.345541, 19.16], [-0.716931, 47.345652, 19.15], [-0.717056, 47.345772, 19.14], [-0.717163, 47.3459, 19.13], [-0.717293, 47.346022, 19.12], [-0.717424, 47.346146, 19.11], [-0.717601, 47.346244, 19.1], [-0.717812, 47.346309, 19.09], [-0.718021, 47.346363, 19.09], [-0.718209, 47.346439, 19.08], [-0.718386, 47.346514, 19.07], [-0.718554, 47.346592, 19.06], [-0.718726, 47.346651, 19.05], [-0.718905, 47.346696, 19.05], [-0.71909, 47.34673, 19.04], [-0.719268, 47.346749, 19.03], [-0.719457, 47.346755, 19.18], [-0.719638, 47.346769, 19.33], [-0.71982, 47.346782, 19.47], [-0.72, 47.346785, 19.62], [-0.720177, 47.346793, 19.76], [-0.720354, 47.346812, 19.9], [-0.720536, 47.346825, 20.05], [-0.720698, 47.346846, 20.18], [-0.720834, 47.346869, 20.29], [-0.720985, 47.346885, 20.41], [-0.721177, 47.346933, 20.58], [-0.721332, 47.346969, 20.71], [-0.721506, 47.347007, 20.86], [-0.72167, 47.34705, 21.0], [-0.721838, 47.34709, 21.14], [-0.722001, 47.347142, 21.19], [-0.722161, 47.34719, 21.23], [-0.722306, 47.347249, 21.27], [-0.722452, 47.347305, 21.3], [-0.7226, 47.347368, 21.34], [-0.722747, 47.347419, 21.38], [-0.722892, 47.347463, 21.42], [-0.723052, 47.347479, 21.45], [-0.72322, 47.347504, 21.49], [-0.723401, 47.347505, 21.53], [-0.723578, 47.347503, 21.57], [-0.723754, 47.347499, 21.61], [-0.723934, 47.347497, 21.65], [-0.724111, 47.347497, 21.69], [-0.724285, 47.347501, 21.73], [-0.724459, 47.347507, 21.76], [-0.724628, 47.347517, 21.79], [-0.724796, 47.347518, 21.81], [-0.72497, 47.34753, 21.84], [-0.725146, 47.347542, 21.86], [-0.725323, 47.347555, 21.89], [-0.725507, 47.347588, 21.92], [-0.725687, 47.347625, 21.95], [-0.72586, 47.347681, 21.98], [-0.726027, 47.347733, 22.0], [-0.726184, 47.347789, 22.03], [-0.726353, 47.347834, 22.06], [-0.726534, 47.34786, 22.09], [-0.72672, 47.347878, 22.12], [-0.726908, 47.347894, 22.14], [-0.727097, 47.347911, 22.12], [-0.727279, 47.347939, 22.09], [-0.727455, 47.347968, 22.07], [-0.727624, 47.34801, 22.04], [-0.727792, 47.348051, 22.01], [-0.727959, 47.348086, 21.98], [-0.728123, 47.348133, 21.96], [-0.728295, 47.348177, 21.93], [-0.728452, 47.348246, 21.9], [-0.728608, 47.348317, 21.87], [-0.72875, 47.348398, 21.84], [-0.728886, 47.34847, 21.82], [-0.729023, 47.348537, 21.79], [-0.72915, 47.3486, 21.77], [-0.729298, 47.348644, 21.74], [-0.729447, 47.348686, 21.74], [-0.729596, 47.348708, 21.75], [-0.729744, 47.348716, 21.75], [-0.729894, 47.348704, 21.75], [-0.730044, 47.348691, 21.75], [-0.730184, 47.348662, 21.75], [-0.730327, 47.348649, 21.75], [-0.730469, 47.348626, 21.75], [-0.73061, 47.348607, 21.75], [-0.730761, 47.348596, 21.76], [-0.730914, 47.348591, 21.76], [-0.731083, 47.348599, 21.76], [-0.731245, 47.348613, 21.76], [-0.731402, 47.348635, 21.76], [-0.731534, 47.348661, 21.76], [-0.731925, 47.348721, 21.77], [-0.732119, 47.348754, 21.81], [-0.732311, 47.348784, 21.86], [-0.732495, 47.348819, 21.9], [-0.732673, 47.348852, 21.94], [-0.732858, 47.348884, 21.98], [-0.732994, 47.348905, 22.01], [-0.73314, 47.34893, 22.04], [-0.73329, 47.348935, 22.07], [-0.733429, 47.348965, 22.1], [-0.73358, 47.348965, 22.14], [-0.733739, 47.348978, 22.17], [-0.7339, 47.348991, 22.2], [-0.734069, 47.349013, 22.24], [-0.734235, 47.349019, 22.28], [-0.734412, 47.349021, 22.32], [-0.73459, 47.349017, 22.29], [-0.734766, 47.349007, 22.2], [-0.734935, 47.348989, 22.11], [-0.735097, 47.348988, 22.03], [-0.735261, 47.348998, 21.95], [-0.735417, 47.34904, 21.86], [-0.735545, 47.349113, 21.78], [-0.735654, 47.349207, 21.69], [-0.735738, 47.349323, 21.59], [-0.735841, 47.349435, 21.49], [-0.736023, 47.349514, 21.38], [-0.736239, 47.349527, 21.27], [-0.736447, 47.349485, 21.16], [-0.73665, 47.349429, 21.05], [-0.736859, 47.349397, 20.98], [-0.737063, 47.349357, 20.96], [-0.737275, 47.349353, 20.95], [-0.737478, 47.349385, 20.93], [-0.737663, 47.349447, 20.91], [-0.737837, 47.34952, 20.89], [-0.737996, 47.349598, 20.88], [-0.738153, 47.349666, 20.86], [-0.738311, 47.349724, 20.85], [-0.738473, 47.34977, 20.83], [-0.738635, 47.349819, 20.82], [-0.738805, 47.349865, 20.8], [-0.73897, 47.349918, 20.79], [-0.73914, 47.349964, 20.77], [-0.739304, 47.350021, 20.55], [-0.739471, 47.350063, 20.23], [-0.739636, 47.350117, 19.91], [-0.739801, 47.350162, 19.59], [-0.739962, 47.350213, 19.28], [-0.740119, 47.350254, 18.98], [-0.740259, 47.350291, 18.71], [-0.740435, 47.350321, 18.39], [-0.740545, 47.350387, 18.13], [-0.740505, 47.350481, 17.88], [-0.740478, 47.350583, 17.6], [-0.740525, 47.350673, 17.35], [-0.740664, 47.350717, 17.08], [-0.740805, 47.350723, 16.83], [-0.740939, 47.350727, 16.6], [-0.741073, 47.350739, 16.36], [-0.741259, 47.350742, 16.06], [-0.741439, 47.35072, 16.05], [-0.74158, 47.350753, 16.04], [-0.741723, 47.350732, 16.03], [-0.741915, 47.350866, 16.02], [-0.742056, 47.350866, 16.01], [-0.742191, 47.350887, 16.0], [-0.742342, 47.350894, 15.99], [-0.742481, 47.350909, 15.98], [-0.742635, 47.350904, 15.97], [-0.742765, 47.350939, 15.96], [-0.742941, 47.350975, 15.95], [-0.743112, 47.351017, 15.94], [-0.743288, 47.351076, 15.93], [-0.743457, 47.351127, 15.92], [-0.743608, 47.351155, 15.91], [-0.74391, 47.351213, 15.82], [-0.744048, 47.351252, 15.76], [-0.744201, 47.351296, 15.7], [-0.74435, 47.351299, 15.64], [-0.74446, 47.35121, 15.57], [-0.744508, 47.351109, 15.51], [-0.744598, 47.351188, 15.45], [-0.744762, 47.351238, 15.38], [-0.744876, 47.351316, 15.32], [-0.744977, 47.351406, 15.25], [-0.745065, 47.351506, 15.18], [-0.745188, 47.351554, 15.13], [-0.745333, 47.351579, 15.07], [-0.745473, 47.351592, 15.01], [-0.745632, 47.351608, 14.95], [-0.745776, 47.351631, 14.89], [-0.745945, 47.351636, 14.85], [-0.746115, 47.351627, 14.83], [-0.746254, 47.351612, 14.82], [-0.746416, 47.351617, 14.8], [-0.746581, 47.351612, 14.79], [-0.746717, 47.351592, 14.77], [-0.746849, 47.35157, 14.76], [-0.747017, 47.351533, 14.74], [-0.747182, 47.351519, 14.73], [-0.747359, 47.351499, 14.71], [-0.747551, 47.351474, 14.69], [-0.747735, 47.351442, 14.67], [-0.747897, 47.351398, 14.65], [-0.748043, 47.351348, 14.64], [-0.74816, 47.351304, 14.62], [-0.748308, 47.351258, 14.61], [-0.748441, 47.351217, 14.63], [-0.748574, 47.351154, 14.82], [-0.748703, 47.351082, 15.01], [-0.748757, 47.350999, 15.16], [-0.74883, 47.350921, 15.32], [-0.748877, 47.350833, 15.48], [-0.748937, 47.350738, 15.65], [-0.748979, 47.35065, 15.81], [-0.748898, 47.350572, 15.97], [-0.748991, 47.35048, 16.16], [-0.749115, 47.350403, 16.35], [-0.749247, 47.350337, 16.54], [-0.749401, 47.350267, 16.75], [-0.749526, 47.350218, 16.92], [-0.749639, 47.350154, 17.09], [-0.749757, 47.350093, 17.26], [-0.749919, 47.35005, 17.46], [-0.750102, 47.350021, 17.65], [-0.750286, 47.350008, 17.7], [-0.750473, 47.349989, 17.75], [-0.750654, 47.349973, 17.8], [-0.750831, 47.349969, 17.84], [-0.751012, 47.349973, 17.89], [-0.75119, 47.34998, 17.93], [-0.751361, 47.349995, 17.98], [-0.751532, 47.350018, 18.02], [-0.751699, 47.350044, 18.07], [-0.751874, 47.350057, 18.11], [-0.752043, 47.350084, 18.16], [-0.752212, 47.350101, 18.2], [-0.752388, 47.350123, 18.25], [-0.752558, 47.350138, 18.29], [-0.752725, 47.350165, 18.31], [-0.75288, 47.35018, 18.22], [-0.753039, 47.3502, 18.12], [-0.753202, 47.350211, 18.03], [-0.75335, 47.350233, 17.94], [-0.753498, 47.350244, 17.85], [-0.753643, 47.350267, 17.76], [-0.753789, 47.350285, 17.68], [-0.753931, 47.350301, 17.59], [-0.754077, 47.350319, 17.5], [-0.754224, 47.350341, 17.41], [-0.754361, 47.350356, 17.33], [-0.754516, 47.350366, 17.24], [-0.754651, 47.350387, 17.16], [-0.754792, 47.350408, 17.07], [-0.754934, 47.350422, 16.99], [-0.755086, 47.350432, 16.9], [-0.755239, 47.350456, 16.81], [-0.755398, 47.350477, 16.81], [-0.755558, 47.350496, 16.9], [-0.755715, 47.350515, 16.99], [-0.755869, 47.350526, 17.08], [-0.756018, 47.350548, 17.17], [-0.756206, 47.350574, 17.28], [-0.756397, 47.350578, 17.39], [-0.756548, 47.350606, 17.48], [-0.75673, 47.350643, 17.59], [-0.756917, 47.350662, 17.7], [-0.757094, 47.350671, 17.8], [-0.757273, 47.350673, 17.91], [-0.757434, 47.3507, 18.0], [-0.757594, 47.350692, 18.09], [-0.757734, 47.350659, 18.18], [-0.757865, 47.350627, 18.26], [-0.757997, 47.350615, 18.38], [-0.758129, 47.35064, 18.52], [-0.758234, 47.35075, 18.73], [-0.758348, 47.350813, 18.89], [-0.758474, 47.350891, 19.07], [-0.758583, 47.350968, 19.24], [-0.758702, 47.351021, 19.39], [-0.758819, 47.351075, 19.55], [-0.758959, 47.351153, 19.74], [-0.759074, 47.351211, 19.89], [-0.759231, 47.351238, 20.07], [-0.759362, 47.351294, 20.24], [-0.759512, 47.351371, 20.44], [-0.759653, 47.351451, 20.63], [-0.759835, 47.351512, 20.85], [-0.759976, 47.35157, 21.03], [-0.760096, 47.351623, 21.12], [-0.760249, 47.351687, 21.06], [-0.760379, 47.351762, 21.0], [-0.760484, 47.351839, 20.94], [-0.760506, 47.351959, 20.88], [-0.760505, 47.352065, 20.83], [-0.760448, 47.352159, 20.77], [-0.760459, 47.352253, 20.72], [-0.760432, 47.352356, 20.67], [-0.76039, 47.352454, 20.61], [-0.760457, 47.35255, 20.56], [-0.7606, 47.352585, 20.5], [-0.760731, 47.352641, 20.45], [-0.760871, 47.352699, 20.39], [-0.761007, 47.352753, 20.33], [-0.76114, 47.352819, 20.28], [-0.761286, 47.352895, 20.21], [-0.761451, 47.352957, 20.14], [-0.761587, 47.35299, 20.08], [-0.761725, 47.353024, 20.03], [-0.761876, 47.353049, 19.97], [-0.762015, 47.353072, 19.92], [-0.762208, 47.353112, 19.84], [-0.762346, 47.353173, 19.78], [-0.76246, 47.35324, 19.72], [-0.762389, 47.353335, 19.66], [-0.762341, 47.353426, 19.61], [-0.762281, 47.353543, 19.54], [-0.762205, 47.353673, 19.46], [-0.76215, 47.353769, 19.4], [-0.762085, 47.353871, 19.34], [-0.762032, 47.353977, 19.28], [-0.761966, 47.354087, 19.21], [-0.761906, 47.35418, 19.09], [-0.761848, 47.354299, 18.89], [-0.761783, 47.354418, 18.69], [-0.76173, 47.354532, 18.5], [-0.761653, 47.354636, 18.31], [-0.761597, 47.354749, 18.12], [-0.761539, 47.35487, 17.92], [-0.761485, 47.354977, 17.74], [-0.761616, 47.35501, 17.59], [-0.761749, 47.355024, 17.44], [-0.761881, 47.355048, 17.29], [-0.76205, 47.355073, 17.11], [-0.762211, 47.355079, 16.93], [-0.762345, 47.355086, 16.79], [-0.762502, 47.355087, 16.62], [-0.762638, 47.355091, 16.47], [-0.762776, 47.355094, 16.32], [-0.762949, 47.355118, 16.32], [-0.763082, 47.355127, 16.33], [-0.763234, 47.35516, 16.33], [-0.763395, 47.355189, 16.34], [-0.763556, 47.355207, 16.34], [-0.763739, 47.355231, 16.35], [-0.76387, 47.355247, 16.35], [-0.764, 47.355272, 16.35], [-0.764167, 47.355303, 16.36], [-0.764333, 47.355369, 16.36], [-0.764485, 47.355431, 16.37], [-0.764737, 47.35552, 16.38], [-0.764907, 47.355561, 16.38], [-0.765058, 47.355562, 16.39], [-0.765207, 47.355589, 16.39], [-0.765389, 47.35559, 16.38], [-0.765521, 47.3556, 16.35], [-0.765706, 47.355615, 16.32], [-0.765839, 47.355635, 16.29], [-0.766018, 47.355679, 16.25], [-0.766205, 47.355713, 16.22], [-0.766337, 47.355743, 16.19], [-0.76651, 47.355794, 16.16], [-0.76664, 47.355833, 16.13], [-0.766758, 47.355888, 16.1], [-0.766865, 47.355944, 16.08], [-0.767027, 47.356011, 16.04], [-0.767133, 47.356074, 16.02], [-0.767226, 47.356139, 15.99], [-0.767327, 47.356199, 15.96], [-0.76746, 47.356284, 15.93], [-0.767529, 47.356372, 15.9], [-0.767644, 47.35645, 15.87], [-0.767761, 47.356525, 15.84], [-0.767862, 47.356605, 15.81], [-0.767989, 47.356684, 15.78], [-0.768112, 47.356764, 15.75], [-0.768288, 47.356845, 15.71], [-0.768407, 47.356917, 15.68], [-0.768506, 47.356996, 15.65], [-0.76866, 47.357079, 15.61], [-0.768799, 47.35717, 15.58], [-0.768923, 47.357229, 15.55], [-0.769024, 47.357299, 15.52], [-0.769141, 47.357396, 15.49], [-0.769281, 47.357452, 15.46], [-0.769388, 47.357532, 15.43], [-0.769509, 47.357595, 15.4], [-0.769641, 47.357669, 15.27], [-0.769787, 47.357746, 15.13], [-0.769902, 47.3578, 15.02], [-0.770058, 47.357878, 14.87], [-0.770159, 47.357939, 14.76], [-0.770313, 47.358016, 14.61], [-0.770428, 47.358078, 14.5], [-0.770585, 47.358146, 14.35], [-0.770695, 47.3582, 14.25], [-0.770801, 47.358261, 14.14], [-0.770909, 47.358318, 14.03], [-0.771012, 47.358379, 13.93], [-0.771167, 47.358461, 13.78], [-0.771266, 47.358527, 13.67], [-0.771375, 47.358597, 13.55], [-0.771526, 47.358678, 13.4], [-0.771626, 47.35874, 13.4], [-0.771754, 47.358798, 13.6], [-0.771869, 47.358871, 13.8], [-0.771994, 47.358953, 14.02], [-0.77211, 47.359036, 14.24], [-0.772238, 47.359126, 14.47], [-0.772354, 47.359213, 14.69], [-0.772454, 47.359312, 14.92], [-0.772484, 47.359408, 15.11], [-0.772562, 47.359501, 15.31], [-0.772618, 47.359593, 15.5], [-0.772685, 47.359719, 15.75], [-0.772748, 47.359816, 15.95], [-0.772711, 47.359911, 16.13], [-0.772647, 47.360011, 16.34], [-0.77251, 47.360217, 16.73], [-0.772437, 47.360295, 16.75], [-0.772375, 47.360398, 16.76], [-0.772293, 47.360504, 16.78], [-0.772223, 47.360612, 16.8], [-0.77232, 47.360684, 16.81], [-0.772471, 47.360747, 16.83], [-0.772631, 47.360803, 16.84], [-0.772793, 47.360858, 16.86], [-0.772975, 47.36093, 16.88], [-0.773144, 47.360984, 16.9], [-0.773264, 47.361026, 16.91], [-0.773394, 47.361061, 16.92], [-0.773522, 47.361101, 16.94], [-0.773651, 47.361141, 16.95], [-0.773787, 47.361177, 16.96], [-0.773925, 47.361212, 16.98], [-0.77406, 47.361249, 16.99], [-0.774194, 47.361286, 17.0], [-0.77432, 47.361321, 17.01], [-0.774497, 47.361367, 17.03], [-0.774662, 47.361409, 17.04], [-0.774749, 47.361496, 17.06], [-0.774818, 47.361594, 17.07], [-0.77487, 47.361689, 17.08], [-0.775005, 47.361778, 17.1], [-0.775132, 47.361826, 17.11], [-0.775287, 47.361854, 17.12], [-0.775436, 47.361885, 17.14], [-0.775615, 47.361879, 17.15], [-0.775801, 47.361844, 17.17], [-0.775983, 47.361834, 17.18], [-0.776164, 47.361842, 17.2], [-0.776339, 47.36185, 17.2], [-0.776512, 47.361849, 17.21], [-0.776688, 47.361841, 17.21], [-0.776862, 47.361838, 17.21], [-0.777039, 47.361832, 17.22], [-0.7772, 47.361847, 17.22], [-0.777335, 47.361896, 17.22], [-0.777307, 47.361986, 17.23], [-0.777233, 47.362066, 17.23], [-0.777172, 47.362154, 17.23], [-0.777058, 47.362264, 17.24], [-0.777017, 47.362393, 17.24], [-0.777005, 47.362496, 17.24], [-0.777014, 47.3626, 17.24], [-0.777049, 47.362703, 17.25], [-0.777069, 47.36281, 17.25], [-0.777096, 47.36291, 17.23], [-0.777155, 47.363015, 17.17], [-0.777203, 47.363116, 17.11], [-0.777234, 47.363228, 17.04], [-0.777269, 47.363347, 16.97], [-0.777322, 47.363449, 16.91], [-0.777383, 47.363558, 16.85], [-0.777408, 47.363685, 16.77], [-0.777484, 47.36381, 16.7], [-0.777531, 47.363902, 16.64], [-0.777566, 47.363998, 16.59], [-0.777598, 47.36409, 16.53], [-0.777616, 47.364187, 16.48], [-0.777649, 47.364288, 16.42], [-0.777699, 47.364385, 16.36], [-0.777728, 47.36449, 16.3], [-0.777752, 47.364596, 16.24], [-0.777807, 47.364699, 16.23], [-0.777849, 47.364795, 16.23], [-0.777907, 47.364886, 16.22], [-0.777935, 47.364989, 16.22], [-0.777974, 47.365093, 16.21], [-0.778023, 47.365184, 16.21], [-0.777997, 47.365275, 16.21], [-0.777962, 47.365395, 16.2], [-0.777888, 47.365474, 16.2], [-0.777771, 47.365538, 16.19], [-0.777661, 47.365594, 16.19], [-0.777657, 47.365688, 16.18], [-0.777726, 47.365778, 16.18], [-0.77785, 47.365878, 16.17], [-0.778002, 47.365938, 16.17], [-0.778165, 47.365985, 16.16], [-0.778325, 47.366029, 16.16], [-0.778475, 47.36608, 16.21], [-0.778624, 47.36611, 16.25], [-0.778756, 47.366148, 16.3], [-0.77888, 47.366189, 16.34], [-0.779014, 47.366221, 16.38], [-0.779164, 47.366256, 16.43], [-0.779322, 47.366297, 16.48], [-0.779483, 47.366318, 16.53], [-0.779654, 47.366336, 16.58], [-0.779827, 47.366356, 16.64], [-0.779988, 47.366387, 16.69], [-0.780147, 47.366425, 16.74], [-0.780295, 47.366483, 16.79], [-0.780453, 47.366539, 16.84], [-0.780611, 47.366592, 16.9], [-0.780775, 47.366642, 16.95], [-0.780923, 47.366692, 16.96], [-0.781066, 47.366729, 16.96], [-0.781205, 47.366778, 16.95], [-0.781349, 47.366834, 16.95], [-0.781496, 47.366886, 16.95], [-0.781646, 47.366941, 16.95], [-0.781804, 47.366998, 16.95], [-0.781959, 47.367057, 16.95], [-0.782122, 47.367114, 16.94], [-0.782275, 47.367174, 16.94], [-0.782435, 47.367234, 16.94], [-0.78259, 47.36729, 16.94], [-0.782748, 47.367339, 16.93], [-0.782905, 47.367397, 16.93], [-0.783065, 47.367452, 16.93], [-0.78323, 47.367501, 16.95], [-0.783386, 47.367554, 16.98], [-0.783549, 47.367612, 17.02], [-0.783699, 47.367667, 17.05], [-0.783855, 47.367722, 17.08], [-0.78401, 47.367773, 17.12], [-0.78417, 47.367821, 17.15], [-0.784326, 47.367869, 17.19], [-0.78449, 47.367918, 17.22], [-0.784645, 47.36797, 17.25], [-0.784811, 47.368008, 17.29], [-0.784978, 47.368056, 17.32], [-0.785133, 47.368112, 17.36], [-0.785292, 47.368165, 17.39], [-0.785447, 47.368226, 17.43], [-0.785612, 47.368276, 17.46], [-0.785767, 47.368328, 17.5], [-0.785919, 47.368378, 17.53], [-0.78607, 47.368427, 17.56], [-0.786213, 47.368481, 17.6], [-0.786354, 47.368527, 17.63], [-0.78648, 47.368572, 17.65], [-0.786619, 47.368606, 17.68], [-0.78677, 47.368641, 17.71], [-0.786914, 47.368686, 17.75], [-0.787068, 47.368722, 17.78], [-0.78722, 47.368764, 17.81], [-0.787375, 47.368804, 17.84], [-0.787528, 47.368831, 17.87], [-0.78769, 47.36886, 17.91], [-0.78786, 47.368884, 17.94], [-0.788038, 47.368896, 17.97], [-0.788215, 47.368916, 17.98], [-0.788397, 47.368926, 17.98], [-0.788573, 47.368932, 17.99], [-0.788746, 47.368954, 17.99], [-0.788917, 47.368977, 18.0], [-0.789092, 47.368979, 18.0], [-0.789261, 47.368997, 18.01], [-0.789439, 47.369009, 18.02], [-0.789622, 47.369015, 18.02], [-0.789792, 47.369045, 18.03], [-0.789965, 47.369066, 18.03], [-0.790141, 47.369073, 18.04], [-0.79031, 47.36909, 18.04], [-0.790491, 47.369097, 18.05], [-0.790662, 47.369113, 18.06], [-0.790828, 47.369128, 18.1], [-0.790993, 47.369116, 18.15], [-0.791185, 47.369113, 18.2], [-0.791368, 47.369098, 18.25], [-0.791539, 47.369087, 18.29], [-0.791707, 47.369083, 18.34], [-0.791855, 47.369085, 18.38], [-0.791686, 47.369064, 18.42], [-0.791538, 47.369072, 18.46], [-0.791355, 47.369092, 18.51], [-0.791205, 47.369069, 18.55], [-0.791187, 47.368934, 18.61], [-0.791248, 47.368838, 18.65], [-0.791301, 47.368747, 18.69], [-0.791349, 47.368654, 18.73], [-0.791395, 47.368561, 18.77], [-0.791442, 47.368465, 18.83], [-0.791486, 47.36837, 18.89], [-0.79154, 47.368273, 18.96], [-0.79158, 47.368174, 19.02], [-0.791628, 47.368076, 19.09], [-0.791682, 47.367979, 19.15], [-0.791721, 47.367876, 19.22], [-0.791769, 47.367781, 19.28], [-0.79181, 47.367685, 19.34], [-0.79186, 47.367597, 19.4], [-0.791897, 47.367504, 19.46], [-0.791943, 47.367415, 19.52], [-0.791991, 47.367325, 19.58], [-0.792031, 47.367236, 19.64], [-0.792077, 47.367142, 19.7], [-0.79212, 47.367046, 19.76], [-0.792167, 47.36695, 19.83], [-0.792213, 47.366852, 19.89], [-0.792262, 47.366752, 19.84], [-0.792311, 47.366647, 19.79], [-0.792347, 47.366547, 19.74], [-0.792394, 47.36646, 19.7], [-0.79255, 47.366436, 19.65], [-0.792713, 47.366427, 19.6], [-0.792866, 47.366412, 19.55], [-0.793018, 47.366393, 19.51], [-0.793175, 47.366376, 19.46], [-0.793332, 47.366358, 19.41], [-0.793497, 47.366345, 19.36], [-0.793658, 47.366333, 19.31], [-0.793823, 47.36632, 19.26], [-0.793987, 47.366326, 19.21], [-0.794145, 47.366349, 19.16], [-0.794303, 47.366371, 19.11], [-0.794464, 47.366406, 19.01], [-0.79463, 47.366438, 18.8], [-0.794797, 47.36647, 18.59], [-0.794962, 47.366509, 18.39], [-0.795135, 47.366555, 18.16], [-0.795298, 47.366613, 17.95], [-0.795427, 47.366681, 17.75], [-0.795556, 47.366743, 17.56], [-0.795672, 47.366811, 17.38], [-0.795805, 47.366848, 17.21], [-0.795961, 47.36686, 17.02], [-0.79612, 47.366883, 16.83], [-0.796285, 47.366884, 16.63], [-0.796442, 47.366872, 16.44], [-0.796611, 47.36689, 16.24], [-0.796781, 47.366898, 16.04], [-0.79695, 47.366925, 15.93], [-0.797114, 47.366959, 15.95], [-0.797276, 47.366983, 15.97], [-0.797433, 47.367034, 15.99], [-0.797593, 47.36707, 16.02], [-0.797761, 47.367102, 16.04], [-0.797928, 47.367138, 16.06], [-0.798098, 47.36717, 16.08], [-0.798261, 47.367211, 16.11], [-0.798427, 47.367243, 16.13], [-0.798592, 47.367268, 16.15], [-0.798753, 47.36732, 16.17], [-0.798921, 47.367341, 16.2], [-0.799081, 47.367376, 16.22], [-0.79925, 47.367415, 16.24], [-0.799405, 47.36745, 16.26], [-0.799567, 47.367501, 16.37], [-0.799707, 47.367556, 16.46], [-0.799849, 47.367616, 16.56], [-0.799996, 47.367676, 16.66], [-0.800118, 47.367741, 16.75], [-0.800255, 47.367806, 16.85], [-0.800376, 47.367885, 16.95], [-0.800483, 47.367971, 17.05], [-0.800607, 47.36804, 17.15], [-0.800709, 47.368125, 17.24], [-0.800823, 47.368199, 17.33], [-0.800938, 47.368281, 17.43], [-0.801055, 47.368363, 17.53], [-0.801186, 47.36844, 17.63], [-0.80132, 47.36851, 17.73], [-0.80144, 47.368579, 17.83], [-0.801556, 47.368643, 17.79], [-0.801671, 47.3687, 17.74], [-0.801783, 47.368763, 17.7], [-0.801888, 47.368829, 17.65], [-0.802043, 47.368911, 17.59], [-0.802168, 47.368987, 17.54], [-0.802327, 47.369069, 17.47], [-0.802429, 47.369142, 17.43], [-0.802556, 47.369205, 17.38], [-0.802638, 47.369299, 17.33], [-0.802749, 47.369363, 17.28], [-0.802894, 47.369454, 17.22], [-0.80295, 47.369569, 17.16], [-0.802909, 47.369673, 17.11], [-0.802864, 47.369762, 17.07], [-0.802805, 47.369863, 17.02], [-0.80276, 47.369964, 16.97], [-0.802696, 47.370057, 16.92], [-0.802648, 47.370155, 16.88], [-0.802605, 47.370255, 16.83], [-0.802541, 47.370351, 16.78], [-0.802484, 47.37046, 16.73], [-0.802424, 47.370566, 16.68], [-0.802372, 47.370669, 16.63], [-0.802323, 47.370784, 16.58], [-0.802252, 47.370888, 16.53], [-0.802195, 47.370995, 16.48], [-0.802144, 47.371107, 16.42], [-0.802111, 47.371215, 16.38], [-0.802143, 47.371322, 16.33], [-0.802192, 47.371423, 16.28], [-0.802215, 47.371528, 16.23], [-0.80239, 47.371592, 16.19], [-0.802539, 47.37163, 16.19], [-0.802698, 47.37167, 16.19], [-0.802857, 47.371705, 16.19], [-0.80302, 47.371733, 16.19], [-0.803165, 47.371794, 16.19], [-0.803347, 47.371816, 16.19], [-0.803519, 47.371844, 16.18], [-0.80369, 47.371874, 16.18], [-0.803865, 47.371894, 16.18], [-0.804048, 47.371908, 16.18], [-0.804215, 47.37194, 16.18], [-0.804384, 47.371983, 16.18], [-0.804547, 47.372026, 16.18], [-0.804718, 47.37206, 16.18], [-0.80488, 47.372106, 16.18], [-0.805046, 47.372142, 16.19], [-0.805199, 47.372187, 16.21], [-0.805348, 47.372233, 16.22], [-0.805504, 47.372271, 16.24], [-0.80566, 47.372306, 16.25], [-0.805822, 47.372347, 16.26], [-0.805982, 47.372387, 16.28], [-0.806141, 47.372418, 16.29], [-0.80628, 47.372462, 16.3], [-0.806415, 47.372499, 16.32], [-0.806546, 47.372528, 16.33], [-0.806667, 47.372567, 16.34], [-0.806845, 47.372603, 16.35], [-0.807004, 47.372638, 16.37], [-0.807172, 47.372677, 16.38], [-0.807358, 47.372728, 16.4], [-0.807491, 47.372772, 16.4], [-0.807625, 47.372819, 16.4], [-0.807748, 47.372868, 16.4], [-0.807878, 47.372922, 16.4], [-0.808005, 47.372974, 16.4], [-0.808135, 47.373035, 16.4], [-0.808272, 47.373084, 16.39], [-0.808406, 47.373144, 16.39], [-0.808537, 47.373208, 16.39], [-0.808686, 47.373254, 16.39], [-0.808833, 47.373308, 16.39], [-0.808977, 47.37336, 16.39], [-0.809128, 47.373416, 16.39], [-0.80928, 47.373475, 16.39], [-0.809438, 47.373523, 16.39], [-0.8096, 47.373564, 16.39], [-0.809771, 47.373607, 16.38], [-0.809934, 47.373656, 16.36], [-0.810106, 47.373704, 16.35], [-0.810284, 47.373742, 16.33], [-0.810466, 47.373764, 16.32], [-0.810647, 47.373783, 16.3], [-0.810819, 47.373804, 16.29], [-0.810988, 47.373846, 16.27], [-0.811158, 47.373874, 16.26], [-0.811314, 47.373901, 16.24], [-0.811465, 47.373922, 16.23], [-0.811603, 47.373956, 16.22], [-0.811751, 47.373996, 16.2], [-0.811912, 47.374004, 16.19], [-0.812075, 47.374012, 16.17], [-0.812232, 47.37402, 16.16], [-0.81239, 47.374022, 16.17], [-0.812545, 47.374014, 16.18], [-0.812697, 47.374015, 16.18], [-0.812838, 47.374007, 16.19], [-0.812979, 47.374006, 16.2], [-0.813125, 47.374013, 16.2], [-0.813261, 47.374035, 16.21], [-0.813412, 47.374061, 16.22], [-0.813547, 47.374105, 16.22], [-0.813697, 47.374144, 16.23], [-0.813859, 47.374181, 16.24], [-0.814013, 47.37423, 16.25], [-0.814164, 47.374289, 16.26], [-0.814332, 47.374331, 16.26], [-0.814497, 47.374387, 16.27], [-0.814667, 47.374429, 16.28], [-0.814839, 47.374477, 16.25], [-0.815006, 47.37453, 16.19], [-0.815165, 47.374588, 16.13], [-0.815332, 47.374633, 16.07], [-0.815481, 47.374683, 16.02], [-0.815626, 47.37472, 15.97], [-0.815771, 47.374777, 15.91], [-0.815929, 47.374823, 15.86], [-0.816088, 47.374874, 15.8], [-0.816241, 47.374931, 15.74], [-0.816397, 47.374983, 15.68], [-0.81655, 47.375037, 15.63], [-0.8167, 47.375093, 15.57], [-0.816848, 47.375145, 15.52], [-0.817003, 47.375195, 15.46], [-0.817162, 47.375245, 15.41], [-0.817317, 47.375296, 15.39], [-0.817472, 47.375352, 15.38], [-0.817622, 47.375387, 15.37], [-0.817757, 47.375431, 15.35], [-0.817881, 47.375477, 15.34], [-0.818005, 47.375512, 15.33], [-0.818178, 47.375573, 15.31], [-0.818307, 47.375619, 15.3], [-0.818455, 47.375644, 15.29], [-0.818581, 47.375685, 15.28], [-0.818715, 47.375708, 15.27], [-0.818907, 47.375752, 15.25], [-0.81903, 47.375806, 15.24], [-0.819153, 47.375844, 15.22], [-0.819279, 47.375875, 15.21], [-0.819436, 47.375935, 15.2], [-0.819566, 47.375961, 15.19], [-0.819723, 47.376038, 15.2], [-0.819853, 47.376064, 15.2], [-0.819976, 47.37611, 15.21], [-0.820095, 47.376157, 15.22], [-0.820243, 47.376185, 15.22], [-0.820385, 47.376221, 15.23], [-0.820543, 47.376248, 15.24], [-0.820688, 47.376266, 15.24], [-0.820866, 47.376309, 15.25], [-0.821041, 47.376318, 15.26], [-0.821162, 47.376375, 15.27], [-0.821327, 47.376404, 15.27], [-0.821497, 47.376454, 15.28], [-0.821673, 47.376492, 15.29], [-0.821803, 47.376514, 15.3], [-0.821953, 47.376569, 15.31], [-0.822113, 47.376595, 15.28], [-0.822261, 47.376615, 15.25], [-0.822408, 47.376641, 15.21], [-0.822571, 47.376662, 15.17], [-0.822736, 47.376694, 15.13], [-0.822907, 47.376723, 15.09], [-0.823078, 47.376751, 15.04], [-0.82325, 47.376783, 15.0], [-0.82342, 47.37681, 14.96], [-0.82359, 47.376841, 14.92], [-0.823768, 47.376881, 14.87], [-0.823946, 47.376908, 14.83], [-0.824106, 47.376941, 14.79], [-0.82426, 47.376968, 14.75], [-0.824404, 47.376993, 14.71], [-0.82454, 47.377023, 14.68], [-0.824683, 47.377052, 14.74], [-0.824824, 47.377084, 14.85], [-0.824977, 47.377122, 14.97], [-0.825122, 47.377163, 15.08], [-0.825261, 47.377198, 15.19], [-0.825386, 47.377245, 15.29], [-0.825561, 47.3773, 15.43], [-0.825703, 47.377359, 15.55], [-0.825854, 47.377406, 15.67], [-0.826005, 47.377455, 15.8], [-0.826152, 47.377518, 15.92], [-0.826279, 47.377575, 16.03], [-0.826576, 47.377623, 16.25], [-0.82669, 47.377676, 16.35], [-0.826831, 47.377746, 16.48], [-0.827002, 47.377804, 16.56], [-0.827155, 47.377889, 16.39], [-0.827271, 47.377997, 16.22], [-0.827391, 47.378052, 16.1], [-0.827508, 47.378106, 15.97], [-0.827628, 47.378167, 15.85], [-0.827748, 47.378228, 15.72], [-0.827859, 47.378297, 15.59], [-0.827956, 47.378364, 15.47], [-0.828092, 47.378459, 15.3], [-0.828242, 47.378544, 15.13], [-0.828383, 47.378641, 14.96], [-0.828513, 47.378737, 14.79], [-0.82861, 47.378802, 14.68], [-0.828711, 47.378885, 14.54], [-0.828798, 47.378961, 14.42], [-0.828899, 47.379041, 14.31], [-0.828982, 47.379131, 14.34], [-0.829068, 47.379223, 14.37], [-0.829157, 47.379308, 14.39], [-0.829239, 47.37938, 14.41], [-0.82934, 47.379496, 14.45], [-0.829432, 47.379588, 14.47], [-0.829544, 47.379685, 14.5], [-0.829605, 47.379801, 14.53], [-0.829646, 47.379889, 14.56], [-0.829727, 47.379969, 14.58], [-0.829803, 47.380047, 14.6], [-0.829867, 47.380127, 14.62], [-0.82994, 47.380206, 14.65], [-0.830011, 47.380303, 14.67], [-0.830101, 47.380382, 14.7], [-0.830173, 47.380485, 14.73], [-0.830266, 47.380581, 14.74], [-0.830356, 47.380677, 14.73], [-0.830446, 47.380786, 14.71], [-0.830536, 47.380891, 14.69], [-0.830633, 47.380995, 14.67], [-0.830728, 47.381094, 14.65], [-0.830805, 47.381194, 14.64], [-0.830893, 47.381275, 14.62], [-0.830977, 47.381363, 14.61], [-0.83108, 47.381463, 14.59], [-0.831191, 47.381548, 14.57], [-0.831289, 47.381627, 14.56], [-0.831389, 47.3817, 14.54], [-0.831488, 47.381776, 14.53], [-0.831579, 47.381853, 14.51], [-0.831682, 47.381913, 14.5], [-0.831775, 47.38199, 14.48], [-0.831888, 47.382065, 14.52], [-0.831985, 47.382148, 14.58], [-0.832102, 47.382237, 14.64], [-0.832184, 47.38233, 14.69], [-0.832287, 47.382416, 14.75], [-0.832419, 47.382504, 14.81], [-0.832547, 47.382598, 14.88], [-0.832667, 47.382677, 14.94], [-0.8328, 47.382737, 14.99], [-0.832941, 47.382806, 15.05], [-0.833077, 47.382873, 15.11], [-0.833214, 47.382943, 15.17], [-0.833356, 47.383011, 15.23], [-0.833498, 47.383077, 15.29], [-0.833645, 47.383134, 15.35], [-0.833755, 47.383223, 15.4], [-0.833876, 47.383278, 15.43], [-0.833995, 47.383333, 15.47], [-0.834122, 47.383387, 15.5], [-0.83427, 47.383424, 15.53], [-0.834409, 47.383489, 15.57], [-0.834563, 47.383531, 15.61], [-0.834713, 47.383564, 15.64], [-0.834849, 47.383589, 15.67], [-0.834979, 47.383612, 15.7], [-0.835145, 47.383643, 15.74], [-0.835306, 47.383682, 15.77], [-0.835432, 47.383714, 15.8], [-0.835605, 47.38377, 15.84], [-0.835726, 47.383815, 15.87], [-0.835854, 47.38387, 15.91], [-0.835984, 47.383927, 15.94], [-0.836127, 47.383989, 15.97], [-0.836264, 47.384049, 15.96], [-0.836407, 47.384095, 15.96], [-0.836522, 47.384147, 15.95], [-0.836638, 47.384197, 15.94], [-0.836759, 47.384247, 15.94], [-0.836893, 47.384298, 15.93], [-0.837028, 47.384354, 15.92], [-0.837167, 47.384403, 15.92], [-0.837307, 47.38445, 15.91], [-0.837433, 47.384506, 15.9], [-0.837578, 47.384554, 15.89], [-0.837715, 47.38461, 15.89], [-0.837849, 47.384654, 15.88], [-0.837983, 47.384695, 15.87], [-0.838113, 47.38472, 15.87], [-0.838301, 47.384759, 15.86], [-0.838437, 47.384785, 15.85], [-0.838557, 47.384824, 15.85], [-0.838655, 47.384898, 15.84], [-0.83877, 47.384976, 15.84], [-0.838873, 47.385066, 15.84], [-0.838974, 47.385148, 15.84], [-0.839057, 47.385236, 15.84], [-0.839137, 47.385319, 15.83], [-0.839195, 47.385403, 15.83], [-0.839285, 47.38548, 15.83], [-0.839316, 47.385569, 15.83], [-0.839341, 47.385691, 15.82], [-0.839256, 47.38581, 15.82], [-0.839196, 47.385917, 15.82], [-0.839149, 47.38603, 15.82], [-0.839259, 47.386129, 15.81], [-0.839422, 47.386181, 15.81], [-0.839546, 47.386257, 15.82], [-0.839672, 47.386344, 15.87], [-0.839786, 47.386439, 15.91], [-0.839896, 47.386521, 15.95], [-0.840008, 47.38661, 16.0], [-0.840138, 47.386701, 16.05], [-0.840258, 47.386796, 16.09], [-0.840377, 47.386892, 16.14], [-0.840509, 47.386977, 16.19], [-0.840656, 47.387048, 16.23], [-0.840798, 47.387128, 16.28], [-0.840942, 47.3872, 16.32], [-0.841086, 47.387263, 16.37], [-0.84122, 47.387335, 16.41], [-0.841346, 47.387426, 16.46], [-0.841475, 47.387514, 16.45], [-0.841595, 47.387608, 16.37], [-0.841714, 47.387702, 16.29], [-0.841835, 47.387798, 16.21], [-0.841964, 47.387877, 16.14], [-0.842069, 47.387963, 16.06], [-0.842171, 47.388063, 15.99], [-0.842297, 47.38815, 15.91], [-0.84241, 47.388237, 15.83], [-0.842523, 47.388325, 15.76], [-0.842644, 47.388413, 15.68], [-0.842764, 47.388504, 15.61], [-0.842869, 47.388598, 15.53], [-0.842968, 47.388689, 15.46], [-0.843062, 47.388769, 15.39], [-0.843162, 47.388843, 15.33], [-0.843276, 47.38893, 15.32], [-0.843428, 47.388979, 15.32], [-0.8436, 47.389003, 15.31], [-0.843755, 47.389035, 15.3], [-0.843913, 47.389062, 15.29], [-0.844088, 47.389084, 15.28], [-0.844251, 47.389109, 15.27], [-0.844407, 47.389127, 15.26], [-0.844568, 47.389148, 15.25], [-0.844729, 47.389183, 15.24], [-0.844912, 47.389198, 15.23], [-0.845101, 47.389223, 15.22], [-0.845269, 47.38925, 15.21], [-0.845423, 47.389277, 15.2], [-0.845604, 47.389284, 15.19], [-0.845781, 47.389308, 15.17], [-0.845951, 47.389332, 15.15], [-0.846103, 47.389349, 15.13], [-0.846254, 47.389371, 15.11], [-0.846405, 47.389389, 15.09], [-0.84654, 47.389395, 15.07], [-0.846683, 47.389395, 15.05], [-0.846831, 47.389396, 15.03], [-0.846969, 47.389392, 15.01], [-0.847165, 47.389386, 14.98], [-0.847346, 47.38938, 14.96], [-0.847518, 47.389381, 14.94], [-0.847699, 47.389361, 14.91], [-0.847875, 47.389336, 14.89], [-0.848041, 47.389305, 14.87], [-0.848207, 47.389268, 14.84], [-0.848386, 47.389229, 14.95], [-0.848555, 47.389177, 15.18], [-0.848721, 47.389154, 15.39], [-0.848885, 47.389104, 15.61], [-0.848951, 47.38902, 15.78], [-0.849027, 47.38894, 15.95], [-0.849146, 47.388833, 16.2], [-0.849236, 47.388726, 16.42], [-0.849235, 47.388632, 16.59], [-0.849172, 47.38854, 16.78], [-0.849123, 47.388447, 16.96], [-0.849076, 47.388353, 17.14], [-0.849031, 47.388247, 17.34], [-0.848991, 47.388145, 17.53], [-0.848963, 47.388053, 17.7], [-0.848943, 47.387962, 17.87], [-0.849062, 47.38787, 18.09], [-0.849208, 47.387784, 17.97], [-0.849312, 47.3877, 17.85], [-0.849413, 47.387632, 17.74], [-0.84959, 47.387487, 17.53], [-0.849688, 47.387411, 17.42], [-0.849777, 47.38734, 17.32], [-0.849839, 47.387245, 17.21], [-0.849957, 47.387159, 17.08], [-0.850051, 47.387088, 16.98], [-0.850152, 47.387006, 16.86], [-0.850253, 47.386927, 16.75], [-0.850341, 47.386856, 16.64], [-0.850452, 47.386779, 16.53], [-0.850624, 47.386859, 16.37], [-0.850742, 47.386936, 16.25], [-0.850886, 47.387017, 16.15], [-0.851027, 47.3871, 16.23], [-0.851164, 47.387179, 16.32], [-0.851294, 47.38725, 16.39], [-0.851422, 47.387308, 16.46], [-0.851545, 47.387376, 16.53], [-0.851672, 47.387443, 16.6], [-0.851779, 47.387509, 16.67], [-0.851922, 47.387554, 16.74], [-0.852007, 47.387627, 16.8], [-0.852115, 47.387689, 16.86], [-0.85225, 47.387753, 16.94], [-0.852371, 47.387821, 17.01], [-0.852516, 47.387859, 17.08], [-0.852644, 47.387922, 17.15], [-0.852817, 47.387976, 17.24], [-0.852969, 47.388024, 17.31], [-0.853118, 47.388084, 17.31], [-0.853244, 47.388126, 17.3], [-0.853371, 47.388171, 17.28], [-0.853538, 47.388236, 17.25], [-0.853708, 47.388294, 17.23], [-0.853866, 47.388344, 17.21], [-0.854008, 47.388387, 17.19], [-0.854144, 47.388443, 17.17], [-0.854283, 47.388496, 17.15], [-0.854408, 47.388551, 17.13], [-0.854723, 47.388631, 17.09], [-0.854885, 47.38869, 17.06], [-0.855049, 47.388745, 17.04], [-0.855177, 47.388787, 17.02], [-0.855309, 47.388811, 17.01], [-0.855474, 47.388883, 17.06], [-0.855604, 47.388908, 17.14], [-0.85568, 47.38899, 17.22], [-0.855817, 47.389032, 17.31], [-0.855964, 47.389077, 17.4], [-0.856257, 47.389117, 17.57], [-0.856379, 47.389165, 17.65], [-0.856498, 47.38921, 17.73], [-0.856629, 47.389249, 17.81], [-0.856766, 47.389283, 17.9], [-0.856899, 47.389328, 17.98], [-0.857021, 47.389371, 18.06], [-0.857146, 47.389413, 18.14], [-0.857288, 47.389437, 18.23], [-0.85742, 47.389467, 18.31], [-0.857547, 47.389502, 18.38], [-0.857683, 47.389536, 18.47], [-0.857807, 47.38957, 18.5], [-0.857925, 47.389612, 18.45], [-0.85805, 47.389661, 18.39], [-0.858179, 47.389709, 18.33], [-0.8583, 47.389757, 18.27], [-0.858415, 47.389818, 18.21], [-0.858533, 47.389889, 18.15], [-0.858637, 47.389974, 18.09], [-0.858752, 47.390045, 18.02], [-0.85885, 47.390122, 17.96], [-0.858964, 47.390198, 17.9], [-0.859055, 47.390293, 17.83], [-0.859142, 47.390383, 17.77], [-0.859226, 47.390473, 17.7], [-0.859313, 47.390559, 17.64], [-0.859394, 47.390639, 17.58], [-0.859474, 47.390734, 17.52], [-0.859557, 47.390827, 17.45], [-0.859625, 47.39092, 17.43], [-0.859701, 47.391012, 17.41], [-0.859758, 47.391097, 17.39], [-0.859815, 47.391185, 17.38], [-0.85988, 47.391265, 17.36], [-0.859974, 47.391377, 17.34], [-0.860096, 47.391464, 17.32], [-0.860205, 47.391552, 17.29], [-0.860351, 47.391622, 17.27], [-0.860468, 47.391671, 17.26], [-0.860635, 47.391719, 17.23], [-0.860726, 47.391791, 17.22], [-0.860728, 47.39189, 17.2], [-0.86086, 47.391973, 17.18], [-0.860998, 47.391956, 17.16], [-0.860858, 47.391935, 17.14], [-0.860724, 47.391934, 17.12], [-0.860889, 47.391831, 17.13], [-0.861012, 47.391885, 17.13], [-0.86114, 47.39194, 17.14], [-0.861258, 47.391995, 17.14], [-0.861425, 47.39204, 17.15], [-0.861532, 47.392093, 17.16], [-0.861645, 47.39215, 17.16], [-0.861788, 47.392189, 17.17], [-0.861924, 47.392229, 17.17], [-0.862054, 47.39227, 17.18], [-0.862205, 47.392295, 17.18], [-0.862361, 47.392307, 17.19], [-0.862511, 47.392303, 17.19], [-0.862666, 47.392302, 17.2], [-0.862819, 47.392296, 17.21], [-0.862966, 47.392288, 17.21], [-0.863115, 47.392286, 17.22], [-0.86326, 47.392275, 17.24], [-0.863408, 47.392265, 17.27], [-0.863559, 47.392258, 17.31], [-0.863714, 47.392252, 17.34], [-0.863877, 47.392242, 17.38], [-0.864043, 47.392229, 17.42], [-0.864212, 47.392215, 17.46], [-0.864382, 47.392212, 17.5], [-0.864554, 47.392208, 17.54], [-0.864724, 47.392197, 17.58], [-0.864896, 47.392186, 17.62], [-0.86507, 47.392177, 17.66], [-0.865239, 47.39217, 17.7], [-0.865408, 47.392158, 17.73], [-0.865578, 47.392143, 17.77], [-0.865752, 47.392147, 17.81], [-0.865924, 47.392145, 17.81], [-0.866087, 47.392133, 17.78], [-0.866244, 47.392128, 17.76], [-0.866401, 47.392115, 17.73], [-0.866546, 47.392113, 17.71], [-0.866685, 47.392108, 17.69], [-0.866877, 47.39209, 17.66], [-0.867014, 47.392078, 17.63], [-0.867165, 47.392078, 17.61], [-0.867318, 47.392091, 17.58], [-0.867475, 47.39209, 17.56], [-0.867641, 47.392096, 17.53], [-0.86781, 47.392097, 17.5], [-0.867983, 47.392105, 17.48], [-0.868149, 47.392115, 17.45], [-0.868317, 47.392122, 17.42], [-0.868493, 47.392119, 17.4], [-0.86867, 47.392117, 17.4], [-0.868844, 47.392122, 17.39], [-0.869012, 47.392131, 17.39], [-0.869177, 47.392136, 17.38], [-0.869347, 47.392144, 17.38], [-0.869516, 47.392146, 17.37], [-0.869674, 47.392174, 17.37], [-0.869824, 47.39217, 17.37], [-0.86998, 47.392169, 17.36], [-0.870151, 47.392174, 17.36], [-0.870324, 47.392176, 17.36], [-0.870494, 47.392187, 17.35], [-0.870664, 47.392199, 17.35], [-0.870837, 47.392207, 17.34], [-0.871011, 47.392201, 17.34], [-0.871194, 47.392189, 17.35], [-0.871378, 47.39221, 17.37], [-0.871566, 47.392241, 17.39], [-0.871745, 47.392242, 17.42], [-0.871926, 47.392241, 17.44], [-0.8721, 47.392253, 17.46], [-0.872281, 47.392258, 17.48], [-0.872462, 47.392264, 17.5], [-0.872632, 47.392265, 17.53], [-0.87281, 47.39227, 17.55], [-0.872986, 47.392279, 17.57], [-0.873161, 47.392283, 17.59], [-0.873337, 47.392289, 17.61], [-0.873514, 47.392289, 17.63], [-0.873699, 47.392284, 17.66], [-0.873872, 47.392312, 17.66], [-0.874043, 47.392335, 17.66], [-0.874204, 47.392333, 17.66], [-0.874353, 47.392347, 17.66], [-0.874513, 47.392364, 17.66], [-0.874675, 47.392385, 17.66], [-0.874838, 47.392421, 17.66], [-0.875003, 47.392446, 17.66], [-0.875149, 47.392478, 17.66], [-0.875291, 47.392511, 17.66], [-0.875459, 47.392551, 17.66], [-0.875632, 47.392591, 17.66], [-0.875803, 47.392635, 17.66], [-0.875968, 47.392683, 17.66], [-0.876138, 47.392726, 17.66], [-0.876304, 47.392783, 17.66], [-0.876471, 47.39283, 17.66], [-0.876642, 47.392874, 17.66], [-0.876811, 47.392923, 17.66], [-0.876986, 47.392966, 17.65], [-0.877163, 47.393004, 17.65], [-0.877332, 47.393049, 17.65], [-0.87749, 47.393096, 17.65], [-0.877659, 47.393134, 17.65], [-0.877828, 47.39317, 17.65], [-0.877999, 47.393214, 17.65], [-0.878154, 47.393271, 17.65], [-0.878324, 47.393305, 17.65], [-0.878484, 47.393362, 17.65], [-0.878651, 47.39341, 17.64], [-0.878823, 47.39345, 17.65], [-0.878993, 47.393493, 17.67], [-0.879152, 47.393549, 17.7], [-0.879314, 47.393595, 17.72], [-0.87949, 47.393624, 17.74], [-0.879657, 47.393669, 17.76], [-0.879821, 47.393714, 17.79], [-0.879984, 47.393759, 17.81], [-0.880147, 47.39381, 17.83], [-0.880306, 47.393866, 17.85], [-0.880484, 47.393888, 17.87], [-0.880658, 47.393929, 17.9], [-0.880813, 47.393992, 17.92], [-0.880977, 47.394036, 17.94], [-0.881135, 47.394082, 17.96], [-0.881295, 47.394123, 17.98], [-0.881458, 47.394158, 17.98], [-0.881622, 47.394191, 17.99], [-0.881787, 47.394214, 18.0], [-0.881937, 47.394243, 18.01], [-0.882079, 47.394256, 18.01], [-0.882245, 47.394268, 18.02], [-0.882412, 47.394288, 18.03], [-0.882583, 47.394315, 18.03], [-0.882752, 47.39433, 18.04], [-0.882923, 47.394368, 18.05], [-0.883094, 47.394386, 18.06], [-0.883275, 47.3944, 18.07], [-0.883435, 47.394431, 18.07], [-0.883622, 47.394439, 18.08], [-0.883781, 47.394469, 18.09], [-0.883951, 47.39449, 18.08], [-0.88412, 47.394522, 18.07], [-0.88429, 47.394559, 18.06], [-0.884458, 47.394603, 18.05], [-0.884623, 47.394654, 18.03], [-0.884794, 47.394702, 18.02], [-0.884952, 47.394746, 18.01], [-0.885102, 47.394804, 18.0], [-0.885263, 47.394859, 17.99], [-0.885406, 47.394919, 17.98], [-0.885568, 47.39497, 17.96], [-0.885722, 47.395024, 17.95], [-0.885874, 47.395089, 17.94], [-0.886027, 47.395137, 17.93], [-0.886177, 47.395186, 17.92], [-0.886347, 47.395223, 17.93], [-0.886507, 47.395282, 17.94], [-0.886651, 47.395346, 17.95], [-0.886791, 47.395416, 17.97], [-0.886939, 47.395484, 17.98], [-0.887091, 47.39554, 17.99], [-0.887237, 47.395587, 18.0], [-0.8874, 47.395634, 18.02], [-0.887639, 47.395716, 18.04], [-0.88778, 47.395787, 18.05], [-0.887912, 47.395829, 18.06], [-0.888068, 47.395869, 18.07], [-0.88824, 47.395926, 18.09], [-0.888412, 47.395985, 18.1], [-0.888586, 47.396023, 18.11], [-0.88876, 47.396047, 18.05], [-0.888929, 47.396059, 17.99], [-0.889105, 47.396081, 17.93], [-0.889284, 47.396115, 17.87], [-0.889449, 47.396134, 17.81], [-0.889624, 47.396133, 17.75], [-0.889792, 47.396134, 17.7], [-0.889965, 47.396147, 17.64], [-0.890129, 47.396161, 17.58], [-0.890297, 47.396189, 17.52], [-0.890469, 47.396203, 17.46], [-0.890636, 47.396217, 17.4], [-0.890812, 47.396228, 17.34], [-0.890985, 47.396243, 17.29], [-0.89116, 47.396246, 17.23], [-0.89133, 47.396251, 17.22], [-0.891502, 47.396264, 17.23], [-0.891674, 47.396271, 17.24], [-0.891842, 47.396274, 17.25], [-0.892013, 47.396286, 17.26], [-0.892182, 47.396318, 17.27], [-0.892365, 47.39633, 17.27], [-0.892547, 47.396346, 17.28], [-0.892723, 47.396374, 17.29], [-0.892901, 47.3964, 17.3], [-0.893081, 47.396427, 17.31], [-0.893259, 47.396461, 17.32], [-0.893434, 47.39649, 17.33], [-0.893606, 47.396532, 17.34], [-0.893772, 47.396576, 17.35], [-0.893937, 47.396616, 17.38], [-0.894095, 47.396673, 17.42], [-0.894258, 47.396718, 17.45], [-0.894424, 47.396765, 17.49], [-0.894586, 47.396818, 17.53], [-0.894736, 47.396878, 17.56], [-0.894894, 47.396931, 17.6], [-0.895053, 47.396982, 17.63], [-0.895211, 47.397037, 17.67], [-0.895358, 47.397096, 17.7], [-0.895524, 47.397142, 17.74], [-0.895687, 47.397191, 17.77], [-0.895846, 47.397246, 17.81], [-0.896003, 47.397302, 17.84], [-0.896163, 47.397356, 17.88], [-0.896325, 47.397408, 17.91], [-0.896475, 47.397464, 17.93], [-0.896638, 47.397524, 17.96], [-0.896804, 47.397574, 17.99], [-0.896965, 47.39763, 18.02], [-0.897127, 47.397675, 18.04], [-0.897269, 47.397745, 18.07], [-0.897421, 47.397798, 18.1], [-0.897584, 47.397847, 18.13], [-0.897745, 47.397899, 18.15], [-0.897903, 47.397957, 18.18], [-0.898059, 47.398018, 18.21], [-0.89822, 47.39807, 18.24], [-0.898383, 47.398115, 18.26], [-0.898536, 47.398174, 18.29], [-0.898691, 47.398225, 18.27], [-0.898856, 47.398278, 18.25], [-0.899015, 47.398329, 18.23], [-0.899177, 47.398384, 18.2], [-0.899336, 47.398441, 18.18], [-0.899499, 47.398495, 18.15], [-0.899655, 47.398553, 18.13], [-0.899819, 47.398605, 18.11], [-0.89997, 47.398664, 18.08], [-0.900133, 47.398711, 18.06], [-0.900293, 47.398766, 18.04], [-0.900446, 47.398817, 18.02], [-0.900596, 47.398865, 17.99], [-0.900733, 47.398917, 17.97], [-0.900872, 47.398956, 17.95], [-0.900992, 47.399003, 17.95], [-0.901116, 47.399056, 17.96], [-0.901251, 47.399101, 17.96], [-0.901377, 47.399141, 17.97], [-0.901552, 47.399202, 17.98], [-0.901727, 47.399261, 17.99], [-0.90187, 47.399304, 17.99], [-0.902013, 47.399359, 18.0], [-0.902159, 47.39941, 18.01], [-0.902311, 47.399459, 18.01], [-0.902456, 47.399512, 18.02], [-0.902608, 47.399566, 18.03], [-0.902755, 47.399619, 18.04], [-0.902913, 47.399673, 18.05], [-0.903079, 47.399723, 18.05], [-0.903246, 47.399772, 18.06], [-0.903398, 47.399829, 18.06], [-0.90357, 47.399879, 18.05], [-0.903739, 47.399923, 18.04], [-0.903904, 47.399964, 18.03], [-0.904078, 47.400002, 18.02], [-0.904261, 47.400038, 18.02], [-0.904435, 47.400078, 18.01], [-0.904605, 47.40011, 18.0], [-0.904764, 47.40014, 17.99], [-0.904929, 47.400152, 17.98], [-0.905098, 47.400178, 17.98], [-0.905274, 47.400197, 17.97], [-0.905451, 47.400216, 17.96], [-0.905633, 47.400225, 17.95], [-0.905814, 47.400232, 17.94], [-0.905986, 47.400238, 17.94], [-0.906166, 47.40024, 17.94], [-0.906331, 47.400244, 17.94], [-0.906485, 47.400236, 17.94], [-0.90663, 47.400233, 17.94], [-0.906774, 47.400224, 17.94], [-0.906933, 47.400221, 17.93], [-0.9071, 47.40021, 17.93], [-0.907276, 47.40021, 17.93], [-0.90744, 47.400204, 17.93], [-0.907611, 47.40019, 17.93], [-0.907786, 47.400172, 17.93], [-0.907965, 47.400162, 17.93], [-0.908144, 47.400169, 17.93], [-0.908321, 47.400173, 17.93], [-0.908501, 47.400163, 17.93], [-0.908678, 47.400164, 17.89], [-0.908854, 47.400156, 17.86], [-0.909038, 47.400152, 17.83], [-0.909221, 47.400144, 17.8], [-0.909408, 47.400139, 17.76], [-0.909589, 47.400131, 17.73], [-0.90977, 47.400126, 17.7], [-0.909957, 47.400124, 17.66], [-0.910137, 47.400106, 17.63], [-0.910318, 47.4001, 17.6], [-0.910499, 47.400099, 17.56], [-0.910679, 47.4001, 17.53], [-0.910864, 47.400081, 17.5], [-0.911048, 47.400082, 17.46], [-0.911234, 47.40008, 17.45], [-0.91141, 47.400075, 17.46], [-0.91157, 47.400064, 17.48], [-0.911746, 47.400061, 17.49], [-0.91192, 47.400053, 17.51], [-0.912097, 47.40004, 17.52], [-0.912273, 47.400023, 17.54], [-0.912453, 47.399997, 17.55], [-0.912631, 47.399971, 17.57], [-0.912812, 47.399945, 17.58], [-0.912984, 47.399911, 17.6], [-0.913156, 47.399879, 17.61], [-0.913328, 47.399838, 17.62], [-0.913497, 47.399798, 17.64], [-0.913668, 47.399752, 17.65], [-0.913837, 47.399706, 17.69], [-0.914012, 47.39966, 17.73], [-0.91418, 47.399612, 17.77], [-0.914335, 47.399548, 17.82], [-0.914486, 47.399502, 17.86], [-0.91462, 47.399446, 17.89], [-0.914758, 47.399387, 17.93], [-0.9149, 47.399336, 17.97], [-0.915031, 47.39928, 18.01], [-0.915162, 47.399237, 18.04], [-0.915293, 47.399183, 18.08], [-0.915421, 47.39911, 18.12], [-0.915558, 47.399051, 18.16], [-0.915711, 47.398999, 18.2], [-0.915866, 47.398941, 18.24], [-0.916013, 47.398873, 18.28], [-0.916165, 47.398824, 18.52], [-0.916303, 47.398772, 18.81], [-0.916431, 47.398716, 19.09], [-0.916549, 47.39866, 19.36], [-0.916699, 47.398618, 19.66], [-0.916837, 47.398611, 19.91], [-0.916925, 47.39869, 20.18], [-0.916992, 47.398784, 20.46], [-0.917087, 47.398886, 20.79], [-0.917175, 47.398989, 21.12], [-0.91727, 47.399089, 21.44], [-0.917349, 47.399186, 21.74], [-0.917427, 47.39928, 22.03], [-0.917507, 47.399374, 22.33], [-0.917596, 47.399469, 22.64], [-0.91768, 47.399561, 22.93], [-0.917758, 47.399659, 23.21], [-0.917839, 47.399752, 23.34], [-0.917918, 47.399848, 23.47], [-0.918013, 47.399944, 23.62], [-0.918082, 47.400049, 23.76], [-0.918165, 47.400145, 23.89], [-0.918261, 47.400233, 24.03], [-0.918328, 47.400315, 24.14], [-0.918412, 47.400408, 24.27], [-0.918496, 47.4005, 24.41], [-0.91858, 47.400589, 24.54], [-0.91865, 47.400674, 24.65], [-0.918721, 47.400753, 24.77], [-0.918792, 47.400834, 24.88], [-0.918882, 47.400945, 25.04], [-0.918954, 47.401029, 25.16], [-0.919034, 47.401116, 25.28], [-0.919096, 47.401215, 25.36], [-0.919178, 47.401309, 25.21], [-0.919264, 47.401408, 25.06], [-0.919357, 47.401516, 24.89], [-0.919446, 47.401619, 24.73], [-0.919545, 47.401712, 24.57], [-0.91961, 47.40181, 24.43], [-0.919703, 47.401894, 24.29], [-0.919784, 47.401982, 24.15], [-0.919862, 47.402075, 24.0], [-0.919942, 47.402163, 23.86], [-0.920017, 47.402247, 23.73], [-0.920097, 47.402339, 23.59], [-0.920178, 47.402432, 23.44], [-0.920257, 47.402527, 23.3], [-0.920343, 47.402618, 23.15], [-0.920425, 47.402705, 23.01], [-0.920494, 47.402787, 22.8], [-0.920595, 47.402899, 22.43], [-0.920672, 47.403013, 22.07], [-0.920914, 47.402927, 21.55], [-0.921006, 47.402861, 21.3], [-0.921115, 47.402795, 21.02], [-0.921198, 47.402706, 20.72], [-0.921295, 47.402643, 20.46], [-0.921381, 47.402567, 20.19], [-0.921508, 47.402527, 19.93], [-0.921622, 47.402466, 19.65], [-0.921769, 47.402391, 19.3], [-0.921873, 47.402334, 19.04], [-0.922025, 47.402255, 18.68], [-0.922186, 47.402183, 18.31], [-0.922308, 47.402141, 18.05], [-0.922432, 47.402104, 17.9], [-0.922563, 47.402062, 17.91], [-0.9227, 47.401998, 17.92], [-0.922811, 47.401911, 17.93], [-0.922915, 47.40184, 17.94], [-0.923044, 47.401739, 17.95], [-0.9232, 47.401687, 17.96], [-0.9233, 47.401758, 17.97], [-0.923448, 47.401771, 17.97], [-0.9236, 47.401694, 17.99], [-0.92374, 47.401656, 18.0], [-0.923878, 47.401598, 18.0], [-0.924021, 47.401546, 18.01], [-0.924162, 47.401495, 18.02], [-0.924303, 47.401439, 18.03], [-0.92444, 47.401391, 18.04], [-0.924556, 47.401345, 18.05], [-0.924706, 47.401279, 18.0], [-0.924729, 47.401153, 17.92], [-0.924646, 47.401074, 17.87], [-0.9248, 47.400987, 17.79], [-0.924915, 47.400928, 17.74], [-0.925077, 47.400888, 17.67], [-0.925232, 47.400824, 17.6], [-0.925399, 47.400779, 17.54], [-0.925556, 47.400735, 17.47], [-0.92569, 47.400677, 17.41], [-0.925802, 47.400609, 17.35], [-0.925923, 47.40055, 17.3], [-0.926049, 47.400496, 17.24], [-0.926202, 47.40043, 17.17], [-0.926381, 47.400362, 17.09], [-0.926561, 47.400296, 17.02], [-0.926738, 47.40024, 16.95], [-0.926912, 47.400174, 16.88], [-0.927104, 47.400127, 16.81], [-0.927304, 47.400082, 16.74], [-0.9275, 47.400034, 16.67], [-0.92768, 47.39998, 16.6], [-0.92785, 47.399938, 16.54], [-0.928019, 47.399909, 16.48], [-0.928176, 47.399868, 16.42], [-0.92833, 47.399839, 16.36], [-0.928491, 47.399824, 16.31], [-0.92865, 47.399801, 16.25], [-0.928798, 47.399786, 16.2], [-0.928949, 47.399769, 16.15], [-0.92911, 47.39974, 16.46], [-0.929271, 47.399703, 17.0], [-0.929438, 47.399664, 17.57], [-0.929599, 47.399625, 18.11], [-0.929739, 47.399585, 18.59], [-0.929933, 47.39957, 19.21], [-0.930076, 47.399588, 19.68], [-0.930173, 47.39967, 20.17], [-0.93021, 47.399771, 20.66], [-0.930271, 47.39986, 21.12], [-0.930348, 47.399947, 21.6], [-0.930409, 47.400043, 22.09], [-0.930463, 47.400133, 22.55], [-0.930535, 47.400217, 23.0], [-0.930607, 47.400315, 23.52], [-0.930684, 47.40041, 24.03], [-0.930764, 47.40052, 24.58], [-0.930835, 47.400602, 24.64], [-0.930802, 47.400711, 24.7], [-0.930973, 47.400705, 24.77], [-0.931091, 47.40061, 24.84], [-0.931229, 47.400525, 24.91], [-0.931355, 47.40044, 24.98], [-0.931498, 47.400369, 25.05], [-0.931633, 47.400282, 25.13], [-0.931772, 47.4002, 25.2], [-0.931914, 47.40012, 25.27], [-0.93206, 47.400036, 25.35], [-0.932202, 47.399955, 25.42], [-0.932342, 47.399878, 25.49], [-0.932472, 47.399796, 25.56], [-0.932607, 47.399721, 25.58], [-0.932733, 47.399643, 25.09], [-0.932868, 47.399569, 24.61], [-0.933002, 47.399489, 24.1], [-0.933147, 47.399401, 23.55], [-0.933292, 47.399312, 23.0], [-0.93346, 47.399216, 22.38], [-0.933642, 47.399112, 21.71], [-0.933838, 47.398999, 20.99], [-0.93394, 47.398941, 20.61], [-0.934054, 47.398881, 20.21], [-0.934162, 47.398824, 19.82], [-0.934281, 47.398763, 19.4], [-0.934394, 47.398702, 18.99], [-0.934509, 47.39864, 18.58], [-0.934632, 47.398586, 18.17], [-0.93474, 47.39853, 18.0], [-0.934864, 47.398497, 17.84], [-0.93508, 47.398404, 17.55], [-0.935315, 47.398348, 17.26], [-0.935523, 47.398286, 17.0], [-0.935708, 47.398231, 16.77], [-0.935901, 47.398186, 16.54], [-0.936086, 47.398126, 16.3], [-0.936287, 47.398085, 16.06], [-0.936488, 47.398025, 15.81], [-0.936707, 47.397979, 15.54], [-0.936908, 47.39792, 15.29], [-0.937108, 47.397853, 15.11], [-0.93731, 47.397798, 15.2], [-0.937502, 47.397754, 15.28], [-0.937662, 47.397696, 15.35], [-0.937831, 47.397642, 15.43], [-0.937999, 47.397586, 15.51], [-0.938166, 47.397543, 15.58], [-0.938335, 47.397488, 15.66], [-0.938503, 47.397441, 15.73], [-0.938666, 47.397387, 15.8], [-0.938835, 47.397336, 15.88], [-0.939004, 47.397289, 15.95], [-0.939178, 47.397249, 16.03], [-0.939355, 47.397216, 16.1], [-0.939537, 47.397199, 16.17], [-0.939707, 47.397161, 16.11], [-0.939884, 47.397121, 16.06], [-0.940049, 47.397079, 16.01], [-0.940224, 47.397052, 15.96], [-0.940397, 47.39702, 15.9], [-0.940561, 47.396978, 15.85], [-0.940712, 47.396942, 15.81], [-0.940863, 47.396928, 15.76], [-0.94099, 47.396885, 15.72], [-0.941126, 47.396879, 15.68], [-0.941255, 47.396838, 15.64], [-0.941389, 47.396822, 15.6], [-0.941558, 47.396792, 15.55], [-0.941571, 47.396661, 15.49], [-0.941591, 47.396556, 15.45], [-0.941608, 47.396448, 15.4], [-0.941586, 47.396332, 15.33], [-0.941503, 47.396239, 15.26], [-0.941445, 47.396115, 15.18], [-0.941595, 47.396035, 15.1], [-0.941763, 47.395971, 15.02], [-0.941955, 47.395919, 14.94], [-0.942114, 47.395822, 14.85], [-0.942197, 47.395686, 14.75], [-0.942275, 47.395566, 14.67], [-0.942323, 47.395452, 14.6], [-0.942338, 47.395334, 14.53], [-0.94236, 47.395217, 14.45], [-0.942393, 47.3951, 14.38], [-0.942409, 47.394979, 14.31], [-0.942433, 47.394861, 14.33], [-0.942451, 47.394738, 14.4], [-0.942505, 47.39462, 14.47], [-0.942513, 47.394498, 14.54], [-0.942548, 47.394377, 14.6], [-0.942515, 47.394255, 14.67], [-0.94241, 47.394155, 14.74], [-0.942316, 47.394055, 14.81], [-0.942209, 47.393963, 14.87], [-0.942117, 47.39386, 14.94], [-0.942011, 47.393761, 15.0], [-0.941891, 47.393672, 15.07], [-0.941819, 47.393579, 15.13], [-0.941731, 47.393484, 15.19], [-0.941628, 47.393401, 15.25], [-0.941535, 47.393311, 15.27], [-0.941459, 47.393227, 15.25], [-0.941413, 47.393136, 15.24], [-0.941319, 47.393023, 15.22], [-0.941257, 47.392939, 15.21], [-0.941223, 47.392827, 15.19], [-0.941287, 47.392708, 15.17], [-0.941424, 47.392612, 15.15], [-0.941522, 47.392514, 15.13], [-0.941644, 47.392424, 15.12], [-0.941762, 47.392333, 15.1], [-0.941874, 47.39223, 15.08], [-0.941988, 47.392137, 15.06], [-0.942107, 47.392047, 15.04], [-0.942203, 47.391947, 15.03], [-0.942314, 47.391852, 15.01], [-0.942438, 47.391762, 15.0], [-0.942552, 47.391669, 14.99], [-0.94266, 47.391568, 14.98], [-0.942777, 47.391481, 14.97], [-0.942862, 47.3914, 14.96], [-0.942967, 47.391322, 14.95], [-0.943074, 47.391258, 14.95], [-0.943187, 47.391187, 14.94], [-0.943313, 47.391107, 14.93], [-0.943436, 47.391032, 14.92], [-0.943553, 47.390965, 14.91], [-0.94366, 47.390897, 14.9], [-0.943774, 47.390823, 14.89], [-0.94389, 47.390747, 14.89], [-0.944033, 47.390671, 14.88], [-0.944154, 47.390576, 14.87], [-0.944271, 47.390485, 14.88], [-0.944402, 47.390407, 14.89], [-0.944525, 47.390317, 14.9], [-0.94465, 47.390232, 14.9], [-0.944779, 47.390147, 14.91], [-0.944907, 47.390067, 14.92], [-0.945047, 47.389993, 14.93], [-0.94519, 47.389913, 14.94], [-0.945324, 47.389828, 14.95], [-0.94547, 47.389758, 14.96], [-0.945613, 47.389678, 14.97], [-0.945744, 47.389599, 14.98], [-0.945867, 47.389527, 14.99], [-0.945998, 47.389446, 14.99], [-0.946112, 47.389358, 15.0], [-0.946228, 47.389265, 14.97], [-0.946346, 47.389174, 14.94], [-0.946448, 47.389076, 14.91], [-0.946541, 47.388975, 14.88], [-0.946637, 47.388878, 14.85], [-0.94672, 47.388765, 14.82], [-0.946819, 47.388664, 14.79], [-0.94693, 47.388574, 14.76], [-0.947022, 47.388466, 14.73], [-0.947125, 47.38837, 14.7], [-0.94725, 47.388285, 14.67], [-0.94735, 47.388179, 14.64], [-0.947467, 47.388081, 14.61], [-0.94757, 47.387993, 14.58], [-0.947683, 47.387915, 14.55], [-0.947778, 47.387837, 14.53], [-0.947869, 47.387769, 14.51], [-0.947999, 47.387666, 14.47], [-0.948135, 47.387589, 14.44], [-0.948276, 47.387502, 14.41], [-0.948403, 47.387429, 14.39], [-0.948516, 47.387359, 14.36], [-0.948621, 47.387295, 14.34], [-0.94872, 47.387232, 14.32], [-0.948829, 47.387152, 14.29], [-0.948946, 47.387072, 14.26], [-0.949063, 47.386997, 14.24], [-0.949179, 47.386916, 14.21], [-0.949303, 47.386833, 14.18], [-0.949409, 47.386741, 14.15], [-0.949538, 47.386653, 14.12], [-0.949646, 47.386553, 14.1], [-0.949758, 47.386459, 14.08], [-0.949864, 47.386362, 14.05], [-0.94995, 47.386269, 14.03], [-0.950016, 47.386175, 14.01], [-0.950082, 47.38608, 13.99], [-0.95016, 47.385978, 13.97], [-0.950247, 47.385879, 13.95], [-0.950324, 47.385781, 13.92], [-0.950406, 47.385695, 13.9], [-0.950499, 47.385613, 13.88], [-0.95057, 47.385537, 13.87], [-0.950688, 47.385432, 13.84], [-0.950772, 47.385362, 13.82], [-0.950873, 47.385292, 13.8], [-0.950999, 47.385233, 13.78], [-0.951145, 47.385182, 13.8], [-0.951266, 47.385098, 13.85], [-0.951423, 47.385018, 13.91], [-0.951567, 47.384929, 13.97], [-0.95168, 47.384827, 14.02], [-0.951802, 47.384751, 14.07], [-0.951939, 47.384683, 14.12], [-0.952081, 47.384606, 14.18], [-0.952231, 47.384534, 14.23], [-0.952371, 47.384456, 14.28], [-0.952509, 47.384386, 14.33], [-0.952653, 47.384326, 14.38], [-0.952781, 47.384251, 14.43], [-0.952919, 47.384176, 14.48], [-0.953055, 47.384096, 14.54], [-0.953183, 47.384014, 14.53], [-0.953305, 47.383922, 14.5], [-0.953431, 47.383831, 14.46], [-0.953547, 47.383739, 14.43], [-0.953667, 47.383662, 14.4], [-0.953756, 47.383579, 14.37], [-0.953876, 47.383495, 14.34], [-0.953981, 47.3834, 14.31], [-0.954088, 47.38331, 14.27], [-0.954204, 47.383214, 14.24], [-0.954335, 47.383129, 14.21], [-0.954461, 47.383044, 14.17], [-0.9546, 47.382976, 14.14], [-0.954729, 47.382896, 14.11], [-0.954853, 47.382813, 14.08], [-0.954993, 47.382741, 14.04], [-0.955129, 47.382661, 13.99], [-0.95528, 47.3826, 13.94], [-0.955433, 47.382533, 13.89], [-0.955591, 47.382461, 13.84], [-0.955773, 47.382409, 13.79], [-0.955926, 47.382346, 13.74], [-0.956079, 47.382277, 13.69], [-0.956233, 47.382218, 13.65], [-0.956375, 47.382152, 13.6], [-0.956517, 47.382087, 13.55], [-0.956665, 47.38202, 13.51], [-0.956813, 47.381959, 13.46], [-0.956958, 47.38189, 13.41], [-0.957117, 47.38183, 13.36], [-0.95727, 47.381763, 13.32], [-0.957421, 47.381703, 13.29], [-0.957574, 47.381661, 13.25], [-0.957719, 47.381602, 13.22], [-0.957878, 47.381542, 13.18], [-0.958032, 47.381474, 13.14], [-0.958186, 47.381404, 13.1], [-0.95834, 47.381337, 13.06], [-0.958483, 47.381258, 13.02], [-0.958631, 47.38119, 12.99], [-0.958779, 47.381124, 12.95], [-0.958933, 47.381053, 12.91], [-0.959083, 47.380984, 12.87], [-0.959209, 47.380901, 12.83], [-0.959356, 47.38083, 12.8], [-0.959477, 47.380737, 12.83], [-0.959582, 47.380639, 12.88], [-0.959663, 47.380542, 12.92], [-0.959756, 47.380462, 12.96], [-0.959837, 47.380385, 13.0], [-0.959935, 47.380323, 13.03], [-0.960089, 47.380262, 13.07], [-0.96026, 47.380192, 13.12], [-0.960382, 47.380135, 13.16], [-0.960519, 47.3801, 13.2], [-0.960691, 47.380078, 13.24], [-0.960846, 47.380051, 13.28], [-0.961008, 47.380014, 13.33], [-0.961154, 47.379982, 13.37], [-0.961296, 47.379949, 13.4], [-0.961434, 47.379948, 13.44], [-0.961572, 47.379971, 13.46], [-0.961704, 47.380062, 13.45], [-0.961808, 47.380159, 13.44], [-0.961874, 47.380241, 13.43], [-0.961987, 47.380334, 13.42], [-0.962078, 47.380413, 13.41], [-0.962219, 47.380364, 13.39], [-0.962381, 47.380334, 13.38], [-0.962528, 47.380311, 13.37], [-0.962668, 47.380274, 13.36], [-0.962839, 47.380263, 13.35], [-0.962973, 47.380239, 13.34], [-0.963114, 47.380232, 13.33], [-0.963361, 47.380185, 13.31], [-0.963535, 47.380155, 13.3], [-0.963718, 47.380111, 13.29], [-0.963809, 47.379999, 13.34], [-0.96376, 47.379905, 13.42], [-0.963727, 47.379816, 13.49], [-0.963737, 47.379695, 13.58], [-0.963853, 47.379633, 13.66], [-0.963978, 47.379596, 13.73], [-0.964165, 47.379574, 13.83], [-0.964343, 47.379575, 13.93], [-0.964481, 47.379556, 14.0], [-0.964668, 47.379554, 14.1], [-0.96485, 47.379528, 14.2], [-0.965023, 47.37952, 14.29], [-0.965196, 47.379507, 14.38], [-0.965326, 47.379486, 14.45], [-0.965521, 47.379492, 14.55], [-0.96571, 47.379461, 14.65], [-0.965856, 47.379468, 14.66], [-0.965996, 47.379449, 14.63], [-0.966138, 47.379455, 14.59], [-0.966276, 47.379428, 14.56], [-0.96642, 47.379429, 14.53], [-0.966562, 47.379425, 14.5], [-0.966705, 47.379403, 14.47], [-0.966843, 47.379401, 14.44], [-0.966977, 47.379391, 14.41], [-0.967173, 47.379372, 14.36], [-0.967365, 47.379347, 14.32], [-0.967497, 47.379332, 14.29], [-0.967634, 47.379315, 14.26], [-0.967788, 47.379306, 14.23], [-0.967943, 47.379277, 14.19], [-0.968106, 47.379258, 14.16], [-0.968262, 47.379226, 14.12], [-0.968421, 47.379193, 14.1], [-0.968588, 47.379166, 14.12], [-0.968765, 47.37915, 14.14], [-0.968939, 47.379128, 14.15], [-0.969109, 47.3791, 14.17], [-0.969275, 47.379065, 14.19], [-0.969448, 47.379039, 14.21], [-0.969617, 47.379012, 14.23], [-0.96977, 47.378978, 14.24], [-0.969903, 47.378939, 14.26], [-0.970039, 47.378907, 14.27], [-0.970179, 47.378882, 14.29], [-0.970319, 47.378844, 14.3], [-0.970474, 47.378797, 14.32], [-0.97063, 47.378753, 14.34], [-0.970787, 47.37872, 14.35], [-0.970938, 47.378687, 14.36], [-0.971101, 47.378657, 14.36], [-0.971253, 47.378612, 14.35], [-0.971418, 47.378583, 14.34], [-0.971567, 47.378545, 14.34], [-0.971723, 47.378504, 14.33], [-0.971888, 47.378475, 14.32], [-0.972043, 47.378431, 14.32], [-0.972199, 47.378394, 14.31], [-0.972367, 47.378375, 14.3], [-0.972537, 47.378346, 14.3], [-0.972708, 47.378321, 14.29], [-0.972878, 47.378284, 14.28], [-0.973048, 47.378245, 14.27], [-0.973229, 47.378215, 14.27], [-0.973406, 47.378188, 14.26], [-0.973576, 47.378162, 14.2], [-0.97375, 47.378138, 14.12], [-0.973922, 47.378123, 14.05], [-0.974091, 47.378118, 13.98], [-0.974262, 47.378108, 13.9], [-0.974432, 47.378106, 13.83], [-0.974597, 47.378093, 13.76], [-0.974768, 47.378067, 13.69], [-0.974951, 47.378059, 13.61], [-0.975125, 47.378039, 13.53], [-0.975287, 47.378017, 13.46], [-0.97544, 47.377992, 13.39], [-0.975593, 47.377978, 13.33], [-0.975759, 47.377966, 13.26], [-0.975924, 47.377952, 13.19], [-0.976089, 47.37793, 13.13], [-0.976247, 47.377916, 13.19], [-0.97641, 47.377933, 13.25], [-0.976578, 47.377917, 13.31], [-0.976763, 47.377912, 13.38], [-0.976937, 47.377908, 13.45], [-0.977105, 47.377887, 13.51], [-0.977269, 47.377866, 13.58], [-0.977425, 47.377827, 13.64], [-0.977586, 47.377791, 13.7], [-0.977748, 47.377763, 13.77], [-0.977904, 47.377728, 13.83], [-0.978065, 47.37771, 13.89], [-0.978217, 47.377684, 13.95], [-0.97838, 47.377661, 14.01], [-0.978544, 47.377641, 14.08], [-0.978708, 47.377618, 14.12], [-0.978879, 47.377606, 14.13], [-0.979038, 47.377577, 14.13], [-0.979183, 47.377553, 14.13], [-0.979323, 47.377524, 14.13], [-0.979466, 47.377514, 14.14], [-0.979646, 47.377471, 14.14], [-0.979789, 47.377451, 14.14], [-0.979927, 47.377418, 14.14], [-0.980056, 47.377393, 14.15], [-0.980195, 47.377361, 14.15], [-0.980357, 47.377328, 14.15], [-0.980521, 47.377294, 14.15], [-0.980694, 47.377266, 14.16], [-0.980865, 47.377235, 14.16], [-0.981039, 47.377199, 14.16], [-0.981215, 47.377176, 14.17], [-0.98138, 47.377153, 14.11], [-0.98155, 47.377136, 14.05], [-0.981714, 47.377114, 13.98], [-0.981892, 47.377102, 13.92], [-0.982067, 47.377089, 13.85], [-0.982242, 47.377075, 13.79], [-0.982428, 47.377055, 13.72], [-0.982606, 47.377042, 13.65], [-0.982782, 47.377032, 13.58], [-0.982969, 47.377044, 13.51], [-0.983147, 47.377053, 13.45], [-0.983314, 47.377056, 13.39], [-0.983485, 47.377089, 13.32], [-0.98366, 47.377086, 13.25], [-0.983844, 47.377065, 13.18], [-0.984021, 47.377057, 13.18], [-0.984196, 47.377053, 13.18], [-0.98437, 47.377054, 13.18], [-0.984555, 47.377059, 13.18], [-0.984734, 47.37708, 13.18], [-0.984906, 47.377101, 13.18], [-0.985058, 47.37712, 13.18], [-0.985191, 47.377148, 13.18], [-0.985326, 47.377152, 13.18], [-0.98551, 47.377164, 13.18], [-0.985649, 47.377176, 13.18], [-0.985807, 47.377192, 13.18], [-0.985969, 47.377203, 13.18], [-0.986111, 47.377218, 13.18], [-0.986299, 47.37723, 13.18], [-0.986494, 47.377259, 13.18], [-0.986642, 47.377286, 13.22], [-0.986807, 47.377299, 13.26], [-0.986964, 47.377329, 13.3], [-0.987109, 47.37736, 13.34], [-0.987266, 47.377376, 13.38], [-0.987428, 47.377393, 13.42], [-0.987592, 47.377409, 13.46], [-0.987768, 47.377428, 13.51], [-0.987944, 47.37743, 13.55], [-0.988097, 47.377442, 13.59], [-0.988248, 47.377458, 13.63], [-0.988403, 47.377464, 13.66], [-0.988537, 47.377476, 13.7], [-0.988723, 47.377507, 13.75], [-0.988897, 47.377434, 13.8], [-0.98902, 47.377372, 13.83], [-0.989185, 47.377401, 13.85], [-0.989337, 47.377451, 13.85], [-0.989498, 47.377462, 13.85], [-0.989667, 47.377463, 13.86], [-0.989846, 47.37743, 13.86], [-0.990023, 47.377403, 13.86], [-0.9902, 47.377388, 13.87], [-0.990377, 47.377365, 13.87], [-0.990554, 47.377337, 13.88], [-0.990731, 47.377311, 13.88], [-0.990912, 47.377293, 13.88], [-0.991097, 47.377289, 13.89], [-0.991279, 47.377288, 13.89], [-0.991461, 47.377309, 13.89], [-0.991643, 47.377289, 13.9], [-0.991819, 47.377297, 13.9], [-0.991996, 47.377296, 13.91], [-0.992172, 47.377287, 13.91], [-0.992345, 47.377283, 13.91], [-0.992522, 47.377266, 13.91], [-0.992714, 47.377254, 13.92], [-0.9929, 47.377257, 13.92], [-0.993074, 47.377234, 13.93], [-0.993252, 47.377216, 13.93], [-0.993435, 47.377194, 13.93], [-0.993613, 47.377171, 13.94], [-0.993788, 47.377146, 13.94], [-0.993972, 47.377128, 13.94], [-0.994153, 47.37711, 13.95], [-0.994329, 47.377096, 13.96], [-0.994507, 47.377067, 13.98], [-0.994687, 47.37706, 14.01], [-0.994875, 47.377056, 14.04], [-0.99505, 47.377056, 14.07], [-0.995207, 47.377052, 14.1], [-0.99536, 47.377047, 14.12], [-0.995495, 47.377043, 14.15], [-0.995677, 47.377025, 14.18], [-0.995809, 47.377011, 14.2], [-0.996, 47.376989, 14.23], [-0.996204, 47.376963, 14.26], [-0.996343, 47.376924, 14.29], [-0.996487, 47.376883, 14.31], [-0.996642, 47.376836, 14.34], [-0.996797, 47.376787, 14.37], [-0.99696, 47.376741, 14.37], [-0.997128, 47.376691, 14.36], [-0.997296, 47.376641, 14.34], [-0.997453, 47.376592, 14.32], [-0.997592, 47.376537, 14.31], [-0.99775, 47.376502, 14.3], [-0.997869, 47.376438, 14.28], [-0.998012, 47.376414, 14.27], [-0.998146, 47.376351, 14.26], [-0.998292, 47.376329, 14.24], [-0.9984, 47.376276, 14.23], [-0.99852, 47.376236, 14.22], [-0.9987, 47.376194, 14.2], [-0.998839, 47.376154, 14.19], [-0.99898, 47.37609, 14.17], [-0.999125, 47.376031, 14.16], [-0.999284, 47.375967, 14.13], [-0.99945, 47.375915, 14.08], [-0.999603, 47.375854, 14.03], [-0.999749, 47.375785, 13.98], [-0.999905, 47.375726, 13.93], [-1.000043, 47.375659, 13.89], [-1.000156, 47.375581, 13.84], [-1.000284, 47.375523, 13.8], [-1.000428, 47.375466, 13.75], [-1.000565, 47.375403, 13.71], [-1.000709, 47.375338, 13.66], [-1.00085, 47.375275, 13.61], [-1.000981, 47.375212, 13.57], [-1.001112, 47.375161, 13.53], [-1.001241, 47.375116, 13.49], [-1.001346, 47.375053, 13.45], [-1.001492, 47.374996, 13.41], [-1.001649, 47.374931, 13.41], [-1.001775, 47.374855, 13.4], [-1.001902, 47.374789, 13.39], [-1.002031, 47.374719, 13.39], [-1.002151, 47.374645, 13.38], [-1.002313, 47.374587, 13.38], [-1.002469, 47.374526, 13.37], [-1.002637, 47.374487, 13.36], [-1.002809, 47.374453, 13.36], [-1.002974, 47.374414, 13.35], [-1.003138, 47.374372, 13.35], [-1.003304, 47.37433, 13.34], [-1.003478, 47.374292, 13.33], [-1.003632, 47.374245, 13.33], [-1.003777, 47.37421, 13.32], [-1.003911, 47.374182, 13.33], [-1.004082, 47.37414, 13.35], [-1.004245, 47.374121, 13.36], [-1.004429, 47.37407, 13.38], [-1.004566, 47.374038, 13.39], [-1.004702, 47.374002, 13.41], [-1.004828, 47.373974, 13.42], [-1.005021, 47.373918, 13.44], [-1.005168, 47.373895, 13.45], [-1.005317, 47.373865, 13.46], [-1.005453, 47.373838, 13.47], [-1.005588, 47.373795, 13.49], [-1.005739, 47.373767, 13.5], [-1.005894, 47.37372, 13.52], [-1.006044, 47.373684, 13.53], [-1.006181, 47.373648, 13.54], [-1.00631, 47.373606, 13.55], [-1.006453, 47.37357, 13.52], [-1.006609, 47.373543, 13.48], [-1.006763, 47.373514, 13.45], [-1.006899, 47.373492, 13.42], [-1.007025, 47.373434, 13.38], [-1.007175, 47.3734, 13.35], [-1.007337, 47.373369, 13.31], [-1.007494, 47.373325, 13.27], [-1.00766, 47.373286, 13.23], [-1.007821, 47.373251, 13.2], [-1.00797, 47.373208, 13.16], [-1.008118, 47.373175, 13.13], [-1.008251, 47.373152, 13.1], [-1.008375, 47.373109, 13.07], [-1.008509, 47.373087, 13.04], [-1.00867, 47.373048, 13.0], [-1.008807, 47.373009, 12.97], [-1.008929, 47.372971, 12.96], [-1.009058, 47.372943, 12.96], [-1.009196, 47.37292, 12.95], [-1.00932, 47.372882, 12.94], [-1.009495, 47.372836, 12.93], [-1.009622, 47.372803, 12.93], [-1.009751, 47.37277, 12.92], [-1.009917, 47.372706, 12.91], [-1.010103, 47.372682, 12.9], [-1.010274, 47.372633, 12.89], [-1.010429, 47.372588, 12.88], [-1.010584, 47.372539, 12.87], [-1.010738, 47.372498, 12.87], [-1.010882, 47.372458, 12.86], [-1.011043, 47.372414, 12.85], [-1.011216, 47.372367, 12.84], [-1.011349, 47.372334, 12.86], [-1.011504, 47.372318, 12.89], [-1.011663, 47.372284, 12.92], [-1.011809, 47.372255, 12.95], [-1.011939, 47.372228, 12.97], [-1.012118, 47.372213, 13.01], [-1.012247, 47.372178, 13.03], [-1.012435, 47.372135, 13.07], [-1.012609, 47.372115, 13.1], [-1.01277, 47.372093, 13.14], [-1.01293, 47.372077, 13.17], [-1.013056, 47.372038, 13.19], [-1.013246, 47.372029, 13.23], [-1.013392, 47.371982, 13.26], [-1.013536, 47.371967, 13.29], [-1.013694, 47.371929, 13.32], [-1.013875, 47.371903, 13.38], [-1.014039, 47.371866, 13.47], [-1.014207, 47.371842, 13.57], [-1.01438, 47.371831, 13.66], [-1.014527, 47.371811, 13.75], [-1.014687, 47.371803, 13.84], [-1.014821, 47.371757, 13.92], [-1.015054, 47.371746, 14.05], [-1.015187, 47.371735, 14.12], [-1.01533, 47.371715, 14.2], [-1.01549, 47.371675, 14.3], [-1.015636, 47.371655, 14.38], [-1.015767, 47.371603, 14.46], [-1.015901, 47.371594, 14.54], [-1.016051, 47.371538, 14.63], [-1.016202, 47.371507, 14.72], [-1.01635, 47.371455, 14.82], [-1.016508, 47.371411, 15.1], [-1.01666, 47.371397, 15.35], [-1.016742, 47.371297, 15.63], [-1.016644, 47.371183, 15.95], [-1.0166, 47.371094, 16.18], [-1.016548, 47.370997, 16.43], [-1.016467, 47.370898, 16.71], [-1.016421, 47.37079, 16.98], [-1.016363, 47.370694, 17.23], [-1.016307, 47.370592, 17.5], [-1.016237, 47.370493, 17.76], [-1.016187, 47.370391, 18.02], [-1.01612, 47.370292, 18.29], [-1.016059, 47.370192, 18.55], [-1.015999, 47.370093, 18.81], [-1.015942, 47.369991, 19.08], [-1.015869, 47.36989, 19.22], [-1.015807, 47.369783, 19.29], [-1.015744, 47.369676, 19.37], [-1.015687, 47.369574, 19.43], [-1.015624, 47.369474, 19.5], [-1.015555, 47.369361, 19.58], [-1.015484, 47.369245, 19.65], [-1.015413, 47.369136, 19.73], [-1.015348, 47.369022, 19.8], [-1.015274, 47.368908, 19.88], [-1.015206, 47.36879, 19.96], [-1.015133, 47.368673, 20.04], [-1.015055, 47.368555, 20.11], [-1.014989, 47.368434, 20.19], [-1.014912, 47.368319, 20.27], [-1.014842, 47.368204, 20.09], [-1.014783, 47.368096, 19.84], [-1.014719, 47.367995, 19.61], [-1.014666, 47.3679, 19.39], [-1.014603, 47.367816, 19.19], [-1.014612, 47.36769, 18.92], [-1.014727, 47.367534, 18.55], [-1.014718, 47.367427, 18.33], [-1.014674, 47.367318, 18.09], [-1.014664, 47.367206, 17.85], [-1.014689, 47.367087, 17.59], [-1.014683, 47.366985, 17.38], [-1.014582, 47.366903, 17.15], [-1.014467, 47.366828, 16.92], [-1.014315, 47.366824, 16.7], [-1.014155, 47.366809, 16.47], [-1.013992, 47.366859, 16.47], [-1.01385, 47.366891, 16.47], [-1.013685, 47.366921, 16.47], [-1.013521, 47.366966, 16.47], [-1.013359, 47.367011, 16.47], [-1.013206, 47.367056, 16.47], [-1.013061, 47.367096, 16.47], [-1.012925, 47.367137, 16.47], [-1.012799, 47.367176, 16.47], [-1.012623, 47.367227, 16.47], [-1.012458, 47.367251, 16.47], [-1.012304, 47.367297, 16.47], [-1.012154, 47.367308, 16.47]]}, "properties": {"name": "🚲 Loire à Vélo 2026 - Étape 2 - Béhuard ➡️ Saint-Florent-le-Vieil", "source_file": "acte-3_etape-2_behuard_st-florent-le-vieil.gpx", "point_count": 2990, "distance_km": 37.7, "duration_s": 22815, "elevation_gain_m": 97.4, "elevation_loss_m": 100.3}}]}
