{"type": "FeatureCollection", "features": [{"type": "Feature", "geometry": {"type": "LineString", "coordinates": [[-0.55697, 47.466415, 44.43], [-0.556987, 47.466403, 44.43], [-0.557069, 47.466457, 44.43], [-0.557035, 47.466493, 44.43], [-0.557032, 47.466536, 44.43], [-0.557056, 47.46657, 44.43], [-0.557099, 47.466592, 44.43], [-0.557161, 47.4666, 44.43], [-0.557299, 47.466661, 44.43], [-0.557375, 47.466679, 44.43], [-0.558989, 47.467839, 42.51], [-0.558979, 47.468028, 42.2], [-0.558944, 47.468193, 41.92], [-0.558571, 47.468643, 40.77], [-0.558516, 47.46871, 40.55], [-0.55862, 47.468741, 40.32], [-0.558666, 47.468729, 40.23], [-0.558696, 47.46873, 40.17], [-0.558788, 47.468762, 39.96], [-0.56041, 47.4694, 36.25], [-0.560442, 47.469436, 36.04], [-0.560553, 47.46948, 35.36], [-0.560635, 47.469487, 34.92], [-0.560847, 47.469573, 33.6], [-0.561166, 47.469737, 31.48], [-0.561602, 47.469933, 28.7], [-0.56167, 47.469982, 28.17], [-0.561861, 47.470022, 27.11], [-0.561927, 47.469976, 26.6], [-0.562212, 47.470076, 24.9], [-0.562416, 47.470167, 23.6], [-0.562481, 47.470193, 23.2], [-0.562536, 47.470226, 22.81], [-0.562635, 47.470253, 22.24], [-0.564394, 47.470932, 22.83], [-0.564479, 47.470973, 22.87], [-0.564479, 47.470973, 22.87], [-0.564479, 47.470973, 22.87], [-0.564519, 47.471015, 22.9], [-0.564543, 47.47101, 22.91], [-0.56468, 47.471058, 22.97], [-0.564799, 47.471107, 23.02], [-0.564809, 47.471095, 23.03], [-0.564906, 47.470988, 23.05], [-0.564855, 47.470967, 22.98], [-0.56485, 47.47092, 22.9], [-0.564851, 47.470903, 22.87], [-0.565048, 47.470885, 22.63], [-0.565194, 47.470852, 22.45], [-0.565261, 47.470829, 22.36], [-0.565778, 47.470538, 21.56], [-0.566135, 47.470294, 20.96], [-0.566436, 47.470117, 20.49], [-0.566757, 47.469982, 20.04], [-0.566942, 47.469931, 19.88], [-0.567274, 47.469866, 19.7], [-0.567458, 47.469847, 19.61], [-0.567705, 47.46984, 19.48], [-0.567847, 47.469845, 19.41], [-0.56803, 47.469862, 19.31], [-0.568269, 47.4699, 19.19], [-0.568703, 47.469994, 18.95], [-0.568992, 47.470069, 18.79], [-0.569127, 47.469962, 18.69], [-0.569216, 47.470013, 18.63], [-0.569127, 47.469962, 18.56], [-0.570196, 47.469109, 16.25], [-0.571217, 47.468329, 14.94], [-0.572952, 47.467243, 15.55], [-0.573164, 47.467096, 15.85], [-0.573443, 47.466868, 16.29], [-0.574075, 47.466331, 17.29], [-0.574353, 47.466082, 17.75], [-0.574678, 47.465813, 17.93], [-0.574683, 47.465817, 17.93], [-0.574643, 47.465694, 17.93], [-0.574617, 47.465601, 17.92], [-0.574632, 47.465498, 17.92], [-0.574674, 47.465395, 17.91], [-0.574773, 47.46532, 17.9], [-0.574852, 47.46523, 17.9], [-0.574985, 47.465157, 17.89], [-0.575094, 47.465068, 17.88], [-0.575191, 47.464971, 17.88], [-0.575265, 47.464895, 17.87], [-0.575324, 47.464809, 17.87], [-0.575441, 47.464733, 17.86], [-0.57553, 47.46465, 17.85], [-0.575645, 47.464551, 17.85], [-0.575746, 47.464454, 17.85], [-0.575834, 47.464334, 17.88], [-0.575892, 47.464252, 17.89], [-0.575997, 47.464146, 17.91], [-0.576248, 47.463822, 17.98], [-0.576344, 47.463719, 18.0], [-0.576427, 47.463604, 18.02], [-0.576507, 47.4635, 18.04], [-0.576584, 47.463399, 18.06], [-0.576667, 47.463308, 18.08], [-0.576732, 47.463204, 18.1], [-0.576796, 47.463097, 18.12], [-0.576875, 47.462985, 18.15], [-0.576958, 47.46286, 18.16], [-0.577005, 47.462768, 18.17], [-0.577061, 47.462667, 18.17], [-0.577098, 47.462555, 18.17], [-0.577146, 47.462471, 18.17], [-0.577207, 47.462389, 18.18], [-0.577238, 47.462299, 18.18], [-0.577303, 47.462167, 18.18], [-0.577358, 47.462071, 18.19], [-0.577396, 47.461974, 18.19], [-0.577451, 47.461867, 18.19], [-0.577505, 47.461759, 18.19], [-0.577537, 47.461653, 18.2], [-0.577582, 47.461557, 18.2], [-0.577633, 47.461447, 18.2], [-0.577676, 47.461334, 18.21], [-0.577732, 47.461235, 18.21], [-0.57778, 47.461138, 18.19], [-0.577827, 47.461032, 18.16], [-0.577881, 47.460928, 18.14], [-0.577926, 47.460829, 18.11], [-0.577979, 47.460735, 18.08], [-0.578025, 47.460633, 18.05], [-0.578082, 47.460532, 18.02], [-0.578141, 47.460428, 17.99], [-0.578187, 47.460324, 17.96], [-0.578299, 47.460194, 17.92], [-0.578349, 47.46011, 17.9], [-0.578428, 47.459994, 17.86], [-0.578516, 47.459894, 17.83], [-0.578577, 47.459802, 17.8], [-0.578622, 47.459717, 17.78], [-0.578656, 47.459628, 17.75], [-0.57873, 47.459541, 17.73], [-0.578808, 47.459439, 17.72], [-0.578879, 47.459337, 17.71], [-0.578951, 47.45923, 17.7], [-0.579012, 47.459134, 17.7], [-0.579071, 47.459039, 17.69], [-0.579146, 47.458942, 17.69], [-0.57921, 47.458848, 17.68], [-0.579289, 47.458732, 17.67], [-0.579351, 47.458642, 17.67], [-0.579419, 47.458545, 17.66], [-0.579507, 47.458428, 17.65], [-0.579567, 47.458331, 17.65], [-0.579643, 47.458228, 17.64], [-0.579712, 47.458122, 17.63], [-0.579797, 47.458001, 17.62], [-0.579861, 47.457919, 17.62], [-0.579942, 47.457809, 17.66], [-0.580028, 47.457693, 17.7], [-0.5801, 47.457587, 17.75], [-0.580167, 47.45748, 17.79], [-0.580233, 47.45737, 17.83], [-0.580306, 47.457274, 17.87], [-0.580369, 47.457185, 17.91], [-0.580436, 47.457101, 17.94], [-0.580513, 47.457007, 17.98], [-0.580581, 47.4569, 18.02], [-0.580632, 47.45681, 18.06], [-0.580698, 47.456699, 18.1], [-0.580774, 47.456616, 18.14], [-0.580859, 47.456492, 18.19], [-0.58095, 47.456372, 18.23], [-0.581041, 47.456266, 18.27], [-0.581123, 47.456194, 18.28], [-0.581189, 47.456104, 18.29], [-0.581275, 47.456023, 18.3], [-0.581352, 47.455944, 18.31], [-0.581443, 47.455839, 18.32], [-0.581539, 47.45574, 18.33], [-0.581643, 47.455632, 18.35], [-0.581721, 47.455558, 18.36], [-0.581802, 47.455483, 18.36], [-0.581883, 47.455405, 18.37], [-0.581974, 47.455329, 18.38], [-0.582095, 47.455224, 18.4], [-0.582197, 47.455144, 18.41], [-0.582293, 47.455058, 18.42], [-0.582384, 47.454983, 18.43], [-0.582492, 47.454919, 18.44], [-0.582595, 47.454852, 18.45], [-0.582696, 47.454783, 18.43], [-0.58281, 47.454719, 18.41], [-0.582934, 47.454623, 18.38], [-0.583032, 47.454561, 18.36], [-0.583174, 47.45448, 18.33], [-0.583314, 47.454395, 18.3], [-0.583436, 47.45432, 18.28], [-0.583586, 47.454247, 18.25], [-0.583692, 47.45419, 18.23], [-0.583809, 47.454118, 18.21], [-0.583924, 47.454072, 18.19], [-0.584042, 47.454006, 18.17], [-0.584151, 47.453947, 18.15], [-0.584267, 47.453896, 18.13], [-0.58438, 47.453839, 18.11], [-0.584487, 47.453783, 18.09], [-0.584605, 47.453724, 18.07], [-0.584718, 47.453666, 18.06], [-0.584829, 47.453613, 18.05], [-0.58499, 47.453539, 18.05], [-0.585144, 47.453456, 18.04], [-0.58528, 47.453391, 18.03], [-0.585403, 47.453335, 18.03], [-0.58554, 47.453262, 18.02], [-0.585679, 47.453196, 18.02], [-0.585806, 47.453136, 18.01], [-0.585923, 47.45307, 18.01], [-0.586046, 47.453015, 18.0], [-0.586183, 47.452965, 18.0], [-0.586582, 47.452817, 17.98], [-0.586696, 47.452761, 17.98], [-0.586838, 47.452717, 17.97], [-0.586962, 47.452681, 17.99], [-0.587238, 47.452566, 18.03], [-0.587399, 47.45252, 18.05], [-0.587535, 47.45247, 18.07], [-0.587685, 47.452418, 18.09], [-0.58782, 47.452359, 18.11], [-0.58798, 47.452298, 18.14], [-0.588136, 47.452239, 18.16], [-0.588299, 47.452184, 18.18], [-0.588443, 47.45213, 18.21], [-0.588566, 47.452076, 18.23], [-0.588703, 47.452032, 18.25], [-0.588863, 47.451962, 18.27], [-0.588979, 47.45191, 18.29], [-0.589148, 47.451846, 18.31], [-0.589313, 47.451796, 18.31], [-0.589473, 47.451735, 18.29], [-0.589615, 47.451695, 18.28], [-0.589763, 47.451639, 18.26], [-0.589918, 47.451587, 18.25], [-0.590076, 47.451529, 18.23], [-0.590192, 47.451485, 18.22], [-0.590348, 47.451429, 18.21], [-0.590507, 47.451371, 18.19], [-0.590672, 47.451309, 18.18], [-0.590795, 47.451241, 18.16], [-0.59093, 47.451176, 18.15], [-0.591097, 47.451102, 18.13], [-0.591238, 47.451037, 18.12], [-0.591373, 47.450962, 18.1], [-0.591495, 47.450916, 18.09], [-0.591611, 47.450859, 18.09], [-0.591733, 47.450797, 18.09], [-0.591868, 47.450739, 18.08], [-0.591993, 47.450666, 18.08], [-0.592123, 47.450613, 18.07], [-0.592231, 47.450552, 18.07], [-0.592405, 47.450475, 18.07], [-0.592516, 47.450415, 18.06], [-0.592619, 47.450358, 18.06], [-0.592771, 47.450289, 18.05], [-0.59288, 47.450225, 18.05], [-0.593008, 47.450161, 18.05], [-0.59313, 47.450105, 18.04], [-0.593578, 47.449891, 18.03], [-0.593737, 47.449821, 18.09], [-0.593879, 47.449762, 18.16], [-0.594001, 47.449686, 18.24], [-0.594119, 47.44962, 18.3], [-0.594232, 47.449564, 18.36], [-0.59435, 47.44947, 18.44], [-0.594476, 47.449394, 18.51], [-0.594588, 47.449283, 18.6], [-0.594707, 47.44918, 18.68], [-0.594773, 47.449093, 18.75], [-0.594836, 47.449006, 18.81], [-0.594907, 47.448889, 18.89], [-0.594972, 47.448767, 18.97], [-0.595038, 47.448674, 19.04], [-0.595062, 47.448558, 19.11], [-0.595106, 47.448447, 19.18], [-0.595146, 47.448332, 19.2], [-0.595185, 47.448216, 19.23], [-0.595235, 47.448095, 19.25], [-0.595295, 47.447976, 19.28], [-0.595346, 47.447862, 19.3], [-0.595379, 47.447749, 19.32], [-0.595413, 47.447633, 19.35], [-0.595474, 47.447523, 19.37], [-0.595507, 47.447401, 19.39], [-0.595546, 47.447289, 19.42], [-0.595586, 47.447178, 19.44], [-0.595625, 47.447063, 19.46], [-0.595661, 47.446951, 19.49], [-0.595696, 47.44684, 19.51], [-0.595742, 47.446728, 19.53], [-0.595782, 47.446618, 19.45], [-0.595832, 47.446501, 19.36], [-0.595867, 47.446386, 19.27], [-0.595912, 47.446272, 19.18], [-0.595974, 47.446163, 19.08], [-0.596037, 47.446056, 18.99], [-0.59611, 47.44596, 18.91], [-0.59618, 47.445845, 18.81], [-0.596242, 47.44574, 18.72], [-0.596297, 47.445637, 18.64], [-0.596356, 47.445532, 18.55], [-0.596449, 47.445434, 18.46], [-0.596538, 47.445338, 18.37], [-0.596608, 47.445234, 18.28], [-0.596714, 47.44514, 18.19], [-0.596787, 47.445048, 18.11], [-0.59685, 47.444959, 18.03], [-0.596904, 47.444876, 17.96], [-0.596991, 47.444769, 17.86], [-0.597056, 47.444678, 17.78], [-0.597091, 47.444548, 17.68], [-0.597131, 47.444457, 17.6], [-0.597295, 47.44439, 17.5], [-0.597371, 47.444285, 17.41], [-0.597443, 47.44418, 17.32], [-0.597544, 47.444068, 17.22], [-0.597638, 47.443962, 17.12], [-0.597724, 47.443861, 17.03], [-0.597805, 47.44378, 16.95], [-0.597869, 47.443693, 16.87], [-0.597955, 47.443624, 16.8], [-0.598042, 47.443512, 16.71], [-0.598141, 47.443419, 16.65], [-0.598235, 47.443343, 16.61], [-0.598333, 47.443252, 16.55], [-0.59842, 47.443145, 16.5], [-0.598514, 47.443038, 16.44], [-0.598592, 47.442933, 16.38], [-0.598703, 47.442845, 16.33], [-0.598801, 47.442758, 16.27], [-0.59886, 47.442667, 16.23], [-0.598973, 47.442563, 16.17], [-0.599054, 47.442475, 16.12], [-0.599145, 47.442381, 16.06], [-0.599219, 47.442286, 16.01], [-0.599313, 47.442191, 15.96], [-0.599415, 47.442095, 15.9], [-0.599506, 47.441995, 15.87], [-0.599597, 47.441893, 15.9], [-0.599693, 47.441792, 15.92], [-0.599778, 47.441694, 15.95], [-0.599897, 47.4416, 15.97], [-0.599989, 47.441492, 16.0], [-0.600076, 47.441388, 16.03], [-0.60017, 47.441305, 16.05], [-0.600271, 47.441206, 16.08], [-0.600343, 47.441116, 16.1], [-0.600437, 47.441023, 16.13], [-0.600537, 47.440923, 16.15], [-0.600643, 47.44082, 16.18], [-0.600727, 47.440723, 16.2], [-0.600835, 47.44062, 16.23], [-0.600929, 47.44051, 16.26], [-0.601022, 47.440402, 16.27], [-0.601123, 47.440301, 16.28], [-0.601203, 47.440189, 16.29], [-0.601301, 47.440088, 16.31], [-0.601395, 47.439991, 16.32], [-0.601484, 47.439886, 16.33], [-0.601561, 47.439794, 16.34], [-0.60162, 47.439712, 16.35], [-0.60168, 47.43963, 16.36], [-0.601756, 47.439546, 16.37], [-0.601831, 47.439467, 16.37], [-0.6019, 47.439358, 16.39], [-0.60195, 47.439255, 16.4], [-0.602055, 47.439153, 16.41], [-0.602133, 47.439051, 16.42], [-0.6022, 47.438953, 16.43], [-0.602273, 47.438855, 16.49], [-0.602344, 47.438737, 16.56], [-0.602436, 47.438638, 16.63], [-0.602501, 47.43853, 16.69], [-0.602589, 47.438422, 16.76], [-0.602663, 47.438314, 16.83], [-0.602741, 47.438208, 16.9], [-0.602825, 47.43811, 16.97], [-0.602905, 47.438007, 17.03], [-0.602984, 47.4379, 17.1], [-0.603054, 47.437797, 17.17], [-0.603135, 47.437698, 17.23], [-0.603214, 47.437588, 17.3], [-0.603292, 47.437479, 17.37], [-0.603381, 47.437372, 17.44], [-0.603455, 47.437262, 17.57], [-0.603532, 47.437167, 17.72], [-0.603624, 47.437065, 17.88], [-0.603692, 47.436967, 18.02], [-0.60377, 47.436854, 18.19], [-0.603837, 47.436746, 18.34], [-0.603885, 47.436636, 18.5], [-0.603898, 47.436514, 18.66], [-0.603938, 47.436406, 18.81], [-0.603935, 47.436291, 18.96], [-0.603957, 47.436176, 19.11], [-0.604047, 47.436081, 19.26], [-0.604149, 47.435973, 19.43], [-0.604204, 47.435845, 19.61], [-0.604302, 47.435727, 19.79], [-0.604398, 47.435626, 19.84], [-0.604476, 47.435536, 19.83], [-0.604541, 47.435456, 19.82], [-0.604604, 47.435368, 19.81], [-0.604636, 47.435274, 19.79], [-0.60465, 47.435177, 19.78], [-0.604665, 47.435076, 19.77], [-0.604684, 47.434965, 19.75], [-0.604743, 47.434852, 19.74], [-0.604812, 47.434736, 19.72], [-0.604882, 47.434618, 19.7], [-0.604935, 47.434522, 19.69], [-0.60499, 47.434416, 19.68], [-0.605057, 47.434326, 19.66], [-0.605139, 47.434244, 19.65], [-0.605138, 47.43413, 19.64], [-0.605135, 47.434016, 19.62], [-0.605142, 47.433907, 19.59], [-0.605077, 47.433798, 19.56], [-0.605073, 47.433702, 19.54], [-0.60506, 47.433599, 19.51], [-0.605058, 47.433486, 19.48], [-0.60506, 47.433357, 19.45], [-0.605059, 47.433237, 19.42], [-0.60507, 47.433121, 19.39], [-0.605061, 47.433004, 19.36], [-0.605062, 47.432877, 19.32], [-0.605058, 47.432758, 19.29], [-0.605045, 47.432649, 19.26], [-0.605048, 47.432552, 19.24], [-0.604995, 47.432457, 19.21], [-0.604965, 47.43235, 19.18], [-0.604923, 47.432244, 19.16], [-0.604892, 47.43213, 19.13], [-0.60486, 47.432022, 19.1], [-0.604851, 47.431908, 19.08], [-0.604874, 47.431818, 19.06], [-0.604881, 47.431674, 19.02], [-0.60493, 47.431565, 19.0], [-0.604913, 47.431469, 18.98], [-0.604933, 47.431361, 18.95], [-0.604954, 47.431246, 18.92], [-0.60498, 47.431141, 18.9], [-0.604994, 47.431043, 18.88], [-0.605001, 47.430907, 18.85], [-0.605038, 47.430793, 18.82], [-0.605056, 47.430672, 18.79], [-0.605087, 47.430563, 18.77], [-0.605102, 47.430445, 18.74], [-0.605114, 47.430329, 18.75], [-0.60512, 47.430206, 18.75], [-0.605121, 47.430091, 18.75], [-0.605125, 47.429976, 18.76], [-0.605112, 47.429856, 18.76], [-0.605101, 47.429728, 18.77], [-0.605095, 47.429603, 18.77], [-0.605067, 47.429481, 18.77], [-0.605044, 47.429362, 18.78], [-0.605009, 47.429243, 18.78], [-0.604988, 47.429134, 18.78], [-0.604939, 47.429017, 18.79], [-0.60492, 47.428906, 18.79], [-0.604893, 47.428814, 18.8], [-0.604845, 47.428684, 18.8], [-0.604783, 47.428571, 18.79], [-0.604754, 47.428447, 18.78], [-0.604703, 47.428323, 18.77], [-0.604672, 47.428215, 18.76], [-0.604622, 47.428102, 18.75], [-0.604581, 47.428001, 18.74], [-0.604548, 47.427882, 18.72], [-0.604569, 47.42776, 18.71], [-0.604604, 47.427668, 18.7], [-0.604593, 47.427532, 18.69], [-0.604585, 47.427399, 18.68], [-0.604598, 47.427299, 18.67], [-0.604592, 47.427197, 18.66], [-0.604592, 47.427082, 18.65], [-0.604593, 47.426985, 18.64], [-0.604608, 47.426889, 18.63], [-0.604597, 47.42676, 18.57], [-0.604609, 47.426657, 18.52], [-0.604605, 47.426552, 18.48], [-0.604613, 47.426453, 18.43], [-0.604673, 47.426352, 18.38], [-0.604674, 47.426248, 18.34], [-0.604678, 47.426151, 18.3], [-0.604684, 47.426034, 18.24], [-0.604689, 47.425939, 18.2], [-0.60466, 47.425845, 18.16], [-0.604612, 47.425758, 18.12], [-0.604645, 47.425627, 18.06], [-0.604666, 47.425524, 18.01], [-0.604749, 47.425431, 17.96], [-0.604803, 47.425331, 17.92], [-0.604874, 47.425245, 17.87], [-0.604931, 47.425134, 17.83], [-0.604989, 47.425018, 17.83], [-0.605029, 47.424916, 17.83], [-0.605104, 47.424807, 17.82], [-0.605149, 47.42469, 17.82], [-0.605194, 47.424554, 17.82], [-0.605255, 47.42442, 17.81], [-0.605286, 47.424332, 17.81], [-0.605337, 47.424214, 17.81], [-0.605366, 47.424105, 17.8], [-0.605397, 47.423983, 17.8], [-0.605405, 47.423886, 17.79], [-0.605456, 47.423792, 17.79], [-0.605508, 47.423692, 17.79], [-0.605569, 47.423591, 17.79], [-0.605636, 47.423482, 17.78], [-0.605717, 47.423369, 17.79], [-0.605794, 47.423269, 17.81], [-0.605886, 47.423187, 17.82], [-0.605991, 47.423124, 17.84], [-0.606104, 47.423052, 17.85], [-0.606215, 47.422989, 17.87], [-0.606299, 47.42291, 17.88], [-0.606376, 47.422813, 17.89], [-0.606496, 47.422735, 17.91], [-0.606616, 47.42267, 17.93], [-0.60671, 47.422586, 17.94], [-0.606843, 47.422558, 17.95], [-0.60694, 47.422478, 17.97], [-0.6071, 47.422301, 18.0], [-0.607226, 47.422225, 18.01], [-0.607309, 47.422144, 18.03], [-0.60744, 47.422087, 18.03], [-0.607547, 47.422017, 18.03], [-0.607676, 47.421939, 18.02], [-0.607827, 47.421863, 18.01], [-0.607981, 47.421787, 18.0], [-0.608098, 47.421739, 18.0], [-0.608177, 47.42166, 17.99], [-0.608417, 47.42158, 17.98], [-0.608563, 47.421507, 17.97], [-0.608714, 47.421415, 17.96], [-0.608839, 47.421325, 17.96], [-0.60894, 47.421264, 17.95], [-0.609062, 47.421195, 17.94], [-0.609174, 47.421115, 17.94], [-0.609269, 47.421019, 17.93], [-0.609295, 47.420916, 17.92], [-0.609309, 47.420817, 17.93], [-0.609386, 47.420699, 17.94], [-0.609475, 47.420594, 17.94], [-0.609554, 47.420487, 17.95], [-0.609619, 47.420405, 17.95], [-0.609664, 47.420311, 17.96], [-0.609723, 47.420181, 17.97], [-0.609774, 47.420079, 17.97], [-0.60981, 47.41997, 17.98], [-0.609866, 47.419853, 17.98], [-0.609926, 47.41974, 17.99], [-0.609987, 47.419623, 18.0], [-0.610067, 47.419509, 18.0], [-0.610128, 47.419392, 18.01], [-0.610203, 47.419283, 18.02], [-0.610279, 47.419175, 18.0], [-0.610346, 47.419062, 17.98], [-0.610428, 47.418964, 17.96], [-0.610516, 47.418858, 17.94], [-0.610588, 47.418745, 17.92], [-0.610683, 47.418642, 17.9], [-0.610795, 47.418537, 17.87], [-0.610878, 47.41843, 17.85], [-0.610971, 47.418325, 17.83], [-0.611059, 47.418215, 17.81], [-0.611159, 47.418109, 17.79], [-0.611246, 47.418005, 17.77], [-0.611338, 47.41791, 17.75], [-0.611409, 47.417821, 17.73], [-0.611639, 47.417697, 17.69], [-0.61175, 47.417636, 17.68], [-0.611865, 47.417556, 17.66], [-0.611962, 47.417453, 17.64], [-0.612078, 47.41735, 17.63], [-0.612182, 47.417246, 17.61], [-0.612302, 47.417165, 17.59], [-0.612392, 47.41708, 17.58], [-0.612495, 47.417007, 17.56], [-0.612585, 47.416931, 17.55], [-0.612678, 47.416863, 17.53], [-0.612786, 47.416758, 17.51], [-0.612912, 47.416678, 17.5], [-0.612982, 47.416598, 17.48], [-0.613076, 47.416532, 17.47], [-0.613164, 47.416443, 17.45], [-0.61325, 47.416361, 17.44], [-0.613333, 47.41628, 17.45], [-0.61344, 47.416173, 17.48], [-0.613542, 47.416105, 17.5], [-0.613604, 47.416, 17.52], [-0.613656, 47.415904, 17.54], [-0.613756, 47.415831, 17.56], [-0.613819, 47.415748, 17.58], [-0.613998, 47.415594, 17.62], [-0.61417, 47.415557, 17.65], [-0.614328, 47.415491, 17.68], [-0.614421, 47.41542, 17.7], [-0.614502, 47.415336, 17.72], [-0.614595, 47.415263, 17.74], [-0.61465, 47.415173, 17.76], [-0.614705, 47.415066, 17.78], [-0.614766, 47.414969, 17.8], [-0.614839, 47.414864, 17.84], [-0.614892, 47.414766, 17.87], [-0.614947, 47.41467, 17.9], [-0.614996, 47.414581, 17.93], [-0.615075, 47.414461, 17.97], [-0.615153, 47.414348, 18.01], [-0.615228, 47.414247, 18.05], [-0.615291, 47.414158, 18.08], [-0.615382, 47.414043, 18.12], [-0.615449, 47.41395, 18.15], [-0.615525, 47.413863, 18.18], [-0.615605, 47.413769, 18.22], [-0.615674, 47.413665, 18.25], [-0.615753, 47.413567, 18.29], [-0.615826, 47.413463, 18.32], [-0.615905, 47.413361, 18.36], [-0.615977, 47.413266, 18.37], [-0.616051, 47.413188, 18.36], [-0.61617, 47.413088, 18.34], [-0.616293, 47.413, 18.33], [-0.616405, 47.412896, 18.31], [-0.616496, 47.412784, 18.29], [-0.61653, 47.412667, 18.28], [-0.616558, 47.41256, 18.27], [-0.616596, 47.412456, 18.25], [-0.616634, 47.412334, 18.24], [-0.616643, 47.412201, 18.22], [-0.616686, 47.412089, 18.2], [-0.616722, 47.411984, 18.19], [-0.616774, 47.411891, 18.18], [-0.616785, 47.411776, 18.16], [-0.616849, 47.411661, 18.16], [-0.616889, 47.411553, 18.26], [-0.616924, 47.411451, 18.35], [-0.616972, 47.41136, 18.43], [-0.617013, 47.411266, 18.52], [-0.617052, 47.411132, 18.64], [-0.617087, 47.411014, 18.74], [-0.617128, 47.410897, 18.85], [-0.617174, 47.4108, 18.94], [-0.617221, 47.410709, 19.02], [-0.617275, 47.410625, 19.1], [-0.617252, 47.41052, 19.2], [-0.617291, 47.41043, 19.28], [-0.617326, 47.410243, 19.44], [-0.617358, 47.410153, 19.52], [-0.617362, 47.410036, 19.63], [-0.617423, 47.409939, 19.72], [-0.617471, 47.409853, 19.69], [-0.617528, 47.409752, 19.64], [-0.617567, 47.409636, 19.6], [-0.617629, 47.409551, 19.56], [-0.617679, 47.409453, 19.52], [-0.61774, 47.409348, 19.47], [-0.617843, 47.409282, 19.43], [-0.617962, 47.409208, 19.39], [-0.618074, 47.409149, 19.35], [-0.618183, 47.409063, 19.3], [-0.618223, 47.408955, 19.26], [-0.618232, 47.408851, 19.22], [-0.618294, 47.408768, 19.18], [-0.61835, 47.408673, 19.14], [-0.618386, 47.408563, 19.09], [-0.618432, 47.40847, 19.05], [-0.618302, 47.408449, 19.02], [-0.618157, 47.408403, 18.95], [-0.618191, 47.408289, 18.86], [-0.618336, 47.408199, 18.76], [-0.618396, 47.408109, 18.69], [-0.618446, 47.408025, 18.62], [-0.61856, 47.407926, 18.53], [-0.618687, 47.407834, 18.43], [-0.618802, 47.407747, 18.35], [-0.618908, 47.407643, 18.25], [-0.619014, 47.407568, 18.17], [-0.619109, 47.40749, 18.1], [-0.619208, 47.407417, 18.03], [-0.619334, 47.407326, 17.93], [-0.619432, 47.407263, 17.86], [-0.619538, 47.407175, 17.78], [-0.619638, 47.407084, 17.69], [-0.61977, 47.407023, 17.64], [-0.6199, 47.406942, 17.62], [-0.620022, 47.406852, 17.6], [-0.620131, 47.406774, 17.58], [-0.620222, 47.40669, 17.56], [-0.620342, 47.406593, 17.54], [-0.62045, 47.406482, 17.52], [-0.62058, 47.406412, 17.5], [-0.620681, 47.40633, 17.48], [-0.620794, 47.406214, 17.46], [-0.620842, 47.406118, 17.44], [-0.620988, 47.405946, 17.41], [-0.621064, 47.405844, 17.39], [-0.621128, 47.405749, 17.37], [-0.621197, 47.405668, 17.35], [-0.621258, 47.40556, 17.35], [-0.621344, 47.405453, 17.37], [-0.621411, 47.405359, 17.38], [-0.621477, 47.405266, 17.39], [-0.621561, 47.405161, 17.41], [-0.621675, 47.405083, 17.42], [-0.621795, 47.405024, 17.44], [-0.621852, 47.404907, 17.45], [-0.621928, 47.404806, 17.47], [-0.621978, 47.404712, 17.48], [-0.622079, 47.404617, 17.5], [-0.6222, 47.404527, 17.51], [-0.622322, 47.404435, 17.53], [-0.622409, 47.404363, 17.54], [-0.622546, 47.404405, 17.56], [-0.622746, 47.404206, 17.6], [-0.622843, 47.404094, 17.65], [-0.62291, 47.404008, 17.69], [-0.622984, 47.403917, 17.73], [-0.623065, 47.403821, 17.78], [-0.623164, 47.403726, 17.83], [-0.62324, 47.403616, 17.88], [-0.623341, 47.403514, 17.93], [-0.623432, 47.403409, 17.98], [-0.623519, 47.4033, 18.03], [-0.623611, 47.403199, 18.08], [-0.623691, 47.403106, 18.12], [-0.623761, 47.403019, 18.16], [-0.623831, 47.402924, 18.2], [-0.623876, 47.402812, 18.25], [-0.623952, 47.402705, 18.3], [-0.624001, 47.402589, 18.31], [-0.62406, 47.402485, 18.3], [-0.62411, 47.402388, 18.29], [-0.624162, 47.402296, 18.28], [-0.624231, 47.402171, 18.27], [-0.624282, 47.402076, 18.26], [-0.624351, 47.401977, 18.25], [-0.624425, 47.40187, 18.24], [-0.624489, 47.401757, 18.23], [-0.624554, 47.401644, 18.22], [-0.624627, 47.40153, 18.21], [-0.624696, 47.401419, 18.2], [-0.624768, 47.401309, 18.19], [-0.62484, 47.401201, 18.18], [-0.624908, 47.401088, 18.17], [-0.624981, 47.400983, 18.16], [-0.625047, 47.400882, 18.17], [-0.625106, 47.400787, 18.19], [-0.625178, 47.400692, 18.2], [-0.625215, 47.400575, 18.22], [-0.625285, 47.400461, 18.23], [-0.625353, 47.400352, 18.25], [-0.625414, 47.400239, 18.26], [-0.625479, 47.40013, 18.28], [-0.625536, 47.40002, 18.29], [-0.625609, 47.399909, 18.31], [-0.625659, 47.399793, 18.32], [-0.6257, 47.399682, 18.34], [-0.625741, 47.399579, 18.35], [-0.625799, 47.399482, 18.36], [-0.625855, 47.399396, 18.37], [-0.625926, 47.399303, 18.39], [-0.626012, 47.399203, 18.41], [-0.626115, 47.399099, 18.43], [-0.626208, 47.398992, 18.45], [-0.626326, 47.39891, 18.47], [-0.626428, 47.398824, 18.49], [-0.626479, 47.398722, 18.5], [-0.626588, 47.398627, 18.52], [-0.626739, 47.3986, 18.54], [-0.626861, 47.39856, 18.56], [-0.626925, 47.398473, 18.57], [-0.627031, 47.398368, 18.59], [-0.627094, 47.398288, 18.61], [-0.6272, 47.398184, 18.63], [-0.627265, 47.398096, 18.65], [-0.627346, 47.398, 18.66], [-0.627434, 47.397904, 18.68], [-0.627516, 47.397803, 18.63], [-0.627606, 47.397702, 18.58], [-0.627697, 47.397595, 18.53], [-0.62779, 47.397492, 18.49], [-0.627883, 47.397393, 18.44], [-0.627977, 47.397285, 18.39], [-0.62807, 47.397179, 18.34], [-0.628161, 47.397084, 18.29], [-0.628235, 47.396992, 18.25], [-0.628307, 47.396909, 18.21], [-0.628397, 47.396787, 18.15], [-0.628432, 47.396694, 18.11], [-0.628455, 47.396595, 18.07], [-0.628467, 47.396489, 18.03], [-0.628513, 47.396402, 17.99], [-0.628577, 47.396312, 17.95], [-0.628667, 47.396228, 17.93], [-0.628701, 47.396118, 17.9], [-0.62876, 47.396024, 17.88], [-0.628881, 47.395949, 17.85], [-0.628986, 47.395873, 17.83], [-0.629102, 47.395789, 17.8], [-0.629214, 47.395711, 17.77], [-0.629316, 47.395633, 17.75], [-0.6294, 47.395554, 17.73], [-0.629497, 47.395483, 17.71], [-0.62963, 47.395414, 17.68], [-0.629755, 47.395332, 17.65], [-0.629856, 47.395238, 17.62], [-0.62996, 47.395141, 17.6], [-0.630062, 47.395029, 17.57], [-0.630156, 47.394931, 17.54], [-0.630258, 47.394843, 17.52], [-0.630324, 47.394744, 17.51], [-0.630405, 47.394658, 17.5], [-0.630477, 47.394565, 17.49], [-0.630541, 47.394467, 17.48], [-0.630627, 47.394382, 17.47], [-0.630698, 47.394284, 17.46], [-0.630772, 47.394178, 17.45], [-0.630853, 47.394073, 17.44], [-0.630932, 47.393969, 17.43], [-0.631017, 47.393861, 17.42], [-0.631115, 47.393759, 17.41], [-0.631233, 47.393686, 17.4], [-0.631323, 47.393601, 17.39], [-0.631381, 47.393513, 17.38], [-0.631427, 47.393419, 17.37], [-0.631531, 47.39332, 17.35], [-0.631609, 47.393205, 17.31], [-0.631702, 47.3931, 17.28], [-0.631817, 47.393004, 17.24], [-0.631908, 47.392933, 17.21], [-0.632038, 47.392841, 17.17], [-0.632178, 47.392759, 17.14], [-0.63227, 47.392679, 17.11], [-0.632351, 47.392568, 17.07], [-0.63243, 47.392474, 17.04], [-0.632505, 47.392388, 17.01], [-0.632571, 47.392279, 16.97], [-0.632698, 47.392178, 16.93], [-0.632872, 47.392112, 16.89], [-0.632992, 47.392023, 16.86], [-0.633098, 47.391962, 16.83], [-0.633203, 47.391901, 16.86], [-0.633321, 47.391803, 16.9], [-0.633464, 47.391713, 16.94], [-0.633582, 47.391645, 16.98], [-0.633705, 47.391571, 17.01], [-0.633821, 47.391519, 17.04], [-0.633925, 47.391442, 17.08], [-0.63405, 47.391394, 17.11], [-0.634179, 47.391341, 17.14], [-0.634303, 47.391295, 17.18], [-0.634449, 47.391263, 17.21], [-0.634601, 47.391214, 17.25], [-0.63474, 47.39117, 17.28], [-0.634906, 47.391106, 17.32], [-0.635015, 47.391027, 17.36], [-0.635141, 47.390934, 17.4], [-0.635233, 47.390862, 17.43], [-0.63536, 47.390803, 17.48], [-0.63545, 47.390723, 17.51], [-0.635561, 47.39066, 17.55], [-0.635663, 47.390592, 17.59], [-0.635758, 47.390515, 17.63], [-0.635874, 47.390441, 17.67], [-0.635994, 47.39036, 17.71], [-0.636121, 47.390268, 17.76], [-0.636246, 47.390195, 17.8], [-0.636366, 47.390115, 17.85], [-0.636493, 47.390035, 17.89], [-0.636626, 47.389954, 17.94], [-0.636749, 47.389867, 17.99], [-0.636878, 47.389783, 18.03], [-0.637006, 47.389693, 18.08], [-0.637135, 47.389611, 18.11], [-0.637262, 47.389526, 18.12], [-0.637392, 47.38944, 18.13], [-0.637523, 47.389364, 18.14], [-0.63764, 47.38929, 18.14], [-0.637747, 47.389217, 18.15], [-0.63786, 47.389155, 18.16], [-0.637959, 47.389091, 18.16], [-0.638106, 47.389011, 18.17], [-0.638231, 47.388931, 18.18], [-0.638363, 47.388854, 18.19], [-0.638477, 47.388779, 18.19], [-0.638586, 47.38872, 18.2], [-0.638708, 47.388655, 18.21], [-0.638818, 47.388582, 18.21], [-0.638941, 47.388517, 18.22], [-0.639046, 47.388443, 18.23], [-0.639161, 47.388388, 18.25], [-0.639309, 47.388306, 18.28], [-0.639427, 47.38822, 18.3], [-0.639537, 47.388143, 18.33], [-0.639623, 47.388034, 18.36], [-0.639721, 47.387961, 18.38], [-0.639807, 47.387882, 18.4], [-0.639905, 47.387813, 18.42], [-0.640011, 47.387751, 18.45], [-0.640104, 47.387684, 18.47], [-0.640228, 47.387618, 18.49], [-0.640349, 47.387537, 18.52], [-0.640498, 47.387471, 18.55], [-0.640628, 47.387397, 18.57], [-0.640736, 47.387336, 18.59], [-0.640895, 47.387255, 18.63], [-0.641036, 47.3872, 18.66], [-0.641193, 47.387168, 18.73], [-0.641344, 47.387131, 18.79], [-0.641499, 47.387065, 18.86], [-0.641654, 47.387007, 18.93], [-0.64178, 47.386947, 18.98], [-0.641909, 47.386892, 19.04], [-0.64205, 47.386827, 19.11], [-0.642164, 47.386773, 19.16], [-0.642278, 47.38671, 19.22], [-0.642402, 47.386654, 19.28], [-0.642525, 47.386597, 19.33], [-0.64265, 47.386531, 19.39], [-0.642778, 47.386467, 19.45], [-0.642918, 47.386408, 19.52], [-0.643035, 47.386339, 19.58], [-0.643136, 47.38627, 19.63], [-0.643223, 47.386201, 19.64], [-0.643327, 47.386097, 19.6], [-0.643426, 47.38598, 19.56], [-0.643553, 47.385916, 19.52], [-0.643698, 47.385868, 19.48], [-0.643842, 47.385824, 19.45], [-0.643969, 47.385787, 19.42], [-0.644102, 47.385783, 19.38], [-0.644278, 47.385764, 19.34], [-0.64443, 47.385707, 19.3], [-0.644567, 47.385652, 19.27], [-0.644719, 47.385593, 19.23], [-0.644851, 47.385537, 19.19], [-0.645005, 47.385468, 19.15], [-0.645177, 47.385395, 19.1], [-0.645335, 47.385318, 19.06], [-0.645503, 47.385248, 19.03], [-0.645659, 47.385187, 19.02], [-0.645808, 47.385118, 19.0], [-0.645961, 47.385057, 18.98], [-0.646109, 47.384988, 18.96], [-0.646255, 47.384923, 18.95], [-0.646404, 47.384858, 18.93], [-0.646561, 47.384792, 18.91], [-0.646716, 47.384722, 18.89], [-0.646874, 47.384656, 18.87], [-0.647034, 47.384593, 18.86], [-0.64718, 47.384525, 18.84], [-0.647324, 47.384468, 18.82], [-0.647453, 47.38441, 18.81], [-0.647566, 47.384353, 18.79], [-0.647733, 47.384288, 18.81], [-0.647876, 47.384225, 18.84], [-0.64804, 47.384159, 18.87], [-0.648155, 47.384107, 18.9], [-0.648263, 47.384047, 18.92], [-0.648395, 47.384013, 18.94], [-0.648559, 47.383935, 18.98], [-0.648684, 47.383887, 19.0], [-0.648812, 47.383839, 19.03], [-0.648928, 47.383786, 19.05], [-0.649062, 47.383739, 19.07], [-0.649187, 47.38368, 19.1], [-0.649308, 47.383622, 19.12], [-0.64944, 47.38357, 19.15], [-0.649604, 47.383502, 19.18], [-0.649755, 47.383437, 19.21], [-0.649903, 47.383382, 19.24], [-0.650038, 47.383327, 19.26], [-0.650175, 47.383258, 19.28], [-0.650325, 47.383205, 19.3], [-0.650465, 47.383137, 19.33], [-0.650596, 47.383083, 19.35], [-0.65075, 47.383016, 19.37], [-0.650913, 47.382947, 19.4], [-0.65105, 47.382901, 19.42], [-0.651185, 47.382837, 19.44], [-0.651317, 47.382783, 19.46], [-0.651463, 47.382733, 19.48], [-0.651585, 47.382672, 19.5], [-0.651723, 47.382619, 19.52], [-0.651863, 47.382556, 19.54], [-0.652002, 47.38249, 19.57], [-0.652141, 47.382426, 19.58], [-0.652287, 47.382368, 19.59], [-0.652431, 47.382309, 19.59], [-0.652581, 47.382248, 19.59], [-0.652737, 47.382186, 19.59], [-0.652876, 47.382111, 19.59], [-0.653033, 47.38206, 19.6], [-0.653163, 47.381996, 19.6], [-0.653286, 47.381935, 19.6], [-0.653416, 47.381897, 19.6], [-0.653536, 47.381837, 19.6], [-0.653682, 47.381784, 19.61], [-0.653823, 47.381725, 19.61], [-0.653967, 47.381665, 19.61], [-0.654113, 47.381601, 19.61], [-0.654261, 47.381541, 19.61], [-0.654411, 47.381481, 19.6], [-0.654563, 47.381412, 19.54], [-0.654711, 47.381345, 19.49], [-0.654861, 47.38128, 19.43], [-0.655009, 47.381217, 19.38], [-0.655166, 47.381158, 19.32], [-0.655311, 47.381107, 19.27], [-0.655426, 47.381053, 19.23], [-0.655525, 47.380953, 19.17], [-0.65546, 47.380845, 19.12], [-0.655385, 47.380752, 19.07], [-0.655277, 47.380674, 19.02], [-0.6552, 47.380558, 18.96], [-0.655116, 47.380474, 18.92], [-0.655049, 47.380394, 18.87], [-0.654938, 47.380284, 18.81], [-0.654836, 47.380183, 18.78], [-0.654719, 47.380092, 18.76], [-0.654558, 47.380062, 18.75], [-0.654388, 47.380044, 18.73], [-0.654261, 47.380004, 18.72], [-0.654195, 47.379916, 18.7], [-0.654117, 47.379828, 18.69], [-0.654024, 47.379733, 18.67], [-0.653932, 47.379628, 18.65], [-0.653839, 47.379523, 18.64], [-0.653743, 47.379408, 18.62], [-0.653643, 47.379303, 18.6], [-0.653564, 47.37919, 18.58], [-0.653463, 47.379087, 18.56], [-0.653382, 47.378976, 18.55], [-0.653289, 47.378871, 18.55], [-0.653216, 47.378757, 18.63], [-0.653113, 47.378653, 18.72], [-0.653037, 47.378543, 18.79], [-0.652943, 47.378441, 18.87], [-0.652848, 47.378334, 18.95], [-0.652773, 47.378222, 19.03], [-0.652678, 47.378118, 19.11], [-0.652598, 47.378001, 19.2], [-0.652503, 47.377901, 19.27], [-0.652434, 47.377796, 19.35], [-0.652344, 47.377701, 19.42], [-0.652263, 47.377607, 19.49], [-0.652186, 47.377512, 19.56], [-0.65211, 47.377423, 19.63], [-0.652046, 47.377331, 19.69], [-0.65197, 47.37724, 19.69], [-0.651893, 47.377153, 19.69], [-0.651825, 47.377066, 19.68], [-0.651773, 47.376981, 19.68], [-0.651684, 47.376874, 19.67], [-0.651608, 47.376784, 19.66], [-0.651504, 47.376664, 19.65], [-0.651434, 47.376577, 19.65], [-0.651362, 47.37648, 19.64], [-0.651286, 47.376386, 19.63], [-0.651206, 47.376283, 19.63], [-0.651131, 47.376175, 19.62], [-0.651046, 47.376067, 19.61], [-0.65096, 47.375958, 19.6], [-0.650866, 47.375855, 19.6], [-0.650766, 47.375759, 19.59], [-0.650675, 47.375665, 19.57], [-0.650612, 47.375564, 19.54], [-0.650533, 47.375459, 19.52], [-0.650446, 47.375372, 19.49], [-0.650382, 47.375281, 19.47], [-0.650288, 47.375166, 19.44], [-0.650228, 47.375081, 19.42], [-0.650139, 47.375, 19.4], [-0.650065, 47.374907, 19.38], [-0.649996, 47.374805, 19.35], [-0.64991, 47.374704, 19.32], [-0.649839, 47.374605, 19.3], [-0.649768, 47.374512, 19.28], [-0.649684, 47.374409, 19.25], [-0.649614, 47.374314, 19.23], [-0.649521, 47.374217, 19.2], [-0.649421, 47.374127, 19.18], [-0.649371, 47.374029, 19.15], [-0.649292, 47.373942, 19.13], [-0.649225, 47.373855, 19.1], [-0.649147, 47.373769, 19.08], [-0.649069, 47.373684, 19.06], [-0.649005, 47.373589, 19.03], [-0.648925, 47.373491, 19.01], [-0.648848, 47.373395, 18.98], [-0.648771, 47.373297, 18.95], [-0.648686, 47.373215, 18.93], [-0.648631, 47.373121, 18.91], [-0.648565, 47.373034, 18.88], [-0.648487, 47.372958, 18.86], [-0.648406, 47.372841, 18.83], [-0.648333, 47.372759, 18.81], [-0.64826, 47.372668, 18.78], [-0.648184, 47.372565, 18.75], [-0.648098, 47.372463, 18.69], [-0.648047, 47.372335, 18.63], [-0.648003, 47.372208, 18.57], [-0.647981, 47.372097, 18.52], [-0.647941, 47.372003, 18.47], [-0.647808, 47.371953, 18.42], [-0.647624, 47.371953, 18.37], [-0.647432, 47.371995, 18.3], [-0.647278, 47.372082, 18.24], [-0.64712, 47.372148, 18.18], [-0.646981, 47.372207, 18.13], [-0.646858, 47.372279, 18.08], [-0.646702, 47.372342, 18.02], [-0.646543, 47.3724, 17.97], [-0.646395, 47.372463, 17.93], [-0.646243, 47.37252, 17.93], [-0.64609, 47.372573, 17.93], [-0.645935, 47.372625, 17.93], [-0.645787, 47.372677, 17.93], [-0.645637, 47.372721, 17.93], [-0.645494, 47.372777, 17.93], [-0.645338, 47.372814, 17.93], [-0.645181, 47.372848, 17.93], [-0.645037, 47.37291, 17.92], [-0.644887, 47.372951, 17.92], [-0.644745, 47.373001, 17.92], [-0.644604, 47.373049, 17.92], [-0.64447, 47.373096, 17.92], [-0.644348, 47.373161, 17.92], [-0.644221, 47.373217, 17.92], [-0.644101, 47.373281, 17.92], [-0.643984, 47.373359, 17.95], [-0.643861, 47.373428, 17.99], [-0.643768, 47.373508, 18.02], [-0.643698, 47.373588, 18.04], [-0.643608, 47.373701, 18.08], [-0.64355, 47.373814, 18.11], [-0.643503, 47.373915, 18.14], [-0.643473, 47.374007, 18.17], [-0.643447, 47.374119, 18.2], [-0.643435, 47.374222, 18.23], [-0.64341, 47.374312, 18.26], [-0.643414, 47.374403, 18.29], [-0.643364, 47.374489, 18.31], [-0.643277, 47.37459, 18.35], [-0.643183, 47.374665, 18.38], [-0.643119, 47.374745, 18.4], [-0.64304, 47.37482, 18.43], [-0.642966, 47.374908, 18.44], [-0.642916, 47.374995, 18.44], [-0.642835, 47.375078, 18.44], [-0.642753, 47.375155, 18.44], [-0.642687, 47.375247, 18.44], [-0.6426, 47.375333, 18.44], [-0.642515, 47.375406, 18.44], [-0.642437, 47.375507, 18.44], [-0.642335, 47.375591, 18.44], [-0.642261, 47.375683, 18.44], [-0.642159, 47.375747, 18.44], [-0.642068, 47.375826, 18.44], [-0.642163, 47.375894, 18.44], [-0.642265, 47.375969, 18.44]]}, "properties": {"name": "🚲 Loire à Vélo 2026 - Étape 1 - Angers ➡️ Béhuard", "source_file": "acte-3_etape-1_angers_behuard.gpx", "point_count": 1167, "distance_km": 15.67, "duration_s": 6137, "elevation_gain_m": 19.3, "elevation_loss_m": 45.3}}]}
