{"type":"FeatureCollection","features":[{"type":"Feature","geometry":{"type":"LineString","coordinates":[[1.632292,47.773692],[1.632116,47.773485],[1.631956,47.772378],[1.631151,47.77102],[1.630451,47.769417],[1.630166,47.769223],[1.628911,47.766996],[1.628193,47.766335],[1.628173,47.765978],[1.6276,47.765181],[1.626935,47.763728],[1.625969,47.763286],[1.624504,47.761417],[1.624614,47.761118],[1.625566,47.76092],[1.625783,47.760661],[1.624262,47.758352],[1.623493,47.75644],[1.623444,47.755959],[1.622772,47.754621],[1.622779,47.753484],[1.621522,47.75139],[1.621663,47.750969],[1.621604,47.750478],[1.621794,47.750077],[1.621671,47.748362],[1.621101,47.746687],[1.621043,47.745726],[1.619349,47.743888],[1.617988,47.74212],[1.616403,47.740655],[1.613577,47.738741],[1.612891,47.737975],[1.611287,47.737065],[1.609424,47.736344],[1.607821,47.73618],[1.607292,47.735194],[1.606584,47.734695],[1.605896,47.734391],[1.604123,47.734215],[1.603117,47.733918],[1.601089,47.733103],[1.599594,47.73224],[1.590683,47.729816],[1.588485,47.729861],[1.587176,47.73113],[1.586205,47.731339],[1.585697,47.731663],[1.584394,47.730855],[1.582874,47.73019],[1.582416,47.729807],[1.579285,47.728338],[1.575673,47.72616],[1.576054,47.726461],[1.575556,47.726155],[1.575072,47.72622],[1.573955,47.725486],[1.571716,47.723149],[1.57104,47.722247],[1.5704,47.720293],[1.57027,47.719802],[1.570348,47.71864],[1.5706,47.717948],[1.571282,47.717054],[1.573684,47.713026],[1.573433,47.712771],[1.572409,47.712468],[1.571925,47.711946],[1.57204,47.711253],[1.57258,47.710463],[1.572155,47.708756],[1.572066,47.707346],[1.570374,47.703737],[1.568896,47.701184],[1.56599,47.699154],[1.56251,47.697511],[1.561982,47.697137],[1.561344,47.696373],[1.559485,47.695301],[1.554662,47.693291],[1.553594,47.692639],[1.552602,47.692495],[1.549018,47.692882],[1.547723,47.692783],[1.546119,47.692189],[1.543025,47.690646],[1.541783,47.689901],[1.540188,47.688572],[1.536504,47.683883],[1.533541,47.682339],[1.506545,47.671503],[1.487265,47.662888],[1.481998,47.660988],[1.47727,47.659631],[1.47257,47.658731],[1.450609,47.656068],[1.447796,47.656083],[1.446303,47.657032],[1.443227,47.65799],[1.442417,47.658939],[1.441148,47.658302],[1.440264,47.658249],[1.439799,47.657734],[1.439075,47.657333],[1.438113,47.657164],[1.436871,47.65742],[1.434077,47.656305],[1.433316,47.655673],[1.434659,47.654904],[1.43456,47.65469],[1.432536,47.653202],[1.422379,47.647056],[1.42045,47.645418],[1.41642,47.64151],[1.412895,47.63876],[1.407875,47.635231],[1.402647,47.631082],[1.400234,47.629568],[1.399585,47.628714],[1.397209,47.626899],[1.396196,47.625924],[1.393694,47.624089],[1.388088,47.620603],[1.383319,47.618277],[1.378176,47.616255],[1.374999,47.614065],[1.374467,47.613489],[1.372914,47.61239],[1.371785,47.611037],[1.37119,47.609709],[1.370331,47.608404],[1.369323,47.605584],[1.365526,47.602159],[1.362627,47.599927],[1.358341,47.597463],[1.355735,47.596198],[1.351354,47.593621],[1.348406,47.592503],[1.346383,47.59195],[1.34387,47.590894],[1.338306,47.587347],[1.336385,47.586223],[1.335704,47.586046]]},"properties":{"name":"Beaugency ➡️ Blois","source_file":"acte-1_etape-6_beaugency_blois.gpx","point_count":143,"distance_km":34.37,"duration_s":8820,"elevation_gain_m":131,"elevation_loss_m":149}}]}