{"type": "FeatureCollection", "features": [{"type": "Feature", "geometry": {"type": "LineString", "coordinates": [[-0.55697, 47.466415], [-0.558989, 47.467839], [-0.558944, 47.468193], [-0.558516, 47.46871], [-0.564799, 47.471107], [-0.564851, 47.470903], [-0.565261, 47.470829], [-0.566942, 47.469931], [-0.567847, 47.469845], [-0.569216, 47.470013], [-0.569127, 47.469962], [-0.570196, 47.469109], [-0.573164, 47.467096], [-0.574683, 47.465817], [-0.574674, 47.465395], [-0.575746, 47.464454], [-0.576667, 47.463308], [-0.578187, 47.460324], [-0.580698, 47.456699], [-0.582384, 47.454983], [-0.585923, 47.45307], [-0.590672, 47.451309], [-0.593879, 47.449762], [-0.594707, 47.44918], [-0.596356, 47.445532], [-0.597131, 47.444457], [-0.601831, 47.439467], [-0.60377, 47.436854], [-0.603957, 47.436176], [-0.604604, 47.435368], [-0.604684, 47.434965], [-0.605139, 47.434244], [-0.605048, 47.432552], [-0.604851, 47.431908], [-0.605125, 47.429976], [-0.604548, 47.427882], [-0.604612, 47.425758], [-0.605636, 47.423482], [-0.607309, 47.422144], [-0.609174, 47.421115], [-0.610346, 47.419062], [-0.611409, 47.417821], [-0.612912, 47.416678], [-0.613998, 47.415594], [-0.614595, 47.415263], [-0.615449, 47.41395], [-0.616496, 47.412784], [-0.617362, 47.410036], [-0.61774, 47.409348], [-0.618183, 47.409063], [-0.618432, 47.40847], [-0.618157, 47.408403], [-0.618191, 47.408289], [-0.620681, 47.40633], [-0.621978, 47.404712], [-0.622409, 47.404363], [-0.622546, 47.404405], [-0.623164, 47.403726], [-0.623831, 47.402924], [-0.625855, 47.399396], [-0.626588, 47.398627], [-0.626861, 47.39856], [-0.628161, 47.397084], [-0.62876, 47.396024], [-0.62996, 47.395141], [-0.631702, 47.3931], [-0.632698, 47.392178], [-0.633925, 47.391442], [-0.634906, 47.391106], [-0.640349, 47.387537], [-0.642918, 47.386408], [-0.643553, 47.385916], [-0.644719, 47.385593], [-0.655525, 47.380953], [-0.654836, 47.380183], [-0.654261, 47.380004], [-0.653643, 47.379303], [-0.647808, 47.371953], [-0.643861, 47.373428], [-0.64355, 47.373814], [-0.643364, 47.374489], [-0.642068, 47.375826], [-0.642265, 47.375969]]}, "properties": {"name": "🚲 Loire à Vélo 2026 - Étape 1 - Angers ➡️ Béhuard", "source_file": "acte-3_etape-1_angers_behuard.gpx", "point_count": 1167, "distance_km": 15.67, "duration_s": 6137, "elevation_gain_m": 19.3, "elevation_loss_m": 45.3}}]}
