{"type": "FeatureCollection", "features": [{"type": "Feature", "geometry": {"type": "LineString", "coordinates": [[-1.17745, 47.363535], [-1.178942, 47.36304], [-1.180856, 47.363066], [-1.181514, 47.363317], [-1.183413, 47.363428], [-1.186685, 47.363417], [-1.187533, 47.363612], [-1.187713, 47.363493], [-1.187325, 47.363115], [-1.187081, 47.362431], [-1.187925, 47.362093], [-1.189078, 47.36193], [-1.191281, 47.36206], [-1.19563, 47.361676], [-1.197212, 47.361211], [-1.199837, 47.360058], [-1.199681, 47.361549], [-1.200008, 47.362005], [-1.20137, 47.361746], [-1.201921, 47.361438], [-1.20228, 47.36084], [-1.206361, 47.360672], [-1.208108, 47.360445], [-1.212798, 47.35879], [-1.218029, 47.357753], [-1.223618, 47.357063], [-1.224291, 47.357418], [-1.232768, 47.353366], [-1.243822, 47.350209], [-1.248562, 47.348216], [-1.251372, 47.347461], [-1.253494, 47.347174], [-1.253653, 47.347999], [-1.256432, 47.347694], [-1.257275, 47.347759], [-1.260335, 47.348349], [-1.262963, 47.349195], [-1.266313, 47.349557], [-1.266524, 47.349522], [-1.267705, 47.348315], [-1.270613, 47.347809], [-1.277093, 47.347298], [-1.280252, 47.346805], [-1.280563, 47.34685], [-1.280758, 47.347342], [-1.282562, 47.346936], [-1.283616, 47.346626], [-1.283674, 47.346491], [-1.283641, 47.346197], [-1.282323, 47.345903], [-1.282596, 47.345231], [-1.282931, 47.34515], [-1.283848, 47.345142], [-1.284703, 47.345355], [-1.285992, 47.346501], [-1.287058, 47.345943], [-1.29125, 47.344543], [-1.291325, 47.344346], [-1.293431, 47.344427], [-1.296232, 47.344087], [-1.298816, 47.34297], [-1.302321, 47.342047], [-1.304762, 47.341066], [-1.306544, 47.340121], [-1.30697, 47.339827], [-1.306805, 47.339517], [-1.307602, 47.339], [-1.309876, 47.336785], [-1.311318, 47.335896], [-1.319682, 47.331586], [-1.320389, 47.330996], [-1.32098, 47.330908], [-1.328165, 47.327148], [-1.330016, 47.325765], [-1.331413, 47.32444], [-1.331606, 47.324072], [-1.332101, 47.323741], [-1.33969, 47.320284], [-1.350768, 47.313283], [-1.350961, 47.312986], [-1.354088, 47.311122], [-1.360258, 47.30587], [-1.361611, 47.305037], [-1.369749, 47.301124], [-1.375034, 47.297872], [-1.379254, 47.295723], [-1.382665, 47.294656], [-1.383032, 47.294112], [-1.383824, 47.294166], [-1.385369, 47.293818], [-1.391172, 47.292115], [-1.397812, 47.286759], [-1.400493, 47.284995], [-1.402932, 47.283974], [-1.403728, 47.283472], [-1.408249, 47.278915], [-1.410704, 47.277652], [-1.412433, 47.275979], [-1.41362, 47.275074], [-1.422649, 47.269833], [-1.425586, 47.268299], [-1.43074, 47.266044], [-1.433296, 47.26437], [-1.43565, 47.262315], [-1.438063, 47.260592], [-1.438628, 47.260346], [-1.440055, 47.259042], [-1.441031, 47.258489], [-1.444393, 47.255646], [-1.446969, 47.253851], [-1.448739, 47.252199], [-1.450634, 47.249997], [-1.452363, 47.248559], [-1.45517, 47.247272], [-1.459232, 47.246104], [-1.460988, 47.24523], [-1.46283, 47.24378], [-1.464347, 47.242879], [-1.466997, 47.240877], [-1.467306, 47.240796], [-1.468696, 47.239309], [-1.472221, 47.236785], [-1.47398, 47.234905], [-1.475244, 47.232691], [-1.478698, 47.231098], [-1.481103, 47.229501], [-1.481311, 47.228982], [-1.484143, 47.227092], [-1.491562, 47.224662], [-1.496135, 47.222928], [-1.500834, 47.221811], [-1.504176, 47.220721], [-1.507599, 47.220414], [-1.51306, 47.218591], [-1.514975, 47.21814], [-1.518147, 47.216625], [-1.519874, 47.216046], [-1.526528, 47.213935], [-1.529157, 47.213408], [-1.534456, 47.212878], [-1.536221, 47.21302], [-1.536618, 47.212882], [-1.537322, 47.213125], [-1.539275, 47.213396], [-1.53916, 47.213661], [-1.539356, 47.213934], [-1.540029, 47.213858], [-1.541679, 47.215], [-1.543639, 47.216015], [-1.544816, 47.216], [-1.546189, 47.215531], [-1.546278, 47.215363], [-1.54594, 47.215001], [-1.546043, 47.214959], [-1.546764, 47.215858], [-1.546669, 47.21642], [-1.547066, 47.216637], [-1.547575, 47.21727], [-1.54808, 47.217044], [-1.548789, 47.217112]]}, "properties": {"name": "🚲 Loire à Vélo 2026 - Étape 4 - Ancenis ➡️ Nantes", "source_file": "acte-3_etape-4_ancenis_nantes.gpx", "point_count": 2816, "distance_km": 36.25, "duration_s": 14849, "elevation_gain_m": 93.9, "elevation_loss_m": 94.5}}]}
