{"type": "FeatureCollection", "features": [{"type": "Feature", "geometry": {"type": "LineString", "coordinates": [[-2.03016, 47.289877, 6.21], [-2.030252, 47.289886, 6.28], [-2.030451, 47.28989, 6.22], [-2.032252, 47.289854, 4.61], [-2.03246, 47.289839, 4.55], [-2.032636, 47.289815, 4.57], [-2.032642, 47.289834, 4.53], [-2.032774, 47.289798, 4.63], [-2.032912, 47.289756, 4.73], [-2.033028, 47.289697, 4.82], [-2.033125, 47.289617, 4.93], [-2.033147, 47.28951, 5.03], [-2.033271, 47.289462, 5.13], [-2.033415, 47.289443, 5.22], [-2.033546, 47.289412, 5.32], [-2.033679, 47.289376, 5.41], [-2.033815, 47.289345, 5.51], [-2.033948, 47.289311, 5.6], [-2.034085, 47.289294, 5.69], [-2.034233, 47.289276, 5.78], [-2.034378, 47.289258, 5.85], [-2.034512, 47.289236, 5.92], [-2.034657, 47.289216, 6.0], [-2.034811, 47.289199, 6.08], [-2.034964, 47.289184, 6.16], [-2.035117, 47.289172, 6.24], [-2.035273, 47.289161, 6.32], [-2.035426, 47.289149, 6.4], [-2.035581, 47.289152, 6.47], [-2.035735, 47.289147, 6.55], [-2.035891, 47.289134, 6.63], [-2.03604, 47.289119, 6.71], [-2.036184, 47.289115, 6.78], [-2.036335, 47.289113, 6.86], [-2.036484, 47.289107, 6.94], [-2.03663, 47.289097, 7.01], [-2.036772, 47.289095, 7.09], [-2.036911, 47.289093, 7.16], [-2.037063, 47.289079, 7.23], [-2.037199, 47.289071, 7.3], [-2.037339, 47.28907, 7.38], [-2.037486, 47.289063, 7.45], [-2.037634, 47.289055, 7.53], [-2.037777, 47.289052, 7.6], [-2.037925, 47.289037, 7.68], [-2.038066, 47.289029, 7.75], [-2.038214, 47.289019, 7.83], [-2.038427, 47.289019, 7.94], [-2.03863, 47.288999, 8.04], [-2.038778, 47.289, 8.12], [-2.038987, 47.288991, 8.22], [-2.039131, 47.288984, 8.3], [-2.039271, 47.288975, 8.37], [-2.039408, 47.288964, 8.44], [-2.039599, 47.288945, 8.28], [-2.039776, 47.288899, 8.11], [-2.039954, 47.288836, 7.93], [-2.040073, 47.288784, 7.81], [-2.040187, 47.288728, 7.68], [-2.040292, 47.288656, 7.55], [-2.040404, 47.288578, 7.4], [-2.040517, 47.288497, 7.26], [-2.040635, 47.288415, 7.1], [-2.040759, 47.288324, 6.94], [-2.040879, 47.288231, 6.78], [-2.041, 47.288129, 6.61], [-2.041148, 47.288046, 6.43], [-2.04129, 47.287961, 6.26], [-2.041437, 47.287875, 6.09], [-2.041576, 47.287787, 5.98], [-2.04171, 47.287695, 5.88], [-2.041837, 47.287606, 5.78], [-2.041964, 47.287527, 5.69], [-2.042082, 47.287435, 5.59], [-2.04217, 47.287337, 5.5], [-2.042289, 47.287252, 5.41], [-2.042428, 47.287178, 5.32], [-2.042544, 47.287101, 5.23], [-2.042572, 47.287103, 1.39], [-2.042582, 47.287049, 1.31], [-2.042524, 47.286993, 1.35], [-2.04252, 47.286943, 1.34], [-2.042625, 47.286912, 1.22], [-2.043374, 47.28645, 1.0], [-2.043895, 47.286105, 1.15], [-2.045143, 47.28526, 2.67], [-2.045777, 47.28484, 1.33], [-2.045965, 47.284728, 1.11], [-2.046374, 47.284532, 1.0], [-2.051356, 47.282231, 0.39], [-2.051572, 47.282112, 0.52], [-2.051662, 47.28209, 0.6], [-2.051805, 47.282037, 0.78], [-2.053858, 47.281063, 0.9], [-2.054343, 47.280853, 2.23], [-2.055681, 47.280219, 1.72], [-2.05602, 47.280032, 2.31], [-2.056358, 47.279868, 2.83], [-2.056953, 47.279639, 3.82], [-2.05705, 47.279573, 3.92], [-2.057093, 47.279504, 4.01], [-2.057114, 47.279417, 4.21], [-2.057321, 47.27917, 4.7], [-2.057386, 47.2792, 4.57], [-2.057907, 47.278543, 5.88], [-2.0583, 47.278077, 5.74], [-2.058556, 47.277703, 5.97], [-2.058643, 47.277654, 5.99], [-2.058967, 47.277594, 6.35], [-2.059279, 47.277534, 6.72], [-2.059283, 47.277551, 5.92], [-2.059434, 47.277538, 5.94], [-2.059585, 47.277537, 5.97], [-2.059746, 47.277553, 6.0], [-2.059902, 47.277563, 6.02], [-2.060062, 47.277571, 6.05], [-2.06022, 47.277587, 6.08], [-2.060384, 47.277603, 6.11], [-2.060543, 47.277616, 6.14], [-2.060704, 47.277631, 6.16], [-2.060865, 47.277645, 6.19], [-2.061016, 47.277659, 6.22], [-2.06118, 47.277668, 6.21], [-2.061345, 47.277679, 6.17], [-2.061502, 47.277695, 6.13], [-2.061658, 47.277707, 6.1], [-2.061799, 47.277719, 6.06], [-2.061837, 47.277833, 6.02], [-2.061821, 47.277949, 5.98], [-2.061838, 47.278051, 5.94], [-2.061764, 47.278172, 5.9], [-2.061652, 47.278265, 5.85], [-2.061598, 47.278359, 5.82], [-2.061575, 47.278473, 5.78], [-2.061506, 47.278589, 5.73], [-2.061523, 47.278679, 5.7], [-2.061676, 47.278703, 5.66], [-2.061816, 47.278664, 5.63], [-2.061903, 47.278813, 5.55], [-2.061901, 47.278905, 5.5], [-2.061902, 47.279037, 5.42], [-2.061942, 47.279131, 5.36], [-2.061963, 47.279232, 5.29], [-2.061992, 47.279338, 5.23], [-2.062025, 47.279448, 5.16], [-2.062056, 47.279563, 5.09], [-2.062103, 47.27967, 5.02], [-2.062199, 47.279761, 4.95], [-2.062326, 47.27983, 4.88], [-2.06247, 47.279878, 4.82], [-2.062619, 47.27991, 4.75], [-2.062753, 47.279945, 4.69], [-2.062883, 47.280007, 4.63], [-2.062815, 47.280111, 4.56], [-2.062805, 47.280222, 4.49], [-2.062782, 47.280338, 4.45], [-2.062736, 47.280453, 4.41], [-2.06271, 47.280547, 4.38], [-2.062637, 47.28064, 4.34], [-2.062662, 47.280731, 4.31], [-2.062744, 47.280861, 4.26], [-2.0628, 47.280967, 4.22], [-2.062859, 47.281074, 4.18], [-2.062928, 47.281173, 4.15], [-2.063037, 47.281251, 4.11], [-2.063173, 47.281309, 4.07], [-2.063299, 47.281369, 4.04], [-2.063429, 47.281424, 4.0], [-2.063578, 47.281459, 3.96], [-2.063595, 47.281439, 4.26], [-2.063949, 47.281429, 3.76], [-2.065687, 47.281337, 3.24], [-2.068954, 47.281103, 4.63], [-2.070198, 47.281053, 3.81], [-2.071626, 47.281009, 3.25], [-2.072428, 47.281027, 3.22], [-2.074388, 47.28104, 2.97], [-2.075791, 47.2811, 4.46], [-2.076518, 47.28112, 4.12], [-2.076907, 47.281076, 3.23], [-2.077658, 47.280972, 1.68], [-2.078328, 47.280823, 1.74], [-2.078734, 47.280751, 2.04], [-2.079417, 47.280688, 1.15], [-2.080421, 47.280623, 0.44], [-2.080895, 47.280577, 1.4], [-2.081351, 47.28056, 1.79], [-2.08177, 47.280556, 1.29], [-2.082438, 47.280486, 1.38], [-2.082912, 47.280429, 1.88], [-2.083663, 47.280319, 1.85], [-2.083988, 47.28023, 1.54], [-2.084181, 47.280186, 1.49], [-2.093725, 47.279214, 1.59], [-2.09546, 47.27902, 0.92], [-2.096492, 47.278912, 0.72], [-2.097675, 47.27877, 1.97], [-2.099317, 47.278515, 1.57], [-2.099324, 47.278534, 3.68], [-2.099469, 47.278505, 3.69], [-2.099612, 47.278479, 3.69], [-2.099755, 47.278451, 3.7], [-2.0999, 47.278426, 3.7], [-2.100044, 47.278393, 3.71], [-2.100195, 47.278366, 3.72], [-2.100351, 47.278331, 3.73], [-2.100507, 47.278296, 3.74], [-2.10066, 47.27826, 3.75], [-2.100807, 47.278223, 3.76], [-2.100954, 47.278186, 3.77], [-2.1011, 47.27815, 3.77], [-2.101248, 47.278112, 3.78], [-2.101396, 47.278071, 3.79], [-2.101544, 47.27803, 3.8], [-2.101699, 47.277988, 3.81], [-2.101859, 47.277948, 3.82], [-2.102018, 47.277907, 3.83], [-2.102169, 47.277862, 3.84], [-2.102318, 47.277824, 3.85], [-2.102468, 47.277786, 3.85], [-2.102612, 47.277741, 3.86], [-2.102757, 47.277697, 3.87], [-2.102909, 47.277647, 3.88], [-2.103062, 47.277595, 3.89], [-2.103215, 47.277548, 3.89], [-2.10336, 47.277497, 3.9], [-2.103501, 47.277449, 3.91], [-2.103645, 47.2774, 3.92], [-2.103789, 47.277349, 3.93], [-2.103932, 47.277298, 3.93], [-2.104077, 47.277245, 3.94], [-2.104218, 47.277195, 3.95], [-2.104359, 47.277146, 3.96], [-2.104503, 47.277099, 3.96], [-2.104645, 47.27705, 3.97], [-2.104788, 47.277001, 3.97], [-2.104927, 47.276954, 3.96], [-2.105068, 47.276904, 3.95], [-2.105209, 47.276856, 3.93], [-2.105343, 47.276806, 3.92], [-2.105479, 47.276759, 3.91], [-2.105616, 47.276714, 3.89], [-2.105747, 47.276669, 3.88], [-2.105878, 47.276626, 3.87], [-2.106004, 47.276578, 3.85], [-2.106139, 47.276536, 3.84], [-2.106275, 47.27649, 3.83], [-2.106411, 47.276445, 3.81], [-2.106548, 47.2764, 3.8], [-2.106687, 47.276354, 3.79], [-2.106834, 47.276307, 3.77], [-2.106974, 47.27626, 3.76], [-2.107119, 47.276212, 3.75], [-2.107269, 47.276163, 3.74], [-2.10742, 47.276116, 3.73], [-2.10757, 47.276063, 3.72], [-2.107725, 47.276019, 3.71], [-2.107869, 47.275967, 3.7], [-2.108014, 47.275929, 3.69], [-2.108159, 47.275891, 3.69], [-2.108306, 47.27585, 3.68], [-2.108456, 47.275809, 3.67], [-2.108611, 47.275774, 3.66], [-2.108765, 47.275734, 3.65], [-2.108925, 47.2757, 3.64], [-2.109084, 47.275661, 3.63], [-2.109245, 47.275622, 3.62], [-2.109412, 47.275589, 3.61], [-2.109577, 47.275553, 3.6], [-2.109744, 47.275521, 3.57], [-2.109907, 47.275494, 3.54], [-2.110067, 47.275462, 3.51], [-2.110219, 47.275432, 3.48], [-2.110373, 47.275407, 3.44], [-2.110517, 47.275376, 3.42], [-2.110668, 47.275351, 3.39], [-2.110822, 47.275319, 3.36], [-2.11099, 47.275294, 3.32], [-2.111164, 47.275274, 3.29], [-2.11133, 47.275262, 3.26], [-2.111494, 47.275246, 3.23], [-2.111655, 47.275232, 3.19], [-2.111811, 47.275219, 3.16], [-2.111974, 47.275205, 3.13], [-2.112136, 47.275187, 3.1], [-2.112295, 47.275173, 3.09], [-2.112456, 47.275158, 3.07], [-2.112614, 47.275138, 3.06], [-2.112775, 47.275126, 3.05], [-2.112934, 47.275113, 3.04], [-2.11309, 47.275096, 3.02], [-2.113247, 47.275079, 3.01], [-2.113406, 47.275062, 3.0], [-2.113567, 47.27505, 2.99], [-2.113729, 47.275033, 2.97], [-2.113886, 47.275019, 2.96], [-2.114042, 47.275003, 2.95], [-2.114201, 47.274988, 2.94], [-2.114362, 47.274972, 2.93], [-2.114522, 47.274958, 2.91], [-2.114682, 47.274941, 2.9], [-2.114845, 47.274947, 2.89], [-2.114999, 47.274973, 2.88], [-2.115142, 47.275015, 2.86], [-2.115289, 47.275061, 2.85], [-2.115444, 47.275106, 2.84], [-2.115597, 47.275162, 2.82], [-2.115752, 47.275208, 2.81], [-2.115918, 47.275242, 2.8], [-2.116095, 47.275258, 2.78], [-2.116268, 47.275261, 2.77], [-2.116438, 47.27525, 2.76], [-2.116607, 47.275248, 2.74], [-2.116778, 47.275242, 2.73], [-2.116943, 47.275233, 2.72], [-2.117108, 47.275224, 2.71], [-2.117275, 47.275213, 2.69], [-2.117439, 47.275206, 2.69], [-2.117598, 47.275197, 2.7], [-2.117758, 47.275187, 2.7], [-2.117912, 47.275181, 2.71], [-2.118062, 47.275176, 2.72], [-2.118211, 47.275166, 2.72], [-2.118361, 47.275158, 2.73], [-2.118518, 47.275151, 2.73], [-2.11868, 47.275143, 2.74], [-2.118848, 47.275137, 2.75], [-2.119019, 47.27513, 2.75], [-2.119193, 47.275118, 2.76], [-2.119371, 47.27511, 2.77], [-2.119545, 47.275108, 2.77], [-2.119713, 47.275095, 2.78], [-2.11988, 47.275087, 2.79], [-2.120045, 47.275082, 2.79], [-2.120215, 47.275072, 2.8], [-2.120389, 47.275066, 2.81], [-2.120558, 47.275057, 2.83], [-2.120729, 47.275049, 2.84], [-2.120907, 47.275039, 2.85], [-2.12109, 47.275029, 2.86], [-2.121266, 47.275021, 2.87], [-2.121441, 47.275015, 2.88], [-2.121616, 47.275006, 2.89], [-2.121789, 47.275, 2.9], [-2.121965, 47.274991, 2.91], [-2.122146, 47.274985, 2.92], [-2.122323, 47.274976, 2.93], [-2.122495, 47.274971, 2.95], [-2.122671, 47.27496, 2.96], [-2.122845, 47.27495, 3.0], [-2.123019, 47.27494, 3.03], [-2.123194, 47.274927, 3.06], [-2.123368, 47.274921, 3.1], [-2.123544, 47.274914, 3.13], [-2.123718, 47.274905, 3.16], [-2.123899, 47.274897, 3.2], [-2.124075, 47.27489, 3.23], [-2.12425, 47.274885, 3.26], [-2.124422, 47.274874, 3.3], [-2.124597, 47.27487, 3.33], [-2.124775, 47.274861, 3.37], [-2.124955, 47.274865, 3.4], [-2.125114, 47.274879, 3.43], [-2.125254, 47.274883, 3.46], [-2.125414, 47.274873, 3.48], [-2.125586, 47.274859, 3.51], [-2.12572, 47.27485, 3.53], [-2.125924, 47.274834, 3.56], [-2.126096, 47.274811, 3.59], [-2.126295, 47.274804, 3.62], [-2.126439, 47.274819, 3.64], [-2.126598, 47.274853, 3.66], [-2.126767, 47.274862, 3.69], [-2.126935, 47.274868, 3.71], [-2.127098, 47.274842, 3.74], [-2.12726, 47.274818, 3.77], [-2.127431, 47.274801, 3.79], [-2.127603, 47.27479, 3.82], [-2.127774, 47.274785, 3.84], [-2.127933, 47.27477, 3.87], [-2.128095, 47.274763, 3.88], [-2.128254, 47.274745, 3.9], [-2.128419, 47.274721, 3.92], [-2.128585, 47.2747, 3.94], [-2.128751, 47.274678, 3.96], [-2.128917, 47.274652, 3.98], [-2.129077, 47.2746, 3.99], [-2.129216, 47.274531, 4.01], [-2.129356, 47.274479, 4.03], [-2.129501, 47.274442, 4.05], [-2.129663, 47.27442, 4.07], [-2.129829, 47.274409, 4.08], [-2.13, 47.274385, 4.1], [-2.130168, 47.274374, 4.12], [-2.130338, 47.274374, 4.14], [-2.130514, 47.274374, 4.17], [-2.130689, 47.27438, 4.2], [-2.130863, 47.274394, 4.23], [-2.131038, 47.274397, 4.27], [-2.131187, 47.2744, 4.29], [-2.131332, 47.274383, 4.32], [-2.131506, 47.274382, 4.36], [-2.131648, 47.274363, 4.38], [-2.131802, 47.274344, 4.41], [-2.131965, 47.274335, 4.44], [-2.132127, 47.274307, 4.48], [-2.132289, 47.274289, 4.51], [-2.13245, 47.274271, 4.54], [-2.132607, 47.274243, 4.57], [-2.132761, 47.274212, 4.6], [-2.132896, 47.274161, 4.63], [-2.133029, 47.274124, 4.66], [-2.133174, 47.274057, 4.67], [-2.133326, 47.27399, 4.69], [-2.133454, 47.273956, 4.7], [-2.133599, 47.273935, 4.71], [-2.133744, 47.273903, 4.72], [-2.133884, 47.273851, 4.73], [-2.134028, 47.273813, 4.74], [-2.134165, 47.273774, 4.76], [-2.13429, 47.273739, 4.77], [-2.134455, 47.273699, 4.78], [-2.134594, 47.273659, 4.79], [-2.134549, 47.273551, 4.8], [-2.134511, 47.273461, 4.81], [-2.134475, 47.273374, 4.83], [-2.134466, 47.273261, 4.84], [-2.134699, 47.273207, 4.86], [-2.134863, 47.273136, 4.84], [-2.134991, 47.273053, 4.81], [-2.135144, 47.272987, 4.77], [-2.135305, 47.272909, 4.73], [-2.135408, 47.272844, 4.7], [-2.135566, 47.272767, 4.66], [-2.135731, 47.272712, 4.63], [-2.135878, 47.272642, 4.59], [-2.136008, 47.272563, 4.56], [-2.136156, 47.272473, 4.52], [-2.136267, 47.272414, 4.49], [-2.136374, 47.272352, 4.46], [-2.136589, 47.272233, 4.41], [-2.13673, 47.272165, 4.37], [-2.136887, 47.272084, 4.34], [-2.136994, 47.272027, 4.32], [-2.137101, 47.271971, 4.3], [-2.137212, 47.271919, 4.28], [-2.137339, 47.271879, 4.25], [-2.13746, 47.271826, 4.23], [-2.137566, 47.271759, 4.21], [-2.13769, 47.271712, 4.19], [-2.137811, 47.271665, 4.17], [-2.137929, 47.271612, 4.15], [-2.138051, 47.27156, 4.12], [-2.13818, 47.271512, 4.1], [-2.138304, 47.271456, 4.08], [-2.138433, 47.271407, 4.06], [-2.13855, 47.271354, 4.04], [-2.138666, 47.271309, 4.02], [-2.138791, 47.271257, 3.99], [-2.138917, 47.271206, 3.97], [-2.139062, 47.271156, 3.95], [-2.139195, 47.271101, 3.95], [-2.139315, 47.271044, 3.97], [-2.139435, 47.270997, 3.98], [-2.139553, 47.270949, 4.0], [-2.139717, 47.270883, 4.02], [-2.139881, 47.270818, 4.04], [-2.139996, 47.270771, 4.06], [-2.140119, 47.270732, 4.07], [-2.14024, 47.27068, 4.09], [-2.140352, 47.270619, 4.11], [-2.140456, 47.270556, 4.12], [-2.140647, 47.270514, 4.15], [-2.140778, 47.270496, 4.16], [-2.140969, 47.270467, 4.18], [-2.141104, 47.270445, 4.2], [-2.141296, 47.270419, 4.22], [-2.141432, 47.270425, 4.24], [-2.141557, 47.270516, 4.32], [-2.141448, 47.270641, 4.44], [-2.141483, 47.270747, 4.53], [-2.1416, 47.270689, 4.62], [-2.141622, 47.270587, 4.7], [-2.141774, 47.270521, 4.81], [-2.141931, 47.270464, 4.91], [-2.142103, 47.270417, 5.01], [-2.142296, 47.270411, 5.12], [-2.142466, 47.270446, 5.23], [-2.142645, 47.270494, 5.33], [-2.142766, 47.270532, 5.41], [-2.142893, 47.270606, 5.51], [-2.143099, 47.270651, 5.63], [-2.143295, 47.270617, 5.74], [-2.143459, 47.270605, 5.76], [-2.143626, 47.27056, 5.78], [-2.143808, 47.270521, 5.79], [-2.143968, 47.270454, 5.8], [-2.144123, 47.27038, 5.82], [-2.144241, 47.27033, 5.82], [-2.144362, 47.270277, 5.83], [-2.144479, 47.270225, 5.84], [-2.144596, 47.270179, 5.85], [-2.144731, 47.270141, 5.86], [-2.144873, 47.27012, 5.87], [-2.145109, 47.27008, 5.89], [-2.145256, 47.270055, 5.9], [-2.145422, 47.270029, 5.91], [-2.145547, 47.269978, 5.92], [-2.145678, 47.269943, 5.93], [-2.145826, 47.26992, 5.89], [-2.145976, 47.269911, 5.83], [-2.146149, 47.269891, 5.75], [-2.146324, 47.269837, 5.66], [-2.146454, 47.269806, 5.6], [-2.146587, 47.269778, 5.54], [-2.146721, 47.269748, 5.48], [-2.146855, 47.269717, 5.42], [-2.146979, 47.269671, 5.36], [-2.147096, 47.269617, 5.29], [-2.147198, 47.269554, 5.23], [-2.147316, 47.269506, 5.17], [-2.147449, 47.269469, 5.11], [-2.147575, 47.269439, 5.05], [-2.147705, 47.269419, 4.99], [-2.147833, 47.269396, 4.93], [-2.147969, 47.26938, 4.87], [-2.148107, 47.269375, 4.81], [-2.148252, 47.269375, 4.76], [-2.148402, 47.269391, 4.72], [-2.148554, 47.269402, 4.67], [-2.148707, 47.269412, 4.63], [-2.148852, 47.269384, 4.59], [-2.148994, 47.26935, 4.55], [-2.149135, 47.269327, 4.51], [-2.149284, 47.269303, 4.47], [-2.14943, 47.269283, 4.43], [-2.14957, 47.269264, 4.39], [-2.14971, 47.269244, 4.35], [-2.149849, 47.269209, 4.31], [-2.149892, 47.269112, 4.27], [-2.149902, 47.269021, 4.23], [-2.149902, 47.268931, 4.2], [-2.149951, 47.268847, 4.16], [-2.150001, 47.268749, 4.12], [-2.150209, 47.268899, 4.06], [-2.150182, 47.268989, 4.1], [-2.15015, 47.269109, 4.15], [-2.150133, 47.269215, 4.2], [-2.150212, 47.269311, 4.24], [-2.150327, 47.269381, 4.29], [-2.150417, 47.269454, 4.33], [-2.150547, 47.269502, 4.37], [-2.150712, 47.269529, 4.42], [-2.150893, 47.269539, 4.47], [-2.151078, 47.269556, 4.52], [-2.151268, 47.269569, 4.57], [-2.151455, 47.269586, 4.63], [-2.151645, 47.269616, 4.68], [-2.151759, 47.269666, 4.72], [-2.15192, 47.269745, 4.78], [-2.152089, 47.269813, 4.83], [-2.152096, 47.269801, 2.33], [-2.152227, 47.269817, 2.19], [-2.152697, 47.269826, 1.78], [-2.152992, 47.269819, 1.73], [-2.153253, 47.269786, 1.92], [-2.154295, 47.269775, 1.28], [-2.154411, 47.269759, 1.14], [-2.154495, 47.269735, 1.04], [-2.155374, 47.269663, 2.6], [-2.15846, 47.269374, 2.84], [-2.158459, 47.269371, 5.52], [-2.158625, 47.269308, 5.47], [-2.158741, 47.26926, 5.43], [-2.158873, 47.269232, 5.39], [-2.159029, 47.269166, 5.33], [-2.1592, 47.269153, 5.28], [-2.159363, 47.269145, 5.24], [-2.159532, 47.269125, 5.21], [-2.159712, 47.269112, 5.18], [-2.159891, 47.269093, 5.15], [-2.16007, 47.269072, 5.12], [-2.160229, 47.269018, 5.09], [-2.160381, 47.268959, 5.07], [-2.160546, 47.268909, 5.04], [-2.160694, 47.268855, 5.01], [-2.160835, 47.268807, 4.99], [-2.160975, 47.268759, 4.96], [-2.161102, 47.268717, 4.94], [-2.161237, 47.268651, 4.92], [-2.161227, 47.268538, 4.89], [-2.161164, 47.268425, 4.86], [-2.161131, 47.26832, 4.84], [-2.161129, 47.268217, 4.81], [-2.161083, 47.268118, 4.83], [-2.161048, 47.26801, 4.85], [-2.16105, 47.2679, 4.87], [-2.161044, 47.267789, 4.89], [-2.161075, 47.267666, 4.91], [-2.161048, 47.267543, 4.93], [-2.161008, 47.267422, 4.95], [-2.160999, 47.267304, 4.97], [-2.161058, 47.267212, 4.99], [-2.161218, 47.267189, 5.01], [-2.161384, 47.26718, 5.03], [-2.161552, 47.267144, 5.05], [-2.161724, 47.267122, 5.07], [-2.161906, 47.267101, 5.09], [-2.162054, 47.267091, 5.1], [-2.162231, 47.26709, 5.13], [-2.162388, 47.267079, 5.16], [-2.162538, 47.26709, 5.19], [-2.162599, 47.267192, 5.22], [-2.162571, 47.267283, 5.25], [-2.162529, 47.267412, 5.28], [-2.162508, 47.267506, 5.31], [-2.1625, 47.267599, 5.34], [-2.162483, 47.26769, 5.36], [-2.162478, 47.26778, 5.39], [-2.162427, 47.267904, 5.42], [-2.162471, 47.268003, 5.45], [-2.162628, 47.268001, 5.48], [-2.162793, 47.267964, 5.52], [-2.162969, 47.267947, 5.55], [-2.163153, 47.267947, 5.59], [-2.163333, 47.267958, 5.62], [-2.163517, 47.267966, 5.64], [-2.163689, 47.267982, 5.67], [-2.163845, 47.267999, 5.68], [-2.164312, 47.268024, 5.74], [-2.164483, 47.26804, 5.76], [-2.164662, 47.268053, 5.78], [-2.164846, 47.268062, 5.81], [-2.16503, 47.268077, 5.83], [-2.165218, 47.268088, 5.85], [-2.165404, 47.268099, 5.87], [-2.165594, 47.268113, 5.9], [-2.165729, 47.268124, 5.91], [-2.165921, 47.268137, 5.94], [-2.166052, 47.268151, 5.94], [-2.166239, 47.268164, 5.94], [-2.166371, 47.268176, 5.94], [-2.166559, 47.268189, 5.94], [-2.166731, 47.268212, 5.94], [-2.166881, 47.268242, 5.94], [-2.166988, 47.268307, 5.94], [-2.166948, 47.268397, 5.94], [-2.166973, 47.268486, 5.94], [-2.166971, 47.268606, 5.94], [-2.166955, 47.268696, 5.94], [-2.166951, 47.268791, 5.94], [-2.167089, 47.268791, 5.94], [-2.167242, 47.268779, 5.94], [-2.167294, 47.268679, 5.94], [-2.167318, 47.268576, 5.94], [-2.167316, 47.268468, 5.94], [-2.167289, 47.268366, 5.94], [-2.167299, 47.268277, 5.94]]}, "properties": {"name": "🚲 Loire à Vélo 2026 - Étape 6 - Paimboeuf ➡️ L'océan", "source_file": "acte-3_etape-6_paimboeuf_saint-brevin-les-pins.gpx", "point_count": 658, "distance_km": 12.22, "duration_s": 3427, "elevation_gain_m": 25.8, "elevation_loss_m": 26.0}}]}
