{"type":"FeatureCollection","features":[{"type":"Feature","geometry":{"type":"LineString","coordinates":[[2.267609,48.81763],[2.267621,48.816967],[2.266832,48.816076],[2.267051,48.815418],[2.267681,48.815127],[2.268891,48.814169],[2.270174,48.814167],[2.270187,48.813789],[2.270315,48.813743],[2.272141,48.813911],[2.272278,48.813742],[2.272162,48.813316],[2.273016,48.812742],[2.273524,48.81275],[2.275934,48.813797],[2.277913,48.814173],[2.278467,48.814061],[2.279023,48.814325],[2.285001,48.815473],[2.286789,48.814777],[2.287774,48.814558],[2.288196,48.814219],[2.291211,48.813007],[2.293972,48.812264],[2.29402,48.812133],[2.293536,48.811831],[2.292697,48.81068],[2.292974,48.810093],[2.294834,48.810075],[2.294605,48.810036],[2.294589,48.809496],[2.295865,48.809394],[2.297862,48.809722],[2.298412,48.809309],[2.298252,48.807545],[2.294969,48.804808],[2.295232,48.804285],[2.294756,48.803996],[2.294437,48.803012],[2.294787,48.8022],[2.295906,48.800922],[2.295861,48.80052],[2.296079,48.80034],[2.295763,48.798978],[2.295795,48.798024],[2.296765,48.797649],[2.294676,48.795628],[2.294559,48.795441],[2.294667,48.79519],[2.294374,48.79466],[2.293215,48.793586],[2.292685,48.79192],[2.292137,48.79143],[2.29179,48.790418],[2.291748,48.789749],[2.291433,48.789459],[2.291595,48.789095],[2.290903,48.788806],[2.291246,48.788364],[2.290498,48.787924],[2.290744,48.787591],[2.290321,48.787318],[2.289279,48.785606],[2.28866,48.785141],[2.287877,48.783718],[2.287534,48.783325],[2.287197,48.78328],[2.286845,48.782822],[2.28738,48.781818],[2.28691,48.781649],[2.286815,48.781409],[2.287036,48.780732],[2.286615,48.780443],[2.286112,48.777007],[2.285989,48.776517],[2.285707,48.776204],[2.285389,48.772956],[2.284795,48.771875],[2.285073,48.770898],[2.285029,48.769194],[2.285006,48.768885],[2.284692,48.768503],[2.284652,48.766722],[2.284692,48.765872],[2.284937,48.765652],[2.28501,48.764895],[2.284854,48.764336],[2.284862,48.763209],[2.285038,48.762053],[2.284706,48.761569],[2.284941,48.760447],[2.284688,48.760026],[2.284536,48.760335],[2.2843,48.760223],[2.284432,48.759728],[2.284635,48.75955],[2.284169,48.756638],[2.284663,48.755948],[2.284545,48.755529],[2.283987,48.754673],[2.283412,48.75312],[2.282577,48.751729],[2.281988,48.751307],[2.281394,48.751129],[2.279829,48.748871],[2.27897,48.748406],[2.278591,48.747644],[2.277986,48.747371],[2.278301,48.747025],[2.278219,48.746643],[2.277391,48.746379],[2.277377,48.74624],[2.278031,48.74529],[2.277955,48.745081],[2.277407,48.744617],[2.275385,48.741352],[2.274759,48.740875],[2.274781,48.74048],[2.274534,48.740069],[2.27476,48.740164],[2.274646,48.739841],[2.272476,48.736211],[2.272271,48.73612],[2.271798,48.735338],[2.271925,48.735129],[2.27219,48.735176],[2.272371,48.735534],[2.272064,48.735072],[2.271815,48.73529],[2.271058,48.734769],[2.270773,48.734759],[2.270482,48.734457],[2.27079,48.734353],[2.271253,48.73354],[2.271341,48.732334],[2.271801,48.731052],[2.271968,48.731077],[2.27227,48.730433],[2.272151,48.730083],[2.272797,48.728926],[2.273039,48.727595],[2.273389,48.72748],[2.274173,48.727581],[2.282666,48.725625],[2.285607,48.72408],[2.286506,48.723444],[2.286738,48.723098],[2.287144,48.723153],[2.288984,48.721292],[2.292302,48.718776],[2.294726,48.717519],[2.294959,48.717524],[2.295168,48.717235],[2.297709,48.715698],[2.298551,48.715582],[2.298755,48.715343],[2.298316,48.714485],[2.296913,48.704334],[2.297098,48.704098],[2.296817,48.703811],[2.296134,48.699582],[2.29542,48.698139],[2.294602,48.698254],[2.294042,48.697606],[2.293728,48.697464],[2.292215,48.697417],[2.291937,48.695422],[2.292379,48.694907],[2.291362,48.693454],[2.29095,48.692513],[2.289775,48.691445],[2.287824,48.688628],[2.287405,48.688304],[2.287468,48.688176],[2.286145,48.686046],[2.281443,48.673836],[2.281348,48.673482],[2.28147,48.673374],[2.280184,48.670568],[2.280064,48.669841],[2.279575,48.669075],[2.274992,48.657253],[2.272984,48.651616],[2.26977,48.643929],[2.271346,48.642882],[2.272076,48.64194],[2.272112,48.641148],[2.271672,48.640605],[2.270766,48.638751],[2.271687,48.638317],[2.271701,48.637983],[2.270029,48.635808],[2.268507,48.634624],[2.26693,48.633773],[2.266515,48.632921],[2.266467,48.632168],[2.266153,48.631838],[2.266699,48.631474],[2.268064,48.631052],[2.267563,48.630316],[2.267956,48.629092],[2.267934,48.628644],[2.26766,48.628264],[2.266989,48.627825],[2.267218,48.627312],[2.266484,48.625859],[2.266259,48.62576],[2.267043,48.622358],[2.267002,48.621771],[2.266539,48.620614],[2.266813,48.620206],[2.266696,48.619966],[2.267101,48.619679],[2.267095,48.619365],[2.2679,48.618417],[2.267657,48.618149],[2.26776,48.617806],[2.267266,48.617016],[2.268283,48.616361],[2.268355,48.616135],[2.268107,48.615789],[2.268891,48.615162],[2.26869,48.614604],[2.268735,48.613356],[2.268043,48.612472],[2.267576,48.612225],[2.267255,48.612272],[2.265362,48.610434],[2.264877,48.609369],[2.263249,48.607288],[2.262525,48.60591],[2.261639,48.605052],[2.261725,48.604865],[2.261247,48.604608],[2.261195,48.603707],[2.261621,48.601446],[2.261333,48.600885],[2.262157,48.599733],[2.262124,48.599142],[2.261792,48.598886],[2.261674,48.598503],[2.262062,48.597076],[2.26164,48.596449],[2.261522,48.595653],[2.260925,48.595134],[2.259247,48.594444],[2.258825,48.593769],[2.257064,48.592936],[2.257417,48.592238],[2.253909,48.591475],[2.254484,48.590165],[2.25274,48.589667],[2.251528,48.587514],[2.248712,48.587274],[2.249006,48.582796],[2.248896,48.581776],[2.250026,48.580465],[2.250211,48.578654],[2.249755,48.577477],[2.247703,48.573878],[2.247422,48.573712],[2.246756,48.572053],[2.247004,48.569988],[2.246656,48.567294],[2.2471,48.565939],[2.247122,48.564655],[2.246383,48.563214],[2.246687,48.56165],[2.245281,48.561286],[2.245549,48.559913],[2.244826,48.55885],[2.244216,48.556055],[2.244278,48.555104],[2.241626,48.551642],[2.24123,48.54779],[2.240015,48.545594],[2.240683,48.545199],[2.240722,48.544871],[2.241022,48.544506],[2.240704,48.542687],[2.239829,48.541466],[2.240404,48.541367],[2.239824,48.540241],[2.240746,48.540152],[2.239754,48.538712],[2.24263,48.537504],[2.243759,48.537352],[2.246468,48.536333],[2.249052,48.535858],[2.250524,48.535853],[2.252235,48.536081],[2.253833,48.535729],[2.255046,48.535139],[2.256357,48.533931],[2.25791,48.532855],[2.258813,48.53248],[2.255537,48.530367],[2.256154,48.530389],[2.257824,48.529792],[2.260663,48.529353],[2.264747,48.528203],[2.265114,48.527978],[2.265914,48.526765],[2.266253,48.525412],[2.266517,48.524993],[2.265926,48.524651],[2.263245,48.523723],[2.26475,48.522672],[2.265138,48.522763],[2.266627,48.52169],[2.270638,48.519585],[2.27048,48.518869],[2.269426,48.517448],[2.268043,48.516605],[2.268842,48.515863],[2.269216,48.515206],[2.269633,48.514138],[2.269653,48.513531],[2.270405,48.512423],[2.270284,48.511705],[2.270783,48.510704],[2.269872,48.508513],[2.268676,48.507884],[2.268369,48.506219],[2.268733,48.506069],[2.270899,48.50392],[2.271311,48.503095],[2.272548,48.502201],[2.274949,48.501116],[2.277968,48.500375],[2.278502,48.499932],[2.280456,48.501306],[2.280878,48.501875],[2.280699,48.501546],[2.28091,48.500608],[2.281921,48.498573],[2.283187,48.496905],[2.283075,48.496583],[2.282255,48.496092],[2.282068,48.495212],[2.280824,48.493648],[2.28065,48.492988],[2.28541,48.488862],[2.289363,48.487167],[2.289986,48.487228],[2.2926,48.486842],[2.294941,48.485694],[2.297751,48.485556],[2.297392,48.485033],[2.297337,48.484004],[2.298185,48.483286],[2.297761,48.481794],[2.298436,48.481404],[2.296849,48.478707],[2.29594,48.477785],[2.297344,48.477122],[2.299484,48.475793],[2.300642,48.474652],[2.300216,48.474094],[2.298586,48.472805],[2.297818,48.472723],[2.298456,48.472464]]},"properties":{"name":"Châtillon ➡️ Boissy-le-Cutté","source_file":"acte-1_etape-1_chatillon_boissy-le-cutte.gpx","point_count":362,"distance_km":50.28,"duration_s":11400,"elevation_gain_m":670,"elevation_loss_m":683}}]}