{"type": "FeatureCollection", "features": [{"type": "Feature", "geometry": {"type": "LineString", "coordinates": [[-0.569513, 47.469347, 16.71], [-0.569385, 47.469403, 16.71], [-0.569246, 47.469492, 16.71], [-0.569137, 47.469551, 16.71], [-0.569039, 47.469618, 16.71], [-0.568935, 47.469689, 16.71], [-0.568794, 47.469737, 16.71], [-0.568649, 47.469698, 16.71], [-0.56852, 47.469658, 16.71], [-0.568388, 47.469634, 16.71], [-0.568254, 47.469604, 16.68], [-0.56812, 47.469587, 16.66], [-0.567988, 47.46957, 16.64], [-0.567791, 47.469561, 16.6], [-0.567595, 47.469562, 16.57], [-0.567458, 47.469565, 16.54], [-0.567305, 47.469574, 16.52], [-0.567159, 47.469581, 16.49], [-0.567012, 47.469607, 16.47], [-0.566888, 47.469643, 16.44], [-0.566757, 47.469673, 16.42], [-0.566631, 47.469704, 16.39], [-0.566453, 47.469756, 16.36], [-0.5663, 47.469835, 16.33], [-0.566143, 47.469911, 16.29], [-0.565992, 47.469989, 16.26], [-0.56587, 47.470083, 16.31], [-0.565722, 47.470168, 16.4], [-0.565584, 47.470253, 16.49], [-0.565459, 47.470357, 16.58], [-0.565189, 47.470516, 16.74], [-0.565038, 47.470607, 16.84], [-0.56487, 47.470649, 16.92], [-0.564725, 47.470603, 17.0], [-0.564561, 47.470619, 17.07], [-0.564446, 47.470676, 17.14], [-0.564304, 47.470715, 17.21], [-0.564202, 47.470778, 17.27], [-0.564097, 47.470873, 17.36], [-0.564028, 47.470982, 17.44], [-0.563959, 47.471091, 17.49], [-0.563863, 47.471176, 17.5], [-0.563747, 47.471255, 17.51], [-0.563748, 47.471355, 17.53], [-0.563837, 47.471436, 17.54], [-0.563824, 47.47153, 17.55], [-0.563681, 47.471617, 17.56], [-0.563551, 47.471703, 17.58], [-0.563228, 47.471933, 17.61], [-0.563126, 47.472014, 17.62], [-0.563038, 47.472098, 17.63], [-0.562701, 47.47231, 17.67], [-0.562608, 47.472374, 17.68], [-0.562479, 47.472477, 17.69], [-0.562386, 47.472551, 17.69], [-0.56229, 47.47262, 17.69], [-0.562198, 47.472691, 17.7], [-0.562071, 47.472747, 17.7], [-0.561966, 47.472824, 17.7], [-0.561833, 47.472756, 17.71], [-0.561752, 47.472661, 17.71], [-0.561706, 47.472575, 17.71], [-0.56136, 47.47239, 17.72], [-0.561232, 47.47232, 17.73], [-0.561104, 47.472283, 17.73], [-0.560834, 47.472443, 17.74], [-0.560704, 47.472533, 17.74], [-0.560566, 47.472624, 17.78], [-0.560435, 47.472708, 17.83], [-0.560334, 47.472779, 17.87], [-0.560223, 47.472855, 17.91], [-0.560077, 47.472927, 17.96], [-0.559949, 47.473013, 18.0], [-0.559844, 47.473083, 18.04], [-0.559737, 47.473155, 18.08], [-0.559582, 47.473198, 18.13], [-0.559322, 47.473401, 18.23], [-0.559205, 47.473484, 18.28], [-0.559091, 47.473552, 18.32], [-0.558974, 47.473623, 18.36], [-0.558844, 47.473713, 18.41], [-0.558774, 47.473797, 18.45], [-0.558702, 47.473883, 18.5], [-0.558608, 47.473962, 18.55], [-0.558528, 47.474048, 18.61], [-0.558437, 47.474165, 18.68], [-0.558357, 47.47426, 18.73], [-0.558188, 47.474559, 18.9], [-0.558151, 47.47467, 18.96], [-0.558089, 47.474781, 19.03], [-0.557993, 47.474883, 19.09], [-0.557925, 47.47498, 19.15], [-0.557817, 47.475069, 19.21], [-0.55773, 47.475174, 19.27], [-0.557661, 47.475283, 19.33], [-0.557583, 47.475412, 19.4], [-0.557492, 47.475525, 19.4], [-0.557406, 47.475646, 19.39], [-0.557319, 47.475761, 19.39], [-0.557236, 47.475885, 19.38], [-0.557143, 47.475996, 19.38], [-0.557076, 47.476109, 19.37], [-0.55699, 47.476228, 19.37], [-0.556909, 47.476346, 19.36], [-0.55683, 47.476468, 19.36], [-0.556746, 47.476571, 19.35], [-0.556675, 47.476694, 19.35], [-0.556593, 47.476802, 19.34], [-0.556512, 47.476906, 19.34], [-0.556444, 47.47702, 19.34], [-0.556363, 47.477134, 19.41], [-0.556281, 47.477247, 19.48], [-0.55621, 47.47736, 19.55], [-0.556164, 47.477459, 19.61], [-0.555901, 47.47784, 19.85], [-0.555821, 47.477925, 19.91], [-0.555766, 47.478013, 19.96], [-0.555693, 47.478091, 20.02], [-0.555606, 47.478177, 20.07], [-0.555447, 47.478246, 20.15], [-0.555415, 47.478359, 20.21], [-0.555484, 47.478466, 20.28], [-0.555459, 47.478588, 20.35], [-0.55538, 47.478709, 20.41], [-0.555347, 47.478811, 20.45], [-0.555346, 47.478948, 20.51], [-0.555337, 47.479071, 20.55], [-0.55539, 47.479188, 20.6], [-0.555446, 47.479273, 20.64], [-0.555481, 47.479401, 20.69], [-0.5554, 47.479503, 20.74], [-0.5553, 47.47961, 20.79], [-0.55522, 47.479702, 20.83], [-0.555149, 47.479791, 20.87], [-0.555061, 47.479884, 20.91], [-0.554974, 47.479969, 20.96], [-0.554878, 47.480056, 21.0], [-0.554772, 47.480131, 21.04], [-0.554669, 47.480237, 21.06], [-0.554529, 47.4803, 20.95], [-0.554409, 47.480388, 20.82], [-0.554351, 47.480492, 20.71], [-0.554243, 47.480583, 20.59], [-0.554075, 47.480701, 20.42], [-0.553967, 47.480757, 20.32], [-0.553918, 47.480941, 20.13], [-0.553895, 47.481039, 20.03], [-0.553915, 47.48117, 19.89], [-0.553828, 47.481294, 19.75], [-0.553744, 47.481403, 19.63], [-0.553661, 47.481517, 19.5], [-0.55358, 47.481628, 19.37], [-0.553506, 47.481745, 19.24], [-0.553399, 47.481852, 19.23], [-0.553324, 47.48195, 19.22], [-0.553245, 47.482051, 19.22], [-0.553179, 47.482149, 19.21], [-0.55304, 47.482385, 19.2], [-0.552984, 47.482483, 19.2], [-0.552921, 47.482588, 19.19], [-0.552857, 47.482694, 19.19], [-0.552793, 47.482804, 19.18], [-0.552724, 47.48291, 19.18], [-0.552667, 47.483021, 19.17], [-0.552605, 47.483135, 19.17], [-0.552545, 47.483253, 19.16], [-0.552466, 47.483363, 19.16], [-0.552381, 47.48347, 19.14], [-0.552316, 47.483586, 19.11], [-0.55224, 47.483696, 19.09], [-0.552176, 47.483809, 19.06], [-0.552099, 47.483918, 19.04], [-0.552005, 47.484031, 19.01], [-0.551925, 47.484141, 18.99], [-0.551836, 47.484245, 18.96], [-0.551757, 47.484356, 18.94], [-0.551682, 47.484463, 18.92], [-0.551616, 47.484562, 18.89], [-0.55158, 47.484664, 18.87], [-0.551535, 47.484761, 18.85], [-0.55145, 47.484862, 18.83], [-0.55137, 47.484976, 18.8], [-0.551282, 47.48509, 18.82], [-0.551203, 47.485203, 18.86], [-0.551108, 47.485308, 18.89], [-0.551016, 47.485418, 18.94], [-0.550941, 47.485527, 18.97], [-0.550851, 47.485641, 19.01], [-0.550768, 47.485749, 19.05], [-0.550692, 47.485848, 19.09], [-0.550597, 47.485954, 19.13], [-0.550508, 47.486051, 19.16], [-0.550436, 47.486152, 19.2], [-0.550348, 47.486256, 19.24], [-0.550263, 47.486367, 19.28], [-0.550177, 47.486469, 19.31], [-0.550055, 47.486575, 19.36], [-0.549948, 47.486684, 19.4], [-0.549853, 47.486787, 19.44], [-0.549759, 47.48691, 19.49], [-0.549671, 47.487013, 19.53], [-0.549589, 47.487125, 19.57], [-0.54952, 47.487231, 19.61], [-0.549432, 47.487346, 19.66], [-0.549331, 47.48745, 19.7], [-0.549242, 47.487548, 19.74], [-0.549143, 47.487626, 19.77], [-0.549045, 47.487736, 19.82], [-0.548946, 47.487846, 19.86], [-0.548834, 47.487952, 19.91], [-0.548752, 47.488056, 19.95], [-0.548652, 47.488152, 19.96], [-0.548565, 47.488254, 19.89], [-0.548479, 47.488371, 19.81], [-0.548378, 47.488489, 19.72], [-0.548296, 47.488607, 19.64], [-0.548222, 47.488732, 19.55], [-0.548146, 47.488855, 19.47], [-0.548078, 47.488963, 19.39], [-0.548017, 47.48908, 19.31], [-0.547933, 47.489193, 19.23], [-0.547852, 47.489304, 19.15], [-0.547774, 47.489419, 19.07], [-0.547681, 47.489528, 18.99], [-0.547602, 47.489625, 18.92], [-0.547532, 47.489721, 18.85], [-0.547466, 47.489814, 18.78], [-0.547384, 47.489934, 18.69], [-0.547228, 47.489959, 18.61], [-0.547106, 47.490043, 18.53], [-0.54698, 47.490127, 18.44], [-0.546989, 47.490323, 18.3], [-0.5471, 47.490378, 18.24], [-0.546946, 47.490408, 18.16], [-0.54681, 47.490491, 18.07], [-0.546689, 47.49054, 18.0], [-0.546585, 47.490609, 17.93], [-0.546465, 47.490694, 17.85], [-0.546337, 47.490777, 17.76], [-0.546226, 47.490861, 17.68], [-0.546111, 47.49094, 17.61], [-0.54599, 47.491022, 17.55], [-0.54587, 47.4911, 17.55], [-0.545741, 47.491186, 17.54], [-0.545619, 47.491276, 17.53], [-0.545492, 47.491362, 17.52], [-0.545365, 47.491455, 17.52], [-0.545259, 47.491557, 17.51], [-0.545152, 47.491646, 17.5], [-0.54503, 47.49174, 17.49], [-0.544912, 47.491831, 17.49], [-0.544786, 47.491911, 17.48], [-0.544686, 47.491996, 17.47], [-0.544603, 47.492085, 17.47], [-0.544468, 47.492184, 17.46], [-0.54435, 47.492273, 17.45], [-0.544231, 47.492356, 17.44], [-0.544136, 47.492437, 17.42], [-0.54403, 47.492501, 17.4], [-0.54387, 47.492561, 17.37], [-0.543746, 47.492594, 17.35], [-0.543699, 47.492689, 17.33], [-0.543611, 47.492765, 17.31], [-0.543562, 47.492885, 17.29], [-0.543526, 47.49298, 17.27], [-0.54347, 47.493069, 17.25], [-0.543437, 47.493173, 17.22], [-0.543295, 47.493207, 17.2], [-0.543465, 47.493338, 17.17], [-0.54348, 47.493458, 17.14], [-0.543508, 47.493567, 17.12], [-0.543546, 47.493687, 17.09], [-0.543649, 47.493799, 17.06], [-0.543776, 47.4939, 17.01], [-0.543827, 47.493995, 16.98], [-0.543877, 47.494081, 16.95], [-0.543933, 47.494164, 16.91], [-0.54401, 47.494253, 16.88], [-0.544087, 47.494347, 16.84], [-0.544166, 47.494442, 16.8], [-0.544231, 47.494529, 16.77], [-0.544293, 47.494612, 16.73], [-0.544366, 47.4947, 16.7], [-0.544415, 47.494793, 16.66], [-0.544496, 47.494884, 16.62], [-0.5446, 47.494968, 16.59], [-0.544694, 47.49506, 16.55], [-0.544797, 47.495148, 16.51], [-0.54489, 47.495235, 16.47], [-0.544996, 47.495309, 16.44], [-0.545063, 47.495406, 16.45], [-0.545139, 47.49549, 16.46], [-0.545216, 47.495593, 16.48], [-0.545311, 47.495689, 16.49], [-0.545416, 47.495783, 16.51], [-0.545551, 47.495859, 16.52], [-0.54568, 47.49594, 16.54], [-0.54579, 47.496032, 16.55], [-0.545928, 47.496114, 16.56], [-0.54607, 47.496205, 16.58], [-0.546189, 47.496304, 16.6], [-0.546304, 47.496398, 16.61], [-0.546408, 47.496488, 16.63], [-0.546511, 47.496575, 16.64], [-0.54661, 47.496648, 16.65], [-0.546689, 47.496727, 16.71], [-0.546747, 47.49682, 16.8], [-0.546836, 47.496906, 16.91], [-0.546911, 47.496981, 16.99], [-0.547009, 47.497064, 17.1], [-0.547085, 47.497166, 17.21], [-0.547156, 47.497268, 17.32], [-0.547208, 47.497381, 17.43], [-0.547271, 47.497489, 17.55], [-0.547345, 47.497596, 17.66], [-0.547406, 47.497707, 17.78], [-0.547479, 47.497811, 17.89], [-0.547635, 47.497882, 18.01], [-0.547755, 47.497976, 18.13], [-0.547877, 47.49807, 18.25], [-0.548011, 47.498131, 18.36], [-0.548188, 47.49819, 18.41], [-0.548312, 47.498228, 18.42], [-0.548446, 47.49828, 18.42], [-0.548569, 47.498334, 18.43], [-0.54869, 47.498388, 18.43], [-0.548842, 47.498466, 18.44], [-0.548986, 47.498529, 18.44], [-0.549081, 47.498594, 18.45], [-0.549191, 47.498665, 18.46], [-0.549302, 47.498731, 18.46], [-0.549413, 47.498797, 18.47], [-0.54952, 47.498876, 18.47], [-0.549647, 47.498942, 18.48], [-0.54976, 47.49902, 18.48], [-0.549885, 47.499093, 18.49], [-0.550005, 47.499172, 18.5], [-0.55013, 47.499248, 18.5], [-0.550248, 47.499333, 18.5], [-0.550381, 47.499419, 18.5], [-0.550522, 47.499493, 18.5], [-0.550669, 47.499566, 18.5], [-0.550819, 47.49962, 18.49], [-0.55096, 47.49967, 18.49], [-0.551117, 47.499711, 18.49], [-0.551284, 47.499723, 18.49], [-0.551448, 47.499734, 18.49], [-0.551612, 47.499755, 18.49], [-0.551776, 47.499783, 18.48], [-0.551939, 47.499814, 18.48], [-0.552106, 47.499845, 18.48], [-0.552271, 47.49989, 18.48], [-0.552426, 47.499942, 18.48], [-0.552573, 47.499991, 18.48], [-0.552703, 47.50006, 18.47], [-0.55284, 47.500135, 18.47], [-0.552972, 47.500207, 18.47], [-0.553106, 47.50027, 18.47], [-0.55326, 47.500317, 18.46], [-0.553423, 47.500338, 18.46], [-0.553583, 47.500366, 18.46], [-0.553732, 47.500407, 18.46], [-0.55387, 47.500456, 18.45], [-0.554008, 47.500512, 18.45], [-0.554114, 47.500593, 18.45], [-0.554188, 47.500688, 18.45], [-0.554267, 47.500787, 18.44], [-0.554352, 47.500887, 18.44], [-0.554458, 47.500985, 18.44], [-0.554532, 47.501093, 18.44], [-0.554603, 47.501199, 18.47], [-0.554662, 47.501307, 18.5], [-0.554737, 47.501411, 18.52], [-0.554807, 47.501521, 18.55], [-0.554876, 47.501625, 18.58], [-0.554937, 47.501726, 18.6], [-0.554997, 47.501832, 18.63], [-0.555083, 47.501933, 18.65], [-0.555231, 47.50198, 18.68], [-0.555395, 47.501984, 18.7], [-0.555563, 47.501964, 18.73], [-0.555751, 47.501953, 18.76], [-0.555887, 47.50187, 18.79], [-0.55602, 47.501767, 18.82], [-0.55617, 47.501671, 18.84], [-0.556327, 47.501602, 18.82], [-0.556496, 47.501512, 18.8], [-0.556651, 47.501461, 18.78], [-0.556804, 47.501411, 18.76], [-0.556971, 47.501385, 18.74], [-0.557158, 47.501379, 18.72], [-0.557342, 47.501416, 18.7], [-0.557533, 47.50144, 18.68], [-0.55772, 47.501487, 18.66], [-0.557912, 47.501507, 18.64], [-0.558108, 47.501532, 18.61], [-0.558284, 47.501563, 18.59], [-0.558481, 47.501606, 18.57], [-0.558668, 47.501665, 18.52], [-0.558834, 47.501742, 18.36], [-0.558995, 47.50181, 18.22], [-0.559145, 47.501893, 18.07], [-0.559278, 47.501983, 17.93], [-0.559398, 47.502074, 17.79], [-0.559505, 47.502168, 17.65], [-0.559611, 47.50226, 17.52], [-0.559686, 47.502359, 17.4], [-0.559765, 47.502445, 17.28], [-0.559832, 47.502526, 17.18], [-0.559911, 47.502617, 17.06], [-0.559986, 47.502719, 16.93], [-0.56003, 47.502819, 16.81], [-0.560014, 47.502916, 16.7], [-0.560154, 47.502914, 16.6], [-0.560318, 47.50287, 16.53], [-0.560442, 47.50292, 16.55], [-0.560382, 47.503015, 16.58], [-0.560253, 47.50304, 16.6], [-0.560093, 47.503095, 16.62], [-0.559977, 47.503141, 16.64], [-0.559862, 47.503194, 16.66], [-0.559732, 47.503235, 16.68], [-0.559613, 47.503285, 16.7], [-0.559484, 47.503322, 16.72], [-0.559342, 47.503375, 16.74], [-0.559228, 47.503422, 16.76], [-0.559108, 47.503463, 16.78], [-0.558881, 47.503493, 16.81], [-0.558745, 47.503568, 16.84], [-0.558711, 47.503685, 16.86], [-0.558727, 47.503793, 16.89], [-0.558851, 47.503874, 16.91], [-0.559035, 47.503908, 16.94], [-0.559201, 47.503898, 16.96], [-0.559321, 47.503833, 16.98], [-0.559396, 47.503699, 17.01], [-0.559466, 47.503782, 17.03], [-0.559589, 47.503848, 17.06], [-0.55974, 47.503907, 17.08], [-0.559888, 47.503975, 17.11], [-0.560039, 47.504056, 17.13], [-0.56018, 47.504131, 17.16], [-0.560329, 47.504212, 17.19], [-0.560439, 47.504315, 17.21], [-0.560537, 47.504385, 17.23], [-0.560526, 47.504503, 17.26], [-0.56056, 47.504601, 17.28], [-0.560585, 47.50471, 17.35], [-0.560644, 47.504818, 17.43], [-0.560652, 47.504917, 17.5], [-0.560679, 47.505046, 17.58], [-0.560687, 47.505165, 17.66], [-0.560727, 47.505288, 17.74], [-0.560753, 47.505404, 17.82], [-0.560788, 47.505522, 17.9], [-0.560788, 47.505652, 17.98], [-0.560835, 47.505783, 18.07], [-0.560852, 47.505902, 18.15], [-0.560851, 47.506026, 18.23], [-0.560862, 47.506153, 18.32], [-0.560881, 47.506273, 18.4], [-0.560901, 47.506383, 18.46], [-0.560925, 47.506505, 18.44], [-0.56091, 47.506626, 18.42], [-0.560934, 47.506755, 18.4], [-0.560959, 47.506879, 18.38], [-0.560982, 47.507012, 18.36], [-0.560973, 47.507139, 18.34], [-0.56101, 47.507271, 18.32], [-0.56099, 47.507396, 18.3], [-0.561001, 47.50752, 18.28], [-0.561014, 47.507646, 18.26], [-0.561013, 47.507764, 18.25], [-0.561023, 47.507896, 18.23], [-0.561037, 47.508027, 18.21], [-0.561045, 47.508153, 18.19], [-0.56105, 47.50827, 18.25], [-0.561033, 47.508388, 18.32], [-0.561063, 47.508495, 18.39], [-0.561067, 47.508603, 18.46], [-0.561087, 47.508712, 18.53], [-0.561102, 47.508824, 18.6], [-0.561107, 47.508934, 18.67], [-0.561135, 47.509044, 18.74], [-0.561151, 47.509152, 18.8], [-0.561153, 47.509261, 18.87], [-0.561176, 47.509366, 18.94], [-0.561195, 47.509468, 19.0], [-0.561204, 47.509564, 19.06], [-0.5612, 47.509675, 19.13], [-0.561206, 47.509788, 19.2], [-0.561187, 47.509903, 19.27], [-0.561193, 47.510015, 19.3], [-0.561192, 47.510133, 19.29], [-0.561162, 47.510249, 19.29], [-0.561173, 47.51037, 19.28], [-0.561159, 47.510487, 19.28], [-0.561141, 47.510611, 19.27], [-0.561122, 47.510743, 19.27], [-0.561116, 47.510866, 19.26], [-0.561147, 47.510998, 19.25], [-0.561147, 47.511126, 19.25], [-0.561137, 47.511252, 19.24], [-0.561109, 47.511369, 19.24], [-0.561074, 47.511496, 19.23], [-0.561054, 47.511622, 19.22], [-0.561007, 47.511745, 19.21], [-0.560922, 47.51186, 19.15], [-0.560839, 47.511969, 19.09], [-0.560751, 47.512074, 19.02], [-0.560659, 47.512174, 18.96], [-0.560553, 47.512266, 18.9], [-0.560421, 47.512349, 18.84], [-0.560296, 47.512434, 18.78], [-0.560186, 47.512512, 18.73], [-0.560075, 47.512568, 18.68], [-0.559918, 47.512629, 18.62], [-0.559798, 47.512691, 18.56], [-0.559682, 47.512735, 18.52], [-0.559552, 47.512772, 18.47], [-0.559291, 47.512871, 18.37], [-0.559161, 47.512921, 18.31], [-0.559031, 47.512949, 18.26], [-0.55889, 47.512972, 18.2], [-0.558737, 47.512992, 18.14], [-0.558579, 47.513009, 18.07], [-0.55843, 47.513029, 18.01], [-0.55827, 47.513045, 17.94], [-0.558085, 47.51306, 17.87], [-0.557942, 47.513081, 17.81], [-0.557797, 47.513084, 17.75], [-0.557654, 47.513092, 17.69], [-0.55752, 47.5131, 17.63], [-0.557362, 47.513105, 17.57], [-0.557205, 47.513112, 17.51], [-0.557039, 47.513124, 17.44], [-0.556876, 47.513136, 17.37], [-0.556715, 47.513137, 17.3], [-0.556562, 47.513135, 17.24], [-0.556395, 47.513153, 17.21], [-0.556222, 47.513142, 17.22], [-0.556089, 47.513133, 17.23], [-0.555902, 47.513134, 17.24], [-0.555729, 47.513125, 17.25], [-0.555538, 47.513115, 17.26], [-0.555344, 47.513092, 17.27], [-0.555209, 47.51308, 17.28], [-0.555074, 47.513063, 17.28], [-0.554876, 47.513035, 17.29], [-0.554717, 47.513013, 17.3], [-0.554544, 47.512998, 17.31], [-0.554373, 47.512973, 17.32], [-0.554209, 47.512953, 17.33], [-0.554059, 47.512937, 17.34], [-0.553909, 47.512919, 17.35], [-0.553756, 47.512899, 17.36], [-0.553591, 47.51288, 17.37], [-0.553435, 47.512864, 17.38], [-0.553282, 47.51285, 17.39], [-0.553131, 47.512835, 17.41], [-0.552984, 47.512807, 17.42], [-0.552819, 47.51277, 17.43], [-0.552633, 47.512734, 17.45], [-0.552462, 47.512692, 17.46], [-0.552295, 47.512652, 17.48], [-0.552139, 47.512609, 17.49], [-0.551999, 47.512551, 17.5], [-0.551869, 47.512504, 17.51], [-0.55173, 47.512435, 17.53], [-0.551589, 47.512366, 17.54], [-0.551463, 47.512294, 17.55], [-0.551391, 47.512206, 17.58], [-0.55125, 47.512126, 17.64], [-0.551141, 47.512066, 17.68], [-0.551006, 47.511999, 17.73], [-0.550903, 47.511906, 17.78], [-0.550903, 47.511779, 17.84], [-0.550881, 47.511683, 17.88], [-0.550848, 47.511586, 17.92], [-0.550816, 47.511485, 17.97], [-0.550779, 47.511382, 18.01], [-0.550732, 47.511278, 18.06], [-0.550678, 47.511175, 18.11], [-0.550625, 47.511081, 18.15], [-0.55056, 47.510984, 18.2], [-0.550495, 47.510889, 18.24], [-0.550439, 47.510785, 18.29], [-0.550358, 47.510681, 18.34], [-0.55033, 47.510588, 18.31], [-0.550329, 47.510466, 18.26], [-0.550306, 47.510364, 18.23], [-0.550271, 47.510251, 18.18], [-0.550236, 47.510123, 18.13], [-0.550195, 47.509994, 18.08], [-0.550158, 47.509864, 18.04], [-0.550117, 47.509732, 17.98], [-0.550083, 47.509608, 17.94], [-0.550042, 47.509483, 17.89], [-0.550002, 47.509356, 17.84], [-0.549933, 47.509239, 17.79], [-0.54986, 47.509125, 17.75], [-0.549787, 47.509009, 17.7], [-0.549707, 47.508903, 17.67], [-0.549628, 47.508804, 17.68], [-0.549526, 47.508695, 17.68], [-0.549427, 47.508592, 17.69], [-0.549332, 47.508484, 17.69], [-0.549233, 47.508379, 17.69], [-0.549128, 47.508273, 17.7], [-0.549017, 47.508171, 17.7], [-0.548911, 47.508066, 17.71], [-0.548813, 47.50796, 17.71], [-0.548709, 47.507852, 17.72], [-0.548609, 47.507744, 17.72], [-0.548511, 47.50764, 17.72], [-0.548405, 47.507533, 17.73], [-0.548298, 47.50743, 17.73], [-0.548197, 47.507324, 17.68], [-0.548105, 47.507217, 17.62], [-0.548, 47.507114, 17.57], [-0.547904, 47.507007, 17.51], [-0.547802, 47.506899, 17.46], [-0.5477, 47.506786, 17.4], [-0.5476, 47.506679, 17.34], [-0.547511, 47.506567, 17.29], [-0.547432, 47.506456, 17.24], [-0.547368, 47.50634, 17.18], [-0.547315, 47.506214, 17.12], [-0.547247, 47.506087, 17.07], [-0.547175, 47.505969, 17.01], [-0.547074, 47.505866, 16.96], [-0.546944, 47.505775, 17.0], [-0.546795, 47.505694, 17.06], [-0.546627, 47.505608, 17.14], [-0.546501, 47.505514, 17.2], [-0.546362, 47.505443, 17.26], [-0.546232, 47.505362, 17.32], [-0.5461, 47.505284, 17.38], [-0.545966, 47.505211, 17.44], [-0.545828, 47.505132, 17.5], [-0.54565, 47.505072, 17.57], [-0.545511, 47.505006, 17.62], [-0.545353, 47.504939, 17.69], [-0.54519, 47.504883, 17.75], [-0.545042, 47.50484, 17.8], [-0.544863, 47.504783, 17.84], [-0.544704, 47.504747, 17.82], [-0.544529, 47.504711, 17.8], [-0.544351, 47.504684, 17.78], [-0.544177, 47.504653, 17.76], [-0.544007, 47.504624, 17.75], [-0.543833, 47.504588, 17.73], [-0.543672, 47.504544, 17.71], [-0.543544, 47.504483, 17.69], [-0.543426, 47.504423, 17.67], [-0.543313, 47.504374, 17.66], [-0.543168, 47.504298, 17.64], [-0.543056, 47.504212, 17.62], [-0.542954, 47.504114, 17.6], [-0.542868, 47.50404, 17.58], [-0.542781, 47.50395, 17.57], [-0.542682, 47.503851, 17.57], [-0.542599, 47.503736, 17.61], [-0.542513, 47.503626, 17.65], [-0.542425, 47.503514, 17.69], [-0.542337, 47.503403, 17.73], [-0.542262, 47.503288, 17.76], [-0.54219, 47.50317, 17.8], [-0.542151, 47.503045, 17.84], [-0.542117, 47.502915, 17.88], [-0.542103, 47.502786, 17.92], [-0.542107, 47.502659, 17.96], [-0.542092, 47.502528, 18.0], [-0.542084, 47.5024, 18.04], [-0.542071, 47.502272, 18.07], [-0.542075, 47.502146, 18.09], [-0.542062, 47.502018, 18.06], [-0.54206, 47.501888, 18.03], [-0.542059, 47.501758, 18.0], [-0.542062, 47.501626, 17.97], [-0.542062, 47.501501, 17.94], [-0.542049, 47.501377, 17.91], [-0.542051, 47.501247, 17.88], [-0.542034, 47.501115, 17.85], [-0.542073, 47.500985, 17.82], [-0.542052, 47.500858, 17.79], [-0.542068, 47.500732, 17.76], [-0.542064, 47.500604, 17.73], [-0.542057, 47.50048, 17.7], [-0.54203, 47.500355, 17.68], [-0.542065, 47.500249, 17.68], [-0.542191, 47.500196, 17.67], [-0.542385, 47.500222, 17.66], [-0.542588, 47.500228, 17.65], [-0.542781, 47.500231, 17.65], [-0.542968, 47.500235, 17.64], [-0.543149, 47.500243, 17.63], [-0.54334, 47.500243, 17.62], [-0.543518, 47.500244, 17.62], [-0.543711, 47.500247, 17.61], [-0.5439, 47.500248, 17.6], [-0.544088, 47.500235, 17.59], [-0.544272, 47.500235, 17.58], [-0.544465, 47.500229, 17.58], [-0.54465, 47.500234, 17.56], [-0.544845, 47.500219, 17.54], [-0.545036, 47.50022, 17.52], [-0.545227, 47.500233, 17.51], [-0.545414, 47.500238, 17.49], [-0.545604, 47.500234, 17.47], [-0.545793, 47.500244, 17.45], [-0.545984, 47.500234, 17.43], [-0.546181, 47.500227, 17.42], [-0.546369, 47.500213, 17.4], [-0.546564, 47.500201, 17.38], [-0.546747, 47.500186, 17.36], [-0.546925, 47.50014, 17.35], [-0.547103, 47.500098, 17.33], [-0.547269, 47.500042, 17.35], [-0.547415, 47.499976, 17.37], [-0.547571, 47.499925, 17.39], [-0.547718, 47.499873, 17.41], [-0.547862, 47.499822, 17.42], [-0.548015, 47.499779, 17.44], [-0.548147, 47.499721, 17.46], [-0.548291, 47.499685, 17.48], [-0.548433, 47.499654, 17.49], [-0.548578, 47.499646, 17.51], [-0.548716, 47.49965, 17.52], [-0.54885, 47.499683, 17.54], [-0.548976, 47.499729, 17.55], [-0.549095, 47.49977, 17.57], [-0.549235, 47.499804, 17.59], [-0.549388, 47.499849, 17.6], [-0.549518, 47.49988, 17.62], [-0.549673, 47.499921, 17.63], [-0.549822, 47.499965, 17.63], [-0.549967, 47.499996, 17.64], [-0.550119, 47.500031, 17.65], [-0.550272, 47.500057, 17.65], [-0.55043, 47.500097, 17.66], [-0.550584, 47.500128, 17.67], [-0.550742, 47.500165, 17.68], [-0.550893, 47.500191, 17.68], [-0.551051, 47.500232, 17.69], [-0.551198, 47.50027, 17.7], [-0.551355, 47.500307, 17.7], [-0.551521, 47.50035, 17.71], [-0.551681, 47.500385, 17.72], [-0.551827, 47.500416, 17.73], [-0.551992, 47.500456, 17.73], [-0.552128, 47.500486, 17.74], [-0.552291, 47.500521, 17.75], [-0.552442, 47.500553, 17.75], [-0.552578, 47.5006, 17.76], [-0.552732, 47.500626, 17.77], [-0.55287, 47.500693, 17.77], [-0.553008, 47.500755, 17.78], [-0.553138, 47.50083, 17.79], [-0.553262, 47.500918, 17.79], [-0.553364, 47.501013, 17.8], [-0.553424, 47.501131, 17.81], [-0.553547, 47.501198, 17.81], [-0.553631, 47.501276, 17.82], [-0.553723, 47.501373, 17.83], [-0.553788, 47.501455, 17.83], [-0.553862, 47.501548, 17.84], [-0.553961, 47.501643, 17.84], [-0.554043, 47.501745, 17.82], [-0.554128, 47.501856, 17.8], [-0.554197, 47.501955, 17.78], [-0.554236, 47.502051, 17.77], [-0.554288, 47.502165, 17.75], [-0.554341, 47.502256, 17.74], [-0.554568, 47.502474, 17.7], [-0.554871, 47.502599, 17.66], [-0.555013, 47.502629, 17.65], [-0.555177, 47.502652, 17.63], [-0.555342, 47.502693, 17.61], [-0.555495, 47.502718, 17.59], [-0.555639, 47.502747, 17.58], [-0.555803, 47.502775, 17.57], [-0.555943, 47.5028, 17.57], [-0.556128, 47.50284, 17.57], [-0.556316, 47.502867, 17.58], [-0.556445, 47.502893, 17.58], [-0.556628, 47.502932, 17.58], [-0.556759, 47.502951, 17.58], [-0.556903, 47.502981, 17.58], [-0.55704, 47.503014, 17.58], [-0.557203, 47.503046, 17.58], [-0.557354, 47.503072, 17.59], [-0.557521, 47.503099, 17.59], [-0.557662, 47.503137, 17.59], [-0.557795, 47.503153, 17.59], [-0.557979, 47.50318, 17.59], [-0.558153, 47.503194, 17.59], [-0.558288, 47.50321, 17.59], [-0.558459, 47.503235, 17.53], [-0.558648, 47.503264, 17.46], [-0.558822, 47.503331, 17.39], [-0.55896, 47.503429, 17.32], [-0.559135, 47.503447, 17.26], [-0.559234, 47.503383, 17.21], [-0.559393, 47.503323, 17.15], [-0.559526, 47.503289, 17.1], [-0.559649, 47.503244, 17.05], [-0.559789, 47.503212, 16.99], [-0.560075, 47.503113, 16.88], [-0.560222, 47.50305, 16.82], [-0.560365, 47.502994, 16.76], [-0.560484, 47.502944, 16.71], [-0.560535, 47.503047, 16.65], [-0.56042, 47.503117, 16.68], [-0.560313, 47.503219, 16.72], [-0.560377, 47.503301, 16.74], [-0.560463, 47.503379, 16.77], [-0.560563, 47.503454, 16.8], [-0.560674, 47.503509, 16.83], [-0.560789, 47.503572, 16.86], [-0.560916, 47.503631, 16.89], [-0.561073, 47.50366, 16.92], [-0.56122, 47.503693, 16.96], [-0.561356, 47.503763, 16.99], [-0.561447, 47.503858, 17.02], [-0.561572, 47.503952, 17.06], [-0.561685, 47.504053, 17.1], [-0.561812, 47.504145, 17.14], [-0.561951, 47.504222, 17.17], [-0.562062, 47.504323, 17.18], [-0.56217, 47.50442, 17.17], [-0.562245, 47.50453, 17.16], [-0.562327, 47.504619, 17.16], [-0.562432, 47.504685, 17.15], [-0.562544, 47.504745, 17.15], [-0.562651, 47.504805, 17.14], [-0.562722, 47.504922, 17.13], [-0.562812, 47.505006, 17.13], [-0.562895, 47.505089, 17.12], [-0.563044, 47.50514, 17.11], [-0.563172, 47.505188, 17.11], [-0.563304, 47.505246, 17.1], [-0.563437, 47.505302, 17.1], [-0.563557, 47.505367, 17.09], [-0.563677, 47.505445, 17.08], [-0.563824, 47.505505, 17.08], [-0.563935, 47.505586, 17.07], [-0.564015, 47.505664, 17.06], [-0.564127, 47.50576, 17.05], [-0.564218, 47.50584, 17.05], [-0.564322, 47.505943, 17.04], [-0.564416, 47.506049, 17.03], [-0.564483, 47.506161, 17.02], [-0.564529, 47.506274, 17.01], [-0.564591, 47.506382, 17.0], [-0.564637, 47.50649, 16.99], [-0.56468, 47.506597, 16.99], [-0.564704, 47.506712, 16.98], [-0.56473, 47.506829, 16.97], [-0.564788, 47.506938, 16.96], [-0.56486, 47.507044, 16.95], [-0.56486, 47.507165, 16.93], [-0.564803, 47.50728, 16.88], [-0.56472, 47.507391, 16.84], [-0.564705, 47.507515, 16.79], [-0.564676, 47.507615, 16.75], [-0.564664, 47.507741, 16.7], [-0.564649, 47.507848, 16.66], [-0.564619, 47.507943, 16.62], [-0.564582, 47.508072, 16.57], [-0.564547, 47.508178, 16.53], [-0.564686, 47.507606, 16.31], [-0.564687, 47.507742, 16.27], [-0.564653, 47.507847, 16.3], [-0.564618, 47.507982, 16.34], [-0.564585, 47.508095, 16.37], [-0.564531, 47.508241, 16.42], [-0.564495, 47.508339, 16.45], [-0.564446, 47.508432, 16.48], [-0.56439, 47.508531, 16.51], [-0.564344, 47.508631, 16.54], [-0.564274, 47.508728, 16.57], [-0.564182, 47.508824, 16.6], [-0.564116, 47.508915, 16.63], [-0.564034, 47.509013, 16.67], [-0.563957, 47.509107, 16.7], [-0.563858, 47.509187, 16.73], [-0.563769, 47.509272, 16.76], [-0.563688, 47.509361, 16.79], [-0.563594, 47.50945, 16.8], [-0.5635, 47.509529, 16.81], [-0.563396, 47.509609, 16.82], [-0.563323, 47.509704, 16.82], [-0.563251, 47.509783, 16.83], [-0.563162, 47.509869, 16.84], [-0.563104, 47.509964, 16.84], [-0.563039, 47.510063, 16.85], [-0.562987, 47.510166, 16.86], [-0.562942, 47.510275, 16.87], [-0.562894, 47.510398, 16.87], [-0.562857, 47.510505, 16.88], [-0.562817, 47.510613, 16.89], [-0.562801, 47.510728, 16.9], [-0.562797, 47.51085, 16.91], [-0.562796, 47.51097, 16.91], [-0.56276, 47.511081, 16.94], [-0.562777, 47.511199, 16.99], [-0.562792, 47.511327, 17.03], [-0.562798, 47.511441, 17.07], [-0.562838, 47.51156, 17.12], [-0.562862, 47.511674, 17.16], [-0.562884, 47.511797, 17.21], [-0.562916, 47.511912, 17.25], [-0.562931, 47.512032, 17.3], [-0.562951, 47.512157, 17.34], [-0.562973, 47.512298, 17.4], [-0.563012, 47.512407, 17.44], [-0.563045, 47.512538, 17.49], [-0.56307, 47.512668, 17.53], [-0.5631, 47.512791, 17.58], [-0.563119, 47.512908, 17.57], [-0.563126, 47.513032, 17.55], [-0.56316, 47.513153, 17.53], [-0.563176, 47.513281, 17.52], [-0.563203, 47.513391, 17.5], [-0.56325, 47.513526, 17.48], [-0.563244, 47.513647, 17.47], [-0.563295, 47.513771, 17.45], [-0.563322, 47.513901, 17.43], [-0.563334, 47.514029, 17.42], [-0.56336, 47.514146, 17.4], [-0.563414, 47.51427, 17.38], [-0.563446, 47.514393, 17.37], [-0.563452, 47.51452, 17.35], [-0.563452, 47.514651, 17.32], [-0.563529, 47.514747, 17.28], [-0.563535, 47.514886, 17.24], [-0.563549, 47.515022, 17.2], [-0.563561, 47.515129, 17.17], [-0.563612, 47.515253, 17.13], [-0.563628, 47.515377, 17.09], [-0.563697, 47.515476, 17.06], [-0.563777, 47.515588, 17.02], [-0.563858, 47.515702, 16.98], [-0.563914, 47.515813, 16.94], [-0.564032, 47.515912, 16.91], [-0.564115, 47.515997, 16.87], [-0.564184, 47.516079, 16.85], [-0.564228, 47.516198, 16.81], [-0.56425, 47.516329, 16.8], [-0.564296, 47.516461, 16.81], [-0.564305, 47.516593, 16.82], [-0.564327, 47.516719, 16.83], [-0.564346, 47.51684, 16.84], [-0.564362, 47.516953, 16.84], [-0.56434, 47.517052, 16.85], [-0.56436, 47.51719, 16.86], [-0.564368, 47.517287, 16.87], [-0.564365, 47.517401, 16.88], [-0.564385, 47.517514, 16.89], [-0.5644, 47.51761, 16.89], [-0.564376, 47.517711, 16.9], [-0.56434, 47.517839, 16.91], [-0.56431, 47.517967, 16.92], [-0.564309, 47.518064, 16.93], [-0.564311, 47.518169, 16.96], [-0.564288, 47.518279, 16.99], [-0.564266, 47.518386, 17.02], [-0.564219, 47.518501, 17.06], [-0.56421, 47.518623, 17.09], [-0.564226, 47.518732, 17.12], [-0.564243, 47.518835, 17.15], [-0.564261, 47.518945, 17.18], [-0.564272, 47.519043, 17.2], [-0.564305, 47.519139, 17.23], [-0.564332, 47.51924, 17.26], [-0.564349, 47.51934, 17.29], [-0.564361, 47.519442, 17.32], [-0.5644, 47.519545, 17.34], [-0.564466, 47.519653, 17.38], [-0.564573, 47.519749, 17.41], [-0.564642, 47.51987, 17.36], [-0.564706, 47.519991, 17.29], [-0.56476, 47.520115, 17.21], [-0.564832, 47.520236, 17.13], [-0.56491, 47.520355, 17.06], [-0.564982, 47.520476, 16.98], [-0.565058, 47.520596, 16.9], [-0.565119, 47.520712, 16.83], [-0.565185, 47.520813, 16.77], [-0.565267, 47.520947, 16.68], [-0.565314, 47.521064, 16.61], [-0.565368, 47.521195, 16.53], [-0.565429, 47.521305, 16.46], [-0.565495, 47.521401, 16.4], [-0.565577, 47.521504, 16.37], [-0.565656, 47.521613, 16.4], [-0.56572, 47.52172, 16.42], [-0.565797, 47.521825, 16.44], [-0.565884, 47.52194, 16.47], [-0.56598, 47.522024, 16.49], [-0.566086, 47.522117, 16.51], [-0.566175, 47.522219, 16.53], [-0.56625, 47.522323, 16.55], [-0.566369, 47.522401, 16.58], [-0.566458, 47.522516, 16.6], [-0.566547, 47.522619, 16.62], [-0.566654, 47.522727, 16.65], [-0.566745, 47.522834, 16.67], [-0.56685, 47.522945, 16.7], [-0.566967, 47.523038, 16.76], [-0.567098, 47.523129, 16.86], [-0.56723, 47.523219, 16.96], [-0.567368, 47.523318, 17.06], [-0.567495, 47.523397, 17.15], [-0.567614, 47.523491, 17.25], [-0.567666, 47.52359, 17.33], [-0.567776, 47.523678, 17.42], [-0.5679, 47.523755, 17.51], [-0.568019, 47.523845, 17.6], [-0.568126, 47.523929, 17.69], [-0.568243, 47.524025, 17.79], [-0.56835, 47.524108, 17.87], [-0.568445, 47.524189, 17.95], [-0.568535, 47.524265, 18.03], [-0.568633, 47.524332, 18.1], [-0.568729, 47.524402, 18.07], [-0.56878, 47.524488, 18.03], [-0.569024, 47.524797, 17.87], [-0.569119, 47.524908, 17.81], [-0.569172, 47.524992, 17.76], [-0.569242, 47.525083, 17.72], [-0.569323, 47.525188, 17.66], [-0.5694, 47.525288, 17.61], [-0.569505, 47.525409, 17.55], [-0.569584, 47.525521, 17.49], [-0.569659, 47.525609, 17.44], [-0.569711, 47.525705, 17.39], [-0.569831, 47.525804, 17.34], [-0.569936, 47.525921, 17.28], [-0.570008, 47.526044, 17.26], [-0.570075, 47.526162, 17.24], [-0.570154, 47.526278, 17.23], [-0.570243, 47.526393, 17.21], [-0.570298, 47.526505, 17.19], [-0.570368, 47.526623, 17.18], [-0.570408, 47.526741, 17.16], [-0.570422, 47.526862, 17.14], [-0.570459, 47.526953, 17.13], [-0.570389, 47.527031, 17.12], [-0.570511, 47.527107, 17.1], [-0.5705, 47.527207, 17.09], [-0.570511, 47.527338, 17.07], [-0.570526, 47.527437, 17.06], [-0.570537, 47.527542, 17.05], [-0.570535, 47.527653, 17.04], [-0.570558, 47.527766, 17.04], [-0.570589, 47.52788, 17.04], [-0.570597, 47.528002, 17.05], [-0.570615, 47.52812, 17.05], [-0.570639, 47.528233, 17.05], [-0.570652, 47.528345, 17.05], [-0.570676, 47.528456, 17.05], [-0.570704, 47.528567, 17.06], [-0.570719, 47.528678, 17.06], [-0.570732, 47.528782, 17.06], [-0.570802, 47.528887, 17.06], [-0.570868, 47.528992, 17.06], [-0.570966, 47.529063, 17.06], [-0.571059, 47.529138, 17.07], [-0.571145, 47.529221, 17.07], [-0.571168, 47.529334, 17.1], [-0.571154, 47.529438, 17.18], [-0.571114, 47.52954, 17.26], [-0.571106, 47.529657, 17.35], [-0.571078, 47.529758, 17.43], [-0.571035, 47.529866, 17.51], [-0.571018, 47.529958, 17.58], [-0.570999, 47.530056, 17.66], [-0.571045, 47.530157, 17.74], [-0.57104, 47.530249, 17.81], [-0.571116, 47.530347, 17.89], [-0.571149, 47.530438, 17.96], [-0.571216, 47.530518, 18.03], [-0.571289, 47.530633, 18.12], [-0.571316, 47.530738, 18.2], [-0.571358, 47.530829, 18.28], [-0.571405, 47.530932, 18.36], [-0.571465, 47.531034, 18.42], [-0.57152, 47.531154, 18.34], [-0.571611, 47.531261, 18.26], [-0.571711, 47.531357, 18.19], [-0.571783, 47.53148, 18.11], [-0.571852, 47.531593, 18.03], [-0.571963, 47.531683, 17.95], [-0.57206, 47.531787, 17.88], [-0.572135, 47.531902, 17.8], [-0.572202, 47.532014, 17.72], [-0.572298, 47.532126, 17.64], [-0.572409, 47.532238, 17.56], [-0.572494, 47.532347, 17.48], [-0.572574, 47.53246, 17.4], [-0.57265, 47.532573, 17.32], [-0.572742, 47.532667, 17.29], [-0.572881, 47.532767, 17.28], [-0.573004, 47.532863, 17.28], [-0.573107, 47.53297, 17.27], [-0.573241, 47.533061, 17.26], [-0.573385, 47.53314, 17.25], [-0.573531, 47.533215, 17.24], [-0.573682, 47.533286, 17.23], [-0.573836, 47.533361, 17.22], [-0.573986, 47.533432, 17.22], [-0.574136, 47.533505, 17.21], [-0.574286, 47.533576, 17.2], [-0.574429, 47.533652, 17.19], [-0.574584, 47.533726, 17.18], [-0.574753, 47.533788, 17.19], [-0.574901, 47.533866, 17.24], [-0.575075, 47.533876, 17.28], [-0.575241, 47.533903, 17.32], [-0.575399, 47.53394, 17.36], [-0.575498, 47.534025, 17.4], [-0.575611, 47.53408, 17.43], [-0.575789, 47.534131, 17.48], [-0.575917, 47.534167, 17.51], [-0.576035, 47.534209, 17.54], [-0.576198, 47.534267, 17.58], [-0.57634, 47.534317, 17.62], [-0.576498, 47.534361, 17.66], [-0.576658, 47.534406, 17.7], [-0.576801, 47.534448, 17.74], [-0.576937, 47.534489, 17.78], [-0.577067, 47.534534, 17.81], [-0.577203, 47.53456, 17.84], [-0.577337, 47.534589, 17.86], [-0.577473, 47.534618, 17.89], [-0.577617, 47.534654, 17.92], [-0.577804, 47.534681, 17.95], [-0.577956, 47.534708, 17.98], [-0.578093, 47.534745, 18.01], [-0.578241, 47.534775, 18.04], [-0.578388, 47.534797, 18.07], [-0.578574, 47.534846, 18.11], [-0.578761, 47.534896, 18.14], [-0.578902, 47.534911, 18.17], [-0.57904, 47.534927, 18.2], [-0.579179, 47.534933, 18.22], [-0.579325, 47.53497, 18.25], [-0.579473, 47.535004, 18.28], [-0.579642, 47.535033, 18.3], [-0.579797, 47.535059, 18.28], [-0.579957, 47.535066, 18.26], [-0.580101, 47.535098, 18.24], [-0.58024, 47.535123, 18.22], [-0.580423, 47.535162, 18.2], [-0.580581, 47.535183, 18.17], [-0.58078, 47.535205, 18.15], [-0.580969, 47.535218, 18.12], [-0.581111, 47.535207, 18.1], [-0.581282, 47.535204, 18.08], [-0.581456, 47.535191, 18.06], [-0.58162, 47.535188, 18.04], [-0.581788, 47.535186, 18.01], [-0.581962, 47.535183, 17.99], [-0.582123, 47.535176, 17.97], [-0.58231, 47.535176, 17.93], [-0.582498, 47.535168, 17.86], [-0.582695, 47.535162, 17.78], [-0.58288, 47.535142, 17.71], [-0.583057, 47.535148, 17.64], [-0.583245, 47.535127, 17.57], [-0.583411, 47.535119, 17.51], [-0.583597, 47.535121, 17.44], [-0.583796, 47.535122, 17.37], [-0.583982, 47.535124, 17.3], [-0.584152, 47.535121, 17.23], [-0.584351, 47.535145, 17.16], [-0.584543, 47.535171, 17.08], [-0.584738, 47.53519, 17.01], [-0.584879, 47.535206, 16.96], [-0.585468, 47.535268, 16.97], [-0.585619, 47.535311, 16.98], [-0.585754, 47.535364, 16.98], [-0.585916, 47.535397, 16.99], [-0.586084, 47.535422, 16.99], [-0.586254, 47.535446, 17.0], [-0.586434, 47.535475, 17.01], [-0.586623, 47.535499, 17.01], [-0.586805, 47.535522, 17.02], [-0.586998, 47.53554, 17.02], [-0.587184, 47.53556, 17.03], [-0.58737, 47.535577, 17.04], [-0.587558, 47.535605, 17.07], [-0.587748, 47.535623, 17.15], [-0.587934, 47.535638, 17.22], [-0.588123, 47.535646, 17.29], [-0.588286, 47.535631, 17.35], [-0.588441, 47.535617, 17.41], [-0.588586, 47.535593, 17.46], [-0.588723, 47.535566, 17.52], [-0.588862, 47.535536, 17.57], [-0.589014, 47.535504, 17.63], [-0.589148, 47.535455, 17.69], [-0.589301, 47.535404, 17.75], [-0.589459, 47.535363, 17.82], [-0.58963, 47.535317, 17.89], [-0.589805, 47.535282, 17.95], [-0.589972, 47.535235, 18.02], [-0.590138, 47.535194, 17.99], [-0.590307, 47.535152, 17.93], [-0.590475, 47.535117, 17.86], [-0.590629, 47.535083, 17.81], [-0.590774, 47.535041, 17.75], [-0.5909, 47.534994, 17.7], [-0.591022, 47.534933, 17.64], [-0.591156, 47.534856, 17.58], [-0.591286, 47.534773, 17.52], [-0.591413, 47.53469, 17.46], [-0.591543, 47.534599, 17.39], [-0.591669, 47.534544, 17.34], [-0.591763, 47.534463, 17.28], [-0.591873, 47.534399, 17.23], [-0.592008, 47.534308, 17.16], [-0.592106, 47.534246, 17.11], [-0.592204, 47.534173, 17.09], [-0.592299, 47.534103, 17.1], [-0.592397, 47.534042, 17.11], [-0.592537, 47.533955, 17.12], [-0.592685, 47.533885, 17.13], [-0.59285, 47.533869, 17.14], [-0.592999, 47.533866, 17.14], [-0.59318, 47.533859, 17.15], [-0.593342, 47.533854, 17.16], [-0.593483, 47.533843, 17.17], [-0.593647, 47.533836, 17.18], [-0.594225, 47.533816, 17.21], [-0.594373, 47.533811, 17.21], [-0.594524, 47.533805, 17.22], [-0.594667, 47.5338, 17.24], [-0.594807, 47.533775, 17.26], [-0.594993, 47.533763, 17.3], [-0.595136, 47.533711, 17.32], [-0.595296, 47.533712, 17.35], [-0.595445, 47.533686, 17.38], [-0.595585, 47.533667, 17.41], [-0.595737, 47.533655, 17.44], [-0.595918, 47.533652, 17.47], [-0.596059, 47.533631, 17.49], [-0.596201, 47.533616, 17.52], [-0.596348, 47.5336, 17.55], [-0.596492, 47.533572, 17.57], [-0.596673, 47.533555, 17.61], [-0.596841, 47.533534, 17.64], [-0.597025, 47.533521, 17.67], [-0.597153, 47.533487, 17.7], [-0.597334, 47.533489, 17.73], [-0.597496, 47.533469, 17.75], [-0.597658, 47.533449, 17.77], [-0.597819, 47.533422, 17.79], [-0.597953, 47.533392, 17.81], [-0.598078, 47.533355, 17.83], [-0.598229, 47.533317, 17.85], [-0.59841, 47.533281, 17.88], [-0.598574, 47.53323, 17.91], [-0.598755, 47.533202, 17.93], [-0.598945, 47.533178, 17.96], [-0.59907, 47.533142, 17.98], [-0.59923, 47.533093, 18.0], [-0.599401, 47.533047, 18.03], [-0.599542, 47.53301, 18.05], [-0.599673, 47.532968, 18.07], [-0.599808, 47.532922, 18.62], [-0.599979, 47.532867, 20.06], [-0.600152, 47.532819, 21.47], [-0.600293, 47.532741, 22.85], [-0.600446, 47.532674, 24.22], [-0.600401, 47.532574, 25.39], [-0.600253, 47.532505, 26.75], [-0.600094, 47.532471, 28.01], [-0.599957, 47.532454, 29.06], [-0.599819, 47.532432, 30.14], [-0.59967, 47.532402, 31.31], [-0.599514, 47.532365, 32.56], [-0.59957, 47.532283, 33.57], [-0.599718, 47.532237, 34.8], [-0.59987, 47.5322, 36.02], [-0.599989, 47.532155, 37.05], [-0.600111, 47.532111, 38.1], [-0.600234, 47.532062, 38.85], [-0.600361, 47.532014, 39.58], [-0.600503, 47.531976, 40.35], [-0.600654, 47.531936, 41.17], [-0.60077, 47.531891, 41.84], [-0.600896, 47.531847, 42.55], [-0.601038, 47.531807, 43.33], [-0.601197, 47.531777, 44.16], [-0.60135, 47.531757, 44.94], [-0.60149, 47.531726, 45.68], [-0.601631, 47.531681, 46.46], [-0.601774, 47.531651, 47.22], [-0.601924, 47.531627, 47.99], [-0.602104, 47.531605, 48.91], [-0.602249, 47.53159, 49.65], [-0.602421, 47.531582, 50.52], [-0.602552, 47.5316, 51.19], [-0.602684, 47.531634, 51.6], [-0.602858, 47.531599, 51.6], [-0.602735, 47.531657, 51.6], [-0.602866, 47.531602, 51.6], [-0.603004, 47.531551, 51.6], [-0.603136, 47.531465, 51.6], [-0.603272, 47.531384, 51.6], [-0.603414, 47.531304, 51.6], [-0.60352, 47.531244, 51.6], [-0.603688, 47.531181, 51.6], [-0.603813, 47.531142, 51.6], [-0.603936, 47.531095, 51.6], [-0.604069, 47.531035, 51.6], [-0.60422, 47.530984, 51.6], [-0.604367, 47.530932, 51.6], [-0.604524, 47.530858, 51.6], [-0.604697, 47.5308, 51.71], [-0.604858, 47.530724, 51.97], [-0.605015, 47.530658, 52.23], [-0.605136, 47.530609, 52.42], [-0.605265, 47.530557, 52.62], [-0.605398, 47.530499, 52.84], [-0.60553, 47.530444, 53.05], [-0.605658, 47.530385, 53.26], [-0.605779, 47.530329, 53.46], [-0.605911, 47.530275, 53.67], [-0.606048, 47.530226, 53.88], [-0.606176, 47.530168, 54.09], [-0.606303, 47.53011, 54.3], [-0.606436, 47.530067, 54.5], [-0.606602, 47.530015, 54.75], [-0.606753, 47.529965, 54.98], [-0.606879, 47.529931, 55.17], [-0.607002, 47.529892, 55.37], [-0.607137, 47.529855, 55.61], [-0.607271, 47.529816, 55.84], [-0.607414, 47.529781, 56.08], [-0.607572, 47.529739, 56.35], [-0.607729, 47.529692, 56.63], [-0.607891, 47.529654, 56.9], [-0.608054, 47.529611, 57.18], [-0.608222, 47.52958, 57.46], [-0.608364, 47.529542, 57.7], [-0.608499, 47.529485, 57.96], [-0.608654, 47.529446, 58.22], [-0.608816, 47.529408, 58.49], [-0.608983, 47.529366, 58.78], [-0.60913, 47.529333, 59.03], [-0.609221, 47.529405, 59.25], [-0.609249, 47.529503, 59.48], [-0.609398, 47.52957, 59.29], [-0.609539, 47.529625, 59.12], [-0.609525, 47.529763, 58.9], [-0.609462, 47.529845, 58.75], [-0.609922, 47.530034, 58.17], [-0.610074, 47.530065, 58.0], [-0.610211, 47.530049, 57.85], [-0.610398, 47.530048, 57.65], [-0.610533, 47.530039, 57.5], [-0.610704, 47.530014, 57.32], [-0.610849, 47.530031, 57.16], [-0.610982, 47.530041, 57.01], [-0.611121, 47.530085, 56.85], [-0.611276, 47.530111, 56.68], [-0.611406, 47.530175, 56.79], [-0.611464, 47.530257, 56.99], [-0.611548, 47.530337, 57.21], [-0.611653, 47.530404, 57.43], [-0.611798, 47.530449, 57.67], [-0.611947, 47.530437, 57.9], [-0.612031, 47.53036, 58.11], [-0.612053, 47.530235, 58.4], [-0.612116, 47.53014, 58.63], [-0.612277, 47.53016, 58.88], [-0.612369, 47.530237, 59.1], [-0.61247, 47.530314, 59.33], [-0.612578, 47.530387, 59.56], [-0.612672, 47.530473, 59.8], [-0.612774, 47.53055, 60.03], [-0.612869, 47.530622, 60.25], [-0.61299, 47.530716, 60.53], [-0.61306, 47.530794, 60.5], [-0.613145, 47.530869, 60.08], [-0.613233, 47.530944, 59.66], [-0.613339, 47.531039, 59.12], [-0.613441, 47.531134, 58.6], [-0.613528, 47.531226, 58.11], [-0.613603, 47.531329, 57.6], [-0.613691, 47.531419, 57.12], [-0.613773, 47.531528, 56.58], [-0.61387, 47.531629, 56.04], [-0.613935, 47.531709, 55.63], [-0.614009, 47.531815, 55.11], [-0.614107, 47.531926, 54.53], [-0.614191, 47.532041, 53.96], [-0.614275, 47.532134, 53.48], [-0.614344, 47.53222, 53.04], [-0.614431, 47.532321, 52.42], [-0.614518, 47.532407, 51.56], [-0.614659, 47.532492, 50.5], [-0.614774, 47.532621, 49.25], [-0.614875, 47.532745, 48.08], [-0.614994, 47.532866, 46.88], [-0.615115, 47.533009, 45.51], [-0.615222, 47.533129, 44.35], [-0.615325, 47.533274, 43.02], [-0.615396, 47.533409, 41.83], [-0.615431, 47.533501, 41.04], [-0.615467, 47.533592, 40.26], [-0.615512, 47.533697, 39.36], [-0.615575, 47.533811, 38.35], [-0.615635, 47.533935, 37.2], [-0.615671, 47.534035, 36.23], [-0.615719, 47.534134, 35.24], [-0.615781, 47.534255, 34.03], [-0.615837, 47.534383, 32.77], [-0.615922, 47.534506, 31.49], [-0.616016, 47.534626, 30.2], [-0.616096, 47.534721, 29.17], [-0.616183, 47.534853, 27.8], [-0.616295, 47.534979, 26.41], [-0.616348, 47.535075, 25.44], [-0.616368, 47.535176, 24.48], [-0.616272, 47.53533, 22.9], [-0.616135, 47.535409, 21.75], [-0.616027, 47.535505, 20.69], [-0.616026, 47.53563, 20.4], [-0.616074, 47.535761, 20.09], [-0.616054, 47.535892, 19.78], [-0.616073, 47.536018, 19.49], [-0.616072, 47.53613, 19.23], [-0.616071, 47.536259, 18.93], [-0.616057, 47.536386, 18.64], [-0.616052, 47.536521, 18.32], [-0.616035, 47.536658, 18.01], [-0.616017, 47.536787, 17.71], [-0.615992, 47.536915, 17.41], [-0.615963, 47.537041, 17.11], [-0.615937, 47.537161, 16.83], [-0.615911, 47.537284, 16.55], [-0.615862, 47.537397, 16.59], [-0.615823, 47.537498, 16.62], [-0.615786, 47.537602, 16.65], [-0.615755, 47.537704, 16.68], [-0.61572, 47.53781, 16.71], [-0.615679, 47.537912, 16.74], [-0.615644, 47.538024, 16.77], [-0.615599, 47.538134, 16.8], [-0.615568, 47.53825, 16.84], [-0.615522, 47.538366, 16.87], [-0.615477, 47.538473, 16.9], [-0.615406, 47.538572, 16.94], [-0.615367, 47.538697, 16.97], [-0.615358, 47.538789, 17.0], [-0.615305, 47.538885, 17.03], [-0.615242, 47.539001, 17.07], [-0.615159, 47.539123, 17.32], [-0.61511, 47.539212, 17.51], [-0.615033, 47.539327, 17.77], [-0.614974, 47.539431, 17.99], [-0.615027, 47.53952, 18.19], [-0.615155, 47.539565, 18.39], [-0.615216, 47.539479, 18.58], [-0.615304, 47.539374, 18.83], [-0.615399, 47.539297, 19.03], [-0.615506, 47.539229, 19.23], [-0.615586, 47.539128, 19.47], [-0.615686, 47.539042, 19.69], [-0.61583, 47.53899, 19.91], [-0.615912, 47.53891, 20.11], [-0.616063, 47.538881, 20.33], [-0.616189, 47.538826, 20.54], [-0.616322, 47.538824, 20.72], [-0.616408, 47.538729, 21.17], [-0.616453, 47.538621, 21.64], [-0.616502, 47.538501, 22.16], [-0.61655, 47.538383, 22.67], [-0.616587, 47.538264, 23.18], [-0.616635, 47.538138, 23.72], [-0.616733, 47.538031, 24.25], [-0.616811, 47.537913, 24.79], [-0.616824, 47.537789, 25.31], [-0.616884, 47.537664, 25.86], [-0.616937, 47.537551, 26.36], [-0.616964, 47.537436, 26.84], [-0.616997, 47.537319, 27.34], [-0.617025, 47.537189, 27.89], [-0.617017, 47.537055, 28.5], [-0.617023, 47.536962, 28.97], [-0.617069, 47.536869, 29.47], [-0.617116, 47.536774, 29.98], [-0.617156, 47.536682, 30.47], [-0.617177, 47.536585, 30.98], [-0.617232, 47.536501, 31.45], [-0.617322, 47.536424, 31.95], [-0.61748, 47.536352, 32.6], [-0.617614, 47.536282, 33.19], [-0.617769, 47.536238, 33.77], [-0.617902, 47.536218, 34.24], [-0.618077, 47.53619, 34.86], [-0.618246, 47.536171, 35.45], [-0.618415, 47.536174, 36.04], [-0.618556, 47.536165, 36.52], [-0.618703, 47.536159, 37.03], [-0.618856, 47.536156, 37.57], [-0.619032, 47.536173, 38.21], [-0.619194, 47.536204, 38.82], [-0.619345, 47.536238, 39.4], [-0.619487, 47.536267, 39.93], [-0.619566, 47.53617, 40.53], [-0.619642, 47.536089, 41.04], [-0.619758, 47.536041, 41.53], [-0.619848, 47.535952, 42.11], [-0.619971, 47.53588, 42.7], [-0.620131, 47.535907, 43.3], [-0.620295, 47.535887, 43.9], [-0.620405, 47.535807, 44.49], [-0.620432, 47.5357, 45.07], [-0.620499, 47.535615, 45.59], [-0.620631, 47.535553, 46.17], [-0.620743, 47.535467, 46.78], [-0.62084, 47.535378, 47.58], [-0.620945, 47.535282, 48.71], [-0.621049, 47.535183, 49.86], [-0.621137, 47.53509, 50.9], [-0.621228, 47.535012, 51.84], [-0.621316, 47.534936, 52.75], [-0.621405, 47.534852, 53.73], [-0.621454, 47.534757, 54.68], [-0.621532, 47.534677, 55.58], [-0.621641, 47.534592, 56.65], [-0.621729, 47.534498, 57.7], [-0.621844, 47.534437, 58.63], [-0.621839, 47.534342, 59.53], [-0.62193, 47.534273, 60.4], [-0.622003, 47.534177, 61.42], [-0.622086, 47.534079, 62.49], [-0.62216, 47.533969, 63.63], [-0.622196, 47.53387, 64.24], [-0.62226, 47.533775, 64.5], [-0.622334, 47.533684, 64.76], [-0.622431, 47.533585, 65.06], [-0.622516, 47.533471, 65.37], [-0.622578, 47.533368, 65.65], [-0.622662, 47.533297, 65.88], [-0.622737, 47.53318, 66.2], [-0.622798, 47.533095, 66.43], [-0.62284, 47.53299, 66.7], [-0.622875, 47.532885, 66.97], [-0.622903, 47.532792, 67.21], [-0.622954, 47.532676, 67.51], [-0.622981, 47.532559, 67.81], [-0.623055, 47.532414, 68.19], [-0.623121, 47.532279, 68.55], [-0.62313, 47.53216, 68.4], [-0.623137, 47.532054, 68.18], [-0.623188, 47.531909, 67.87], [-0.62329, 47.531791, 67.59], [-0.623286, 47.531662, 67.32], [-0.623305, 47.531531, 67.05], [-0.623316, 47.531413, 66.8], [-0.623281, 47.531303, 66.57], [-0.623278, 47.531168, 66.29], [-0.623264, 47.531038, 66.02], [-0.623252, 47.530894, 65.72], [-0.623237, 47.530756, 65.43], [-0.623187, 47.530651, 65.2], [-0.62323, 47.530519, 64.92], [-0.623283, 47.530414, 64.68], [-0.623316, 47.530323, 64.48], [-0.623151, 47.530278, 64.21], [-0.622949, 47.530251, 63.91], [-0.62278, 47.530234, 63.65], [-0.622604, 47.530234, 63.39], [-0.622424, 47.530209, 63.12], [-0.62224, 47.53018, 62.84], [-0.62205, 47.530166, 62.55], [-0.621877, 47.530143, 62.29], [-0.621703, 47.530105, 62.02], [-0.621511, 47.530081, 61.73], [-0.62133, 47.530052, 61.45], [-0.621165, 47.530019, 61.2], [-0.621324, 47.530044, 60.96], [-0.620987, 47.529988, 60.76], [-0.62081, 47.529977, 60.67], [-0.620622, 47.529947, 60.58], [-0.620438, 47.529926, 60.49], [-0.620302, 47.52991, 60.42], [-0.620152, 47.529874, 60.34], [-0.620005, 47.529865, 60.27], [-0.619821, 47.529822, 60.18], [-0.619677, 47.529797, 60.11], [-0.619531, 47.529755, 60.03], [-0.619393, 47.529687, 59.95], [-0.619249, 47.529614, 59.86], [-0.619111, 47.529526, 59.77], [-0.618961, 47.529446, 59.67], [-0.618809, 47.52936, 59.63], [-0.618677, 47.52927, 59.66], [-0.618539, 47.529178, 59.69], [-0.618407, 47.529089, 59.72], [-0.61828, 47.529, 59.75], [-0.618144, 47.528914, 59.78], [-0.618007, 47.52883, 59.8], [-0.617876, 47.528736, 59.83], [-0.617732, 47.528647, 59.86], [-0.617596, 47.528559, 59.89], [-0.617461, 47.52847, 59.92], [-0.617325, 47.528386, 59.95], [-0.617185, 47.528294, 59.98], [-0.61705, 47.528202, 60.01], [-0.616938, 47.528095, 60.0], [-0.616803, 47.528008, 59.94], [-0.616653, 47.52793, 59.88], [-0.616511, 47.527837, 59.82], [-0.616379, 47.527742, 59.76], [-0.616246, 47.527651, 59.7], [-0.616116, 47.52756, 59.64], [-0.615985, 47.527472, 59.59], [-0.615867, 47.527389, 59.53], [-0.615727, 47.527329, 59.48], [-0.61559, 47.527362, 59.44], [-0.61545, 47.527413, 59.39], [-0.6153, 47.527462, 59.34], [-0.615153, 47.527517, 59.28], [-0.614999, 47.527564, 59.23], [-0.614843, 47.527597, 59.18], [-0.614699, 47.527624, 59.15], [-0.614542, 47.527634, 59.11], [-0.614387, 47.527648, 59.07], [-0.61428, 47.527572, 59.03], [-0.614308, 47.527448, 58.99], [-0.614352, 47.527326, 58.94], [-0.614355, 47.527199, 58.9], [-0.614374, 47.527075, 58.85], [-0.614242, 47.526991, 58.81], [-0.614048, 47.526984, 58.76], [-0.613859, 47.52697, 58.71], [-0.613672, 47.526943, 58.66], [-0.613484, 47.526929, 58.62], [-0.6133, 47.526919, 58.57], [-0.61313, 47.52689, 58.56], [-0.612963, 47.526863, 58.6], [-0.612799, 47.526843, 58.64], [-0.612632, 47.526822, 58.69], [-0.612472, 47.526803, 58.73], [-0.612334, 47.526749, 58.77], [-0.612196, 47.526706, 58.81], [-0.612017, 47.526741, 58.86], [-0.61185, 47.526716, 58.9], [-0.611702, 47.526685, 58.94], [-0.61158, 47.526753, 58.98], [-0.611408, 47.526724, 59.03], [-0.611225, 47.526709, 59.07], [-0.611089, 47.526796, 59.12], [-0.611131, 47.526892, 59.16], [-0.611131, 47.527007, 59.2], [-0.611098, 47.527099, 59.17], [-0.610958, 47.527149, 59.01], [-0.610821, 47.527171, 58.86], [-0.610966, 47.527162, 58.71], [-0.611101, 47.52713, 58.57], [-0.611184, 47.527052, 58.42], [-0.611092, 47.526971, 58.27], [-0.61098, 47.526876, 58.08], [-0.610891, 47.526797, 57.93], [-0.610797, 47.526717, 57.77], [-0.610691, 47.526627, 57.6], [-0.610582, 47.526537, 57.42], [-0.610481, 47.526456, 57.26], [-0.610415, 47.526365, 57.11], [-0.610335, 47.526256, 56.92], [-0.610184, 47.526169, 56.72], [-0.610022, 47.526096, 56.52], [-0.609857, 47.526037, 56.51], [-0.609869, 47.525935, 56.52], [-0.609986, 47.525866, 56.54], [-0.610046, 47.525781, 56.56], [-0.610093, 47.525676, 56.58], [-0.610166, 47.525571, 56.6], [-0.610196, 47.525436, 56.62], [-0.610278, 47.525315, 56.64], [-0.610354, 47.525205, 56.67], [-0.610365, 47.525077, 56.69], [-0.610378, 47.524948, 56.71], [-0.610343, 47.524821, 56.73], [-0.610318, 47.524689, 56.76], [-0.610319, 47.52456, 56.78], [-0.610417, 47.524439, 56.81], [-0.610488, 47.524324, 56.93], [-0.610526, 47.524202, 57.05], [-0.610512, 47.524078, 57.16], [-0.610483, 47.523957, 57.28], [-0.6104, 47.523838, 57.4], [-0.610382, 47.523712, 57.52], [-0.61043, 47.52359, 57.64], [-0.610429, 47.523469, 57.76], [-0.610357, 47.523357, 57.87], [-0.610252, 47.523267, 57.98], [-0.610203, 47.523169, 58.08], [-0.610206, 47.523068, 58.17], [-0.610229, 47.522973, 58.26], [-0.610418, 47.522992, 58.38], [-0.610578, 47.522969, 58.49], [-0.610625, 47.522877, 58.48], [-0.61074, 47.522801, 58.47], [-0.610901, 47.522764, 58.45], [-0.610923, 47.522637, 58.43], [-0.61088, 47.522531, 58.42], [-0.610908, 47.522421, 58.4], [-0.610897, 47.522309, 58.39], [-0.610872, 47.522184, 58.37], [-0.610818, 47.522061, 58.35], [-0.610798, 47.521939, 58.33], [-0.61077, 47.521824, 58.32], [-0.610729, 47.521716, 58.3], [-0.610785, 47.521624, 58.29], [-0.610801, 47.521527, 58.27], [-0.610664, 47.521513, 58.26], [-0.610503, 47.521476, 58.25], [-0.610409, 47.521402, 58.19], [-0.610323, 47.521314, 58.12], [-0.610213, 47.521238, 58.05], [-0.610096, 47.52116, 57.98], [-0.609968, 47.52109, 57.91], [-0.609893, 47.521013, 57.85], [-0.609726, 47.520931, 57.76], [-0.609608, 47.520854, 57.69], [-0.609479, 47.520787, 57.62], [-0.609352, 47.520698, 57.54], [-0.609221, 47.520604, 57.46], [-0.609099, 47.520509, 57.38], [-0.608963, 47.520419, 57.3], [-0.608836, 47.520325, 57.22], [-0.608704, 47.52023, 57.13], [-0.608571, 47.520145, 56.98], [-0.608452, 47.520043, 56.75], [-0.60831, 47.519952, 56.51], [-0.608187, 47.519854, 56.28], [-0.608057, 47.519756, 56.04], [-0.607936, 47.519652, 55.81], [-0.607791, 47.519561, 55.56], [-0.60766, 47.519457, 55.32], [-0.607519, 47.519365, 55.08], [-0.6074, 47.519259, 54.84], [-0.607284, 47.519154, 54.6], [-0.607144, 47.519068, 54.37], [-0.607022, 47.518969, 54.14], [-0.60689, 47.518874, 53.91], [-0.606763, 47.518775, 53.73], [-0.606651, 47.518673, 53.56], [-0.606513, 47.51858, 53.4], [-0.606394, 47.518478, 53.23], [-0.606271, 47.518381, 53.07], [-0.606144, 47.518288, 52.91], [-0.606019, 47.518187, 52.75], [-0.605889, 47.518087, 52.58], [-0.605759, 47.517989, 52.41], [-0.605622, 47.517896, 52.24], [-0.605489, 47.5178, 52.08], [-0.605348, 47.517709, 51.91], [-0.605218, 47.517621, 51.75], [-0.605079, 47.51754, 51.6], [-0.604955, 47.517446, 51.56], [-0.604833, 47.517357, 51.54], [-0.604709, 47.51728, 51.52], [-0.604604, 47.517198, 51.5], [-0.60449, 47.517127, 51.48], [-0.604386, 47.517054, 51.46], [-0.604299, 47.516983, 51.45], [-0.604193, 47.516928, 51.43], [-0.604053, 47.516857, 51.41], [-0.603943, 47.516789, 51.4], [-0.603832, 47.516723, 51.38], [-0.603718, 47.516637, 51.36], [-0.603584, 47.516565, 51.34], [-0.603448, 47.516487, 51.32], [-0.603317, 47.516408, 51.3], [-0.603189, 47.51632, 51.28], [-0.603061, 47.516237, 51.21], [-0.602923, 47.516157, 51.12], [-0.602799, 47.516066, 51.02], [-0.602668, 47.515982, 50.92], [-0.602517, 47.5159, 50.82], [-0.602392, 47.515813, 50.72], [-0.60226, 47.515728, 50.63], [-0.602129, 47.515643, 50.53], [-0.602002, 47.515557, 50.43], [-0.601872, 47.515487, 50.35], [-0.601748, 47.515401, 50.25], [-0.601604, 47.515333, 50.16], [-0.601451, 47.51525, 50.05], [-0.601315, 47.515153, 49.95], [-0.601186, 47.515057, 49.86], [-0.60104, 47.514969, 49.89], [-0.600907, 47.514883, 49.92], [-0.600766, 47.514807, 49.95], [-0.60062, 47.514719, 49.99], [-0.6005, 47.514635, 50.02], [-0.600356, 47.514554, 50.05], [-0.600223, 47.514468, 50.08], [-0.600073, 47.514391, 50.11], [-0.599935, 47.514301, 50.15], [-0.599802, 47.514214, 50.18], [-0.599651, 47.514143, 50.21], [-0.599843, 47.513966, 50.26], [-0.599698, 47.513875, 50.3], [-0.599564, 47.513791, 50.4], [-0.599435, 47.51371, 50.55], [-0.599311, 47.513631, 50.69], [-0.599177, 47.513545, 50.84], [-0.599044, 47.513461, 50.99], [-0.59892, 47.513382, 51.13], [-0.597739, 47.513178, 52.14], [-0.597626, 47.513119, 52.25], [-0.597511, 47.513071, 52.37], [-0.597394, 47.513018, 52.48], [-0.597262, 47.512968, 52.71], [-0.597167, 47.512898, 52.96], [-0.597016, 47.512835, 53.26], [-0.596881, 47.512776, 53.54], [-0.596753, 47.512734, 53.79], [-0.596635, 47.512684, 54.03], [-0.596509, 47.512619, 54.3], [-0.596363, 47.512563, 54.59], [-0.596216, 47.512502, 54.89], [-0.5961, 47.512441, 55.14], [-0.595996, 47.51238, 55.38], [-0.595832, 47.512339, 55.68], [-0.595689, 47.512292, 55.96], [-0.595547, 47.512217, 56.27], [-0.595425, 47.51217, 56.51], [-0.595301, 47.512111, 56.77], [-0.595135, 47.512023, 57.1], [-0.594983, 47.511983, 57.05], [-0.594832, 47.511912, 56.99], [-0.594674, 47.511847, 56.94], [-0.594508, 47.51179, 56.88], [-0.594363, 47.51172, 56.83], [-0.594215, 47.511655, 56.77], [-0.594063, 47.511599, 56.72], [-0.59393, 47.511522, 56.66], [-0.593785, 47.51146, 56.61], [-0.593639, 47.511418, 56.56], [-0.593485, 47.511345, 56.51], [-0.593333, 47.511284, 56.45], [-0.593185, 47.511219, 56.4], [-0.593048, 47.511145, 56.34], [-0.592884, 47.511087, 56.29], [-0.592725, 47.511023, 56.28], [-0.592588, 47.510948, 56.28], [-0.592426, 47.51088, 56.28], [-0.592271, 47.510804, 56.27], [-0.592115, 47.510741, 56.27], [-0.591954, 47.510674, 56.27], [-0.5918, 47.510611, 56.26], [-0.591629, 47.510547, 56.26], [-0.591472, 47.510481, 56.25], [-0.591332, 47.510399, 56.25], [-0.591161, 47.510333, 56.25], [-0.590994, 47.51027, 56.24], [-0.590842, 47.510196, 56.24], [-0.590685, 47.510121, 56.23], [-0.590529, 47.510055, 56.21], [-0.590362, 47.509994, 56.18], [-0.590202, 47.509922, 56.15], [-0.590038, 47.509848, 56.13], [-0.589872, 47.509784, 56.1], [-0.58972, 47.509705, 56.07], [-0.58956, 47.509639, 56.04], [-0.589396, 47.509568, 56.01], [-0.589223, 47.509498, 55.98], [-0.589063, 47.509431, 55.96], [-0.588901, 47.509354, 55.93], [-0.588735, 47.509291, 55.9], [-0.588575, 47.509225, 55.87], [-0.588416, 47.509152, 55.84], [-0.588265, 47.509086, 55.86], [-0.588121, 47.509019, 55.87], [-0.587986, 47.508962, 55.89], [-0.587829, 47.508898, 55.9], [-0.587723, 47.508834, 55.92], [-0.587592, 47.508786, 55.93], [-0.587441, 47.508728, 55.94], [-0.587337, 47.508667, 55.96], [-0.587223, 47.508619, 55.97], [-0.587109, 47.508551, 55.98], [-0.58699, 47.508473, 56.0], [-0.586873, 47.508398, 56.01], [-0.58674, 47.508331, 56.02], [-0.586624, 47.508253, 56.04], [-0.586508, 47.508183, 56.05], [-0.586414, 47.508103, 56.07], [-0.586296, 47.508036, 56.06], [-0.586186, 47.507963, 56.01], [-0.586094, 47.507892, 55.96], [-0.585944, 47.507806, 55.89], [-0.585867, 47.507726, 55.84], [-0.58574, 47.507651, 55.78], [-0.585626, 47.507555, 55.71], [-0.585502, 47.507463, 55.65], [-0.585383, 47.507367, 55.58], [-0.585244, 47.507273, 55.51], [-0.585117, 47.507176, 55.44], [-0.584987, 47.50708, 55.37], [-0.584877, 47.506986, 55.31], [-0.584759, 47.506904, 55.25], [-0.584652, 47.506831, 55.19], [-0.584546, 47.506745, 55.14], [-0.584398, 47.506761, 55.14], [-0.584391, 47.506659, 55.15], [-0.584314, 47.506564, 55.16], [-0.584193, 47.506495, 55.18], [-0.584108, 47.506423, 55.19], [-0.584008, 47.506357, 55.2], [-0.583908, 47.506274, 55.21], [-0.583792, 47.506183, 55.23], [-0.583677, 47.506096, 55.24], [-0.583555, 47.50601, 55.26], [-0.583437, 47.505918, 55.27], [-0.583306, 47.50583, 55.29], [-0.583185, 47.505744, 55.31], [-0.583064, 47.505658, 55.32], [-0.582959, 47.505568, 55.34], [-0.58284, 47.505493, 55.35], [-0.582728, 47.505406, 55.41], [-0.582615, 47.505319, 55.49], [-0.582499, 47.505233, 55.57], [-0.582387, 47.505143, 55.65], [-0.582272, 47.505064, 55.72], [-0.582154, 47.504983, 55.8], [-0.58204, 47.50489, 55.88], [-0.581925, 47.504806, 55.96], [-0.581815, 47.504729, 56.04], [-0.581727, 47.504655, 56.1], [-0.581631, 47.504587, 56.16], [-0.581533, 47.504521, 56.23], [-0.581443, 47.504446, 56.3], [-0.581334, 47.504364, 56.37], [-0.58121, 47.504279, 56.45], [-0.581091, 47.50419, 56.54], [-0.580971, 47.504104, 56.58], [-0.58086, 47.504039, 56.54], [-0.580769, 47.503972, 56.51], [-0.580651, 47.50389, 56.47], [-0.580574, 47.503811, 56.44], [-0.580464, 47.503746, 56.41], [-0.58039, 47.503666, 56.38], [-0.58021, 47.503616, 56.33], [-0.580103, 47.503546, 56.3], [-0.580002, 47.503476, 56.27], [-0.579871, 47.50341, 56.23], [-0.579748, 47.503333, 56.19], [-0.579611, 47.503248, 56.15], [-0.579476, 47.503173, 56.11], [-0.579339, 47.503112, 56.07], [-0.579216, 47.503038, 56.03], [-0.579093, 47.502976, 56.0], [-0.578957, 47.502912, 55.94], [-0.57883, 47.502849, 55.87], [-0.578687, 47.502787, 55.8], [-0.578548, 47.502729, 55.73], [-0.578407, 47.502657, 55.66], [-0.578245, 47.502601, 55.58], [-0.578094, 47.502527, 55.5], [-0.577938, 47.502467, 55.42], [-0.577784, 47.502403, 55.34], [-0.577609, 47.502349, 55.26], [-0.577441, 47.502287, 55.18], [-0.577309, 47.502241, 55.11], [-0.577124, 47.502157, 55.02], [-0.576952, 47.502093, 54.93], [-0.576793, 47.502039, 54.86], [-0.576633, 47.501947, 54.85], [-0.576463, 47.501902, 54.85], [-0.576304, 47.501831, 54.85], [-0.576153, 47.501775, 54.86], [-0.575984, 47.501725, 54.86], [-0.575823, 47.501672, 54.87], [-0.575672, 47.501619, 54.87], [-0.575538, 47.501569, 54.87], [-0.575406, 47.50152, 54.88], [-0.575263, 47.501461, 54.88], [-0.5751, 47.50141, 54.88], [-0.574946, 47.501347, 54.89], [-0.574748, 47.501269, 54.89], [-0.574597, 47.501192, 54.9], [-0.574426, 47.501146, 54.89], [-0.574275, 47.501088, 54.78], [-0.57411, 47.501025, 54.66], [-0.573959, 47.500958, 54.55], [-0.573791, 47.500924, 54.44], [-0.573639, 47.500885, 54.33], [-0.573477, 47.500839, 54.22], [-0.573316, 47.500768, 54.1], [-0.573151, 47.500691, 53.98], [-0.572986, 47.500632, 53.86], [-0.572826, 47.500576, 53.75], [-0.572666, 47.500512, 53.63], [-0.572521, 47.500433, 53.52], [-0.572344, 47.500404, 53.4], [-0.572184, 47.500338, 53.29], [-0.572054, 47.500276, 53.15], [-0.571931, 47.500217, 52.99], [-0.571781, 47.500169, 52.82], [-0.571654, 47.500134, 52.67], [-0.571473, 47.500065, 52.45], [-0.57131, 47.500006, 52.25], [-0.571164, 47.499946, 52.07], [-0.571033, 47.499887, 51.91], [-0.570915, 47.499813, 51.74], [-0.570803, 47.499712, 51.54], [-0.570451, 47.499645, 51.15], [-0.57032, 47.499595, 50.99], [-0.57017, 47.499554, 50.82], [-0.569981, 47.49949, 50.6], [-0.569847, 47.499433, 50.43], [-0.569678, 47.499396, 50.17], [-0.569479, 47.499342, 49.85], [-0.569332, 47.499311, 49.62], [-0.569172, 47.499254, 49.35], [-0.569014, 47.499223, 49.1], [-0.568877, 47.499201, 48.89], [-0.568714, 47.499164, 48.63], [-0.56853, 47.499122, 48.34], [-0.568345, 47.499091, 48.06], [-0.568157, 47.499051, 47.76], [-0.568017, 47.49903, 47.55], [-0.56783, 47.498997, 47.26], [-0.567658, 47.498982, 47.0], [-0.567473, 47.498941, 46.71], [-0.567298, 47.498911, 46.44], [-0.567153, 47.498911, 46.33], [-0.566982, 47.49888, 46.19], [-0.566787, 47.498873, 46.03], [-0.566564, 47.498844, 45.85], [-0.566408, 47.498819, 45.73], [-0.566202, 47.498805, 45.56], [-0.56601, 47.498799, 45.41], [-0.56582, 47.498794, 45.26], [-0.565642, 47.498794, 45.12], [-0.565477, 47.498782, 44.99], [-0.565335, 47.498771, 44.88], [-0.565188, 47.498792, 44.76], [-0.565044, 47.498793, 44.65], [-0.564755, 47.498816, 44.42], [-0.564574, 47.498822, 44.26], [-0.564396, 47.498823, 44.08], [-0.564207, 47.498825, 43.88], [-0.564026, 47.498844, 43.7], [-0.563833, 47.498846, 43.5], [-0.563642, 47.498856, 43.3], [-0.563441, 47.49887, 43.1], [-0.563257, 47.498891, 42.91], [-0.563068, 47.498896, 42.72], [-0.56287, 47.498904, 42.51], [-0.562681, 47.498919, 42.32], [-0.56249, 47.49892, 42.13], [-0.562303, 47.498927, 41.93], [-0.562125, 47.498959, 41.75], [-0.561951, 47.49896, 41.55], [-0.561742, 47.498972, 41.28], [-0.561559, 47.498988, 41.03], [-0.561371, 47.499001, 40.78], [-0.561174, 47.499008, 40.52], [-0.560975, 47.499024, 40.26], [-0.560777, 47.499029, 40.0], [-0.560594, 47.499039, 39.75], [-0.560393, 47.499052, 39.49], [-0.560206, 47.499061, 39.24], [-0.560007, 47.499063, 38.98], [-0.559803, 47.499071, 38.71], [-0.559613, 47.499085, 38.46], [-0.559414, 47.499086, 38.19], [-0.559229, 47.499094, 37.92], [-0.559046, 47.499104, 37.65], [-0.558866, 47.499099, 37.37], [-0.558684, 47.499085, 37.1], [-0.558511, 47.49908, 36.83], [-0.558346, 47.499062, 36.58], [-0.558159, 47.499062, 36.3], [-0.557968, 47.499045, 36.0], [-0.557785, 47.499017, 35.72], [-0.557605, 47.498999, 35.44], [-0.557407, 47.498976, 35.14], [-0.55723, 47.498935, 34.85], [-0.55703, 47.49891, 34.55], [-0.556841, 47.498881, 34.25], [-0.556657, 47.498842, 34.04], [-0.556479, 47.498799, 33.94], [-0.556302, 47.498755, 33.84], [-0.556112, 47.498717, 33.73], [-0.555936, 47.498666, 33.63], [-0.555761, 47.49862, 33.53], [-0.555596, 47.498566, 33.43], [-0.555438, 47.498524, 33.34], [-0.555275, 47.498479, 33.24], [-0.55515, 47.498449, 33.17], [-0.555017, 47.498416, 33.1], [-0.554874, 47.498377, 33.01], [-0.554737, 47.498346, 32.94], [-0.554613, 47.498284, 32.85], [-0.554486, 47.498241, 32.78], [-0.554321, 47.498218, 32.69], [-0.55417, 47.498181, 32.63], [-0.55399, 47.498131, 32.6], [-0.553799, 47.498091, 32.56], [-0.553659, 47.498026, 32.52], [-0.553465, 47.497979, 32.48], [-0.553293, 47.497927, 32.44], [-0.553108, 47.497876, 32.4], [-0.552933, 47.497829, 32.36], [-0.552774, 47.497786, 32.33], [-0.552588, 47.497735, 32.29], [-0.552418, 47.497684, 32.25], [-0.552251, 47.497641, 32.22], [-0.552078, 47.497606, 32.18], [-0.551906, 47.497549, 32.14], [-0.551722, 47.497492, 32.05], [-0.551542, 47.497452, 31.91], [-0.551384, 47.497395, 31.78], [-0.551194, 47.49735, 31.63], [-0.551029, 47.497299, 31.5], [-0.550861, 47.497229, 31.36], [-0.550684, 47.497176, 31.22], [-0.550502, 47.497109, 31.07], [-0.550343, 47.49705, 30.93], [-0.550177, 47.496975, 30.79], [-0.550028, 47.496912, 30.66], [-0.549869, 47.496848, 30.52], [-0.549718, 47.496776, 30.39], [-0.549565, 47.496699, 30.25], [-0.549417, 47.496608, 29.91], [-0.549266, 47.496532, 29.41], [-0.549131, 47.496455, 28.94], [-0.548994, 47.496388, 28.48], [-0.548855, 47.49632, 28.03], [-0.548739, 47.496245, 27.6], [-0.548631, 47.496162, 27.16], [-0.548497, 47.496091, 26.71], [-0.548376, 47.496005, 26.24], [-0.548271, 47.495915, 25.79], [-0.548154, 47.495829, 25.33], [-0.548017, 47.495746, 24.83], [-0.547903, 47.495646, 24.34], [-0.547772, 47.495556, 23.84], [-0.547647, 47.495467, 23.35], [-0.547514, 47.495376, 23.01], [-0.547384, 47.495294, 22.89], [-0.547262, 47.495198, 22.75], [-0.547155, 47.49511, 22.63], [-0.547037, 47.49503, 22.51], [-0.546925, 47.494954, 22.39], [-0.546808, 47.494867, 22.27], [-0.546704, 47.494785, 22.15], [-0.546587, 47.494715, 22.04], [-0.546464, 47.494655, 21.93], [-0.546356, 47.494564, 21.8], [-0.546257, 47.494481, 21.69], [-0.546132, 47.494404, 21.56], [-0.546022, 47.494312, 21.44], [-0.545897, 47.49423, 21.31], [-0.54577, 47.494135, 21.17], [-0.545644, 47.494053, 21.05], [-0.545538, 47.493964, 20.92], [-0.545421, 47.493897, 20.81], [-0.545319, 47.493811, 20.69], [-0.54521, 47.493728, 20.58], [-0.545062, 47.493649, 20.44], [-0.544955, 47.493555, 20.31], [-0.544851, 47.49347, 20.19], [-0.54475, 47.4934, 20.09], [-0.544648, 47.493328, 19.98], [-0.544538, 47.493246, 19.86], [-0.544442, 47.493177, 19.76], [-0.544329, 47.493124, 19.66], [-0.544221, 47.493058, 19.55], [-0.544087, 47.492966, 19.42], [-0.543981, 47.492871, 19.29], [-0.543888, 47.492804, 19.18], [-0.543845, 47.492716, 19.05], [-0.543933, 47.492645, 18.92], [-0.543974, 47.492558, 18.79], [-0.544081, 47.492475, 18.63], [-0.544152, 47.492392, 18.5], [-0.544273, 47.492319, 18.34], [-0.544387, 47.492217, 18.16], [-0.544483, 47.492144, 18.02], [-0.544568, 47.492074, 17.89], [-0.544669, 47.492015, 17.76], [-0.544764, 47.491946, 17.63], [-0.544853, 47.491859, 17.48], [-0.544964, 47.491787, 17.33], [-0.54506, 47.491716, 17.2], [-0.545164, 47.491633, 17.04], [-0.545279, 47.491545, 16.88], [-0.545405, 47.491434, 16.68], [-0.545536, 47.491338, 16.66], [-0.545633, 47.49126, 16.66], [-0.545727, 47.491174, 16.66], [-0.545846, 47.491085, 16.66], [-0.545963, 47.491011, 16.66], [-0.545944, 47.490898, 16.66], [-0.546079, 47.490951, 16.66], [-0.546213, 47.490868, 16.66], [-0.546267, 47.490761, 16.66], [-0.546355, 47.490689, 16.66], [-0.546438, 47.490607, 16.66], [-0.546503, 47.490513, 16.66], [-0.546605, 47.490414, 16.66], [-0.546711, 47.490301, 16.66], [-0.546819, 47.490198, 16.66], [-0.546871, 47.490086, 16.66]]}, "properties": {"name": "Micro-aventure « Boucle de la Mayenne »", "source_file": "micro-aventure_boucle_mayenne.gpx", "point_count": 2219, "distance_km": 29.13, "duration_s": 11331, "elevation_gain_m": 131.3, "elevation_loss_m": 131.4}}]}
