{"type": "FeatureCollection", "features": [{"type": "Feature", "geometry": {"type": "LineString", "coordinates": [[-2.104191, 47.115535, 13.1], [-2.103738, 47.115678, 13.1], [-2.10338, 47.115687, 13.1], [-2.103211, 47.115669, 13.1], [-2.103063, 47.115697, 13.1], [-2.102885, 47.115766, 12.99], [-2.102766, 47.115815, 12.73], [-2.102584, 47.115885, 12.36], [-2.102498, 47.115935, 12.15], [-2.101962, 47.11584, 11.15], [-2.10179, 47.115809, 10.83], [-2.101631, 47.115781, 10.53], [-2.101548, 47.115767, 10.38], [-2.101481, 47.115754, 10.25], [-2.100979, 47.115665, 9.32], [-2.100788, 47.115656, 8.97], [-2.10017, 47.115752, 8.13], [-2.099872, 47.115796, 7.91], [-2.099654, 47.115804, 7.76], [-2.099453, 47.115742, 7.6], [-2.098871, 47.115532, 7.12], [-2.098839, 47.115493, 7.08], [-2.098829, 47.115372, 6.95], [-2.098778, 47.115297, 6.86], [-2.098716, 47.115152, 6.7], [-2.098636, 47.114937, 6.47], [-2.098574, 47.114744, 7.55], [-2.09856, 47.114597, 8.54], [-2.098234, 47.114316, 10.96], [-2.097949, 47.11422, 12.43], [-2.09807, 47.113722, 15.84], [-2.098106, 47.113474, 17.52], [-2.098098, 47.113271, 18.81], [-2.098044, 47.113064, 19.85], [-2.097897, 47.112464, 22.84], [-2.097769, 47.111888, 25.71], [-2.097818, 47.1111, 27.34], [-2.097846, 47.110827, 27.27], [-2.097887, 47.11033, 27.14], [-2.096639, 47.109992, 26.65], [-2.095423, 47.109641, 25.72], [-2.095121, 47.109511, 25.47], [-2.094424, 47.10927, 25.17], [-2.094003, 47.109091, 25.26], [-2.093789, 47.108963, 25.32], [-2.093764, 47.108948, 25.32], [-2.093296, 47.108684, 25.43], [-2.092792, 47.108491, 25.54], [-2.092714, 47.108468, 25.56], [-2.091134, 47.108183, 25.87], [-2.091042, 47.10813, 25.9], [-2.090701, 47.107807, 26.01], [-2.09067, 47.107715, 26.04], [-2.090698, 47.107618, 26.07], [-2.089926, 47.107437, 26.21], [-2.089617, 47.107393, 26.26], [-2.089337, 47.107416, 26.31], [-2.089147, 47.107493, 26.34], [-2.088875, 47.10762, 26.4], [-2.088789, 47.107692, 26.42], [-2.088229, 47.107712, 26.51], [-2.087337, 47.107457, 26.46], [-2.086612, 47.107312, 26.35], [-2.086502, 47.107233, 26.33], [-2.086348, 47.107182, 26.3], [-2.086087, 47.107131, 26.26], [-2.084958, 47.107013, 25.84], [-2.084704, 47.106928, 25.67], [-2.084367, 47.106777, 25.42], [-2.0839, 47.106514, 25.05], [-2.083691, 47.106397, 24.88], [-2.082987, 47.106006, 24.34], [-2.082747, 47.105894, 24.18], [-2.081969, 47.105461, 23.62], [-2.081417, 47.105206, 23.25], [-2.080457, 47.10472, 22.68], [-2.080003, 47.104328, 22.35], [-2.079944, 47.104248, 22.29], [-2.079442, 47.104089, 22.04], [-2.079148, 47.103973, 21.9], [-2.078578, 47.103878, 22.01], [-2.07844, 47.103888, 22.04], [-2.078325, 47.103925, 22.07], [-2.078253, 47.103889, 22.09], [-2.078126, 47.103881, 22.11], [-2.07765, 47.103974, 22.21], [-2.077045, 47.104133, 22.34], [-2.076835, 47.104131, 22.38], [-2.076457, 47.10406, 22.57], [-2.076139, 47.103947, 22.85], [-2.075647, 47.103819, 23.26], [-2.075118, 47.103633, 23.72], [-2.074939, 47.103547, 23.89], [-2.074718, 47.103499, 24.07], [-2.074416, 47.103616, 24.34], [-2.074113, 47.10368, 24.73], [-2.073696, 47.103766, 25.49], [-2.073642, 47.103777, 25.59], [-2.073354, 47.103798, 26.1], [-2.073151, 47.103845, 26.48], [-2.072454, 47.104191, 27.99], [-2.07189, 47.104374, 29.08], [-2.071477, 47.104391, 29.58], [-2.070829, 47.10444, 30.36], [-2.070643, 47.104451, 30.59], [-2.070574, 47.104489, 30.7], [-2.070259, 47.104571, 31.1], [-2.069667, 47.104773, 31.9], [-2.069213, 47.104958, 32.46], [-2.068115, 47.104324, 33.69], [-2.066422, 47.103575, 35.3], [-2.066302, 47.103603, 35.39], [-2.066005, 47.103417, 35.69], [-2.065483, 47.103114, 36.2], [-2.064988, 47.102878, 36.56], [-2.064546, 47.1027, 36.74], [-2.064459, 47.102674, 36.77], [-2.06436, 47.102644, 36.81], [-2.063871, 47.10248, 37.0], [-2.06346, 47.1023, 37.16], [-2.063224, 47.102131, 37.28], [-2.063008, 47.10188, 37.37], [-2.062774, 47.101591, 37.24], [-2.062574, 47.101419, 37.16], [-2.062416, 47.101323, 37.1], [-2.062174, 47.101238, 37.03], [-2.061967, 47.101211, 36.97], [-2.061813, 47.10114, 36.92], [-2.061548, 47.101066, 36.85], [-2.061191, 47.100881, 36.73], [-2.060603, 47.100637, 36.21], [-2.060673, 47.100506, 36.03], [-2.060789, 47.100145, 35.56], [-2.060789, 47.099989, 35.36], [-2.060699, 47.099804, 35.11], [-2.060405, 47.09951, 34.65], [-2.060093, 47.099153, 34.23], [-2.059555, 47.09881, 33.84], [-2.059025, 47.098484, 33.46], [-2.058708, 47.098343, 33.26], [-2.058302, 47.098211, 33.02], [-2.057163, 47.097913, 31.34], [-2.056298, 47.097639, 30.01], [-2.056101, 47.097529, 29.65], [-2.055881, 47.097344, 29.06], [-2.055482, 47.096968, 27.32], [-2.055235, 47.096777, 26.37], [-2.054606, 47.096495, 24.46], [-2.054136, 47.096306, 23.07], [-2.053937, 47.096227, 22.5], [-2.053571, 47.096099, 21.64], [-2.053426, 47.096054, 21.31], [-2.053046, 47.095882, 20.36], [-2.052811, 47.095787, 19.8], [-2.052788, 47.095781, 19.74], [-2.05243, 47.095728, 18.98], [-2.052152, 47.095781, 18.38], [-2.051947, 47.095804, 17.95], [-2.051684, 47.095787, 17.4], [-2.051517, 47.095751, 17.02], [-2.05154, 47.095687, 16.7], [-2.051626, 47.095602, 16.19], [-2.051782, 47.095386, 15.01], [-2.051867, 47.095311, 14.55], [-2.052921, 47.09477, 10.14], [-2.052811, 47.094764, 9.78], [-2.052849, 47.094684, 9.36], [-2.052965, 47.094594, 8.78], [-2.052935, 47.09454, 8.5], [-2.05288, 47.094528, 8.3], [-2.052736, 47.094509, 8.2], [-2.052662, 47.094431, 8.13], [-2.052733, 47.094274, 8.02], [-2.052682, 47.094204, 7.96], [-2.052462, 47.094141, 7.85], [-2.052206, 47.094016, 7.69], [-2.052148, 47.093713, 7.48], [-2.051982, 47.093581, 7.35], [-2.051822, 47.093403, 7.21], [-2.051816, 47.093217, 7.07], [-2.051895, 47.09315, 7.01], [-2.051872, 47.092863, 7.5], [-2.051821, 47.092778, 7.68], [-2.051685, 47.092687, 7.94], [-2.051607, 47.092554, 8.22], [-2.051613, 47.092496, 8.34], [-2.051526, 47.092407, 8.56], [-2.05149, 47.092305, 8.76], [-2.051504, 47.092095, 9.19], [-2.051476, 47.092001, 9.38], [-2.051453, 47.091939, 9.51], [-2.051432, 47.091874, 9.64], [-2.0514, 47.091727, 9.94], [-2.051381, 47.091696, 10.0], [-2.051229, 47.091755, 10.24], [-2.051108, 47.0917, 10.44], [-2.050954, 47.091555, 11.18], [-2.050652, 47.091166, 13.65], [-2.050658, 47.091125, 13.89], [-2.050466, 47.090855, 15.57], [-2.050152, 47.090452, 18.14], [-2.049374, 47.090759, 20.99], [-2.049314, 47.090721, 21.09], [-2.048994, 47.090441, 21.72], [-2.048396, 47.089882, 22.95], [-2.048267, 47.089843, 23.12], [-2.048238, 47.089692, 23.39], [-2.048111, 47.089398, 23.88], [-2.047975, 47.089177, 23.35], [-2.047511, 47.088668, 22.02], [-2.045937, 47.087172, 18.3], [-2.045824, 47.087062, 18.06], [-2.045717, 47.086962, 17.83], [-2.045588, 47.086837, 17.56], [-2.045252, 47.086514, 16.84], [-2.044984, 47.086256, 16.57], [-2.044688, 47.085974, 16.42], [-2.044181, 47.085584, 16.19], [-2.043922, 47.085432, 16.09], [-2.043562, 47.085234, 15.95], [-2.043194, 47.08503, 15.71], [-2.042704, 47.084768, 15.26], [-2.042013, 47.084393, 14.63], [-2.041616, 47.084162, 14.25], [-2.041357, 47.083944, 13.96], [-2.040989, 47.083601, 13.49], [-2.04073, 47.083361, 13.16], [-2.040205, 47.082869, 12.5], [-2.040152, 47.082821, 12.43], [-2.039406, 47.082124, 11.52], [-2.039332, 47.082053, 11.43], [-2.039137, 47.081866, 11.2], [-2.038715, 47.081477, 10.71], [-2.038524, 47.081311, 10.49], [-2.038245, 47.081057, 10.17], [-2.038059, 47.080891, 10.04], [-2.037421, 47.080337, 9.58], [-2.037367, 47.080262, 9.52], [-2.036665, 47.079741, 9.06], [-2.036298, 47.079468, 8.74], [-2.036185, 47.079388, 8.63], [-2.03588, 47.079175, 8.35], [-2.035833, 47.079138, 8.3], [-2.035768, 47.07909, 8.24], [-2.03543, 47.078833, 7.91], [-2.034943, 47.078459, 7.43], [-2.03584, 47.078057, 6.78], [-2.035603, 47.077779, 6.5], [-2.035182, 47.077329, 6.04], [-2.034772, 47.076921, 5.78], [-2.034609, 47.076757, 5.87], [-2.034301, 47.076595, 6.0], [-2.033838, 47.076389, 6.17], [-2.033305, 47.076202, 6.36], [-2.032366, 47.075878, 6.54], [-2.031937, 47.075716, 6.53], [-2.031778, 47.075563, 6.52], [-2.031823, 47.075529, 6.52], [-2.031779, 47.075485, 6.52], [-2.031698, 47.075272, 6.51], [-2.031547, 47.075091, 6.51], [-2.030573, 47.074348, 6.07], [-2.030302, 47.074007, 5.78], [-2.03003, 47.073603, 5.44], [-2.029922, 47.073257, 5.17], [-2.029866, 47.073097, 4.99], [-2.029809, 47.073026, 4.88], [-2.029725, 47.072958, 4.76], [-2.029408, 47.072821, 4.41], [-2.028794, 47.072556, 3.74], [-2.028658, 47.072447, 3.55], [-2.028558, 47.072268, 3.29], [-2.028479, 47.072199, 3.17], [-2.02829, 47.072116, 2.97], [-2.028804, 47.071688, 2.3], [-2.028641, 47.071581, 2.13], [-2.028141, 47.071348, 1.68], [-2.027665, 47.071229, 1.3], [-2.027426, 47.071089, 1.06], [-2.02713, 47.070819, 0.71], [-2.026943, 47.070764, 0.78], [-2.026764, 47.070763, 0.84], [-2.026584, 47.07063, 0.93], [-2.025846, 47.070438, 1.2], [-2.025076, 47.070234, 1.48], [-2.024926, 47.070237, 1.54], [-2.024876, 47.070228, 1.55], [-2.024612, 47.070121, 1.77], [-2.024322, 47.070157, 2.08], [-2.024118, 47.070209, 2.31], [-2.024064, 47.070248, 2.4], [-2.023942, 47.070426, 2.7], [-2.022657, 47.07003, 4.2], [-2.022004, 47.070938, 6.05], [-2.021639, 47.071377, 7.0], [-2.021439, 47.07153, 7.38], [-2.02117, 47.071197, 7.81], [-2.020881, 47.070931, 7.88], [-2.020365, 47.070695, 7.96], [-2.019989, 47.070475, 8.02], [-2.019357, 47.070009, 8.13], [-2.018324, 47.069154, 8.2], [-2.018117, 47.069041, 8.21], [-2.016588, 47.068498, 8.37], [-2.016368, 47.068459, 8.39], [-2.015611, 47.068384, 8.48], [-2.014863, 47.06824, 8.51], [-2.014079, 47.068192, 8.39], [-2.013219, 47.068206, 8.26], [-2.012634, 47.068145, 8.17], [-2.01216, 47.067948, 7.71], [-2.011818, 47.067757, 7.22], [-2.01163, 47.067569, 6.85], [-2.011011, 47.06669, 5.27], [-2.010999, 47.066674, 5.24], [-2.010854, 47.066466, 5.13], [-2.0104, 47.065842, 4.82], [-2.009986, 47.06546, 4.61], [-2.009068, 47.064793, 4.24], [-2.00855, 47.064502, 4.08], [-2.008314, 47.06437, 4.01], [-2.006842, 47.063488, 3.44], [-2.006739, 47.063396, 3.38], [-2.006602, 47.063405, 3.34], [-2.00637, 47.063377, 3.26], [-2.006234, 47.06333, 3.21], [-2.00504, 47.062741, 2.79], [-2.003445, 47.061952, 2.36], [-2.003001, 47.061734, 2.36], [-2.002572, 47.061524, 2.39], [-2.002333, 47.061407, 2.41], [-2.002136, 47.061332, 2.42], [-2.002364, 47.060804, 2.47], [-2.00133, 47.059852, 2.45], [-2.000602, 47.059189, 2.42], [-2.000507, 47.059107, 2.41], [-1.999579, 47.058242, 2.28], [-1.999549, 47.058223, 2.28], [-1.998584, 47.057344, 2.09], [-1.998393, 47.057155, 2.04], [-1.998311, 47.057035, 2.01], [-1.997999, 47.056493, 1.87], [-1.996448, 47.054732, 0.93], [-1.99638, 47.054651, 0.89], [-1.996298, 47.054553, 0.86], [-1.996207, 47.054446, 0.84], [-1.996011, 47.054274, 0.81], [-1.995713, 47.054122, 0.78], [-1.994954, 47.053972, 0.7], [-1.994717, 47.053903, 0.67], [-1.994413, 47.053744, 0.63], [-1.994225, 47.053527, 0.63], [-1.994087, 47.053145, 0.68], [-1.993855, 47.052886, 0.71], [-1.993656, 47.052783, 0.73], [-1.992931, 47.052579, 0.8], [-1.992626, 47.052428, 0.83], [-1.992493, 47.052287, 0.86], [-1.992407, 47.051919, 0.94], [-1.992314, 47.051738, 0.98], [-1.992102, 47.051584, 1.03], [-1.990693, 47.050831, 1.27], [-1.99059, 47.050756, 1.28], [-1.990491, 47.050616, 1.3], [-1.990457, 47.050418, 1.33], [-1.990561, 47.049847, 1.42], [-1.990574, 47.049243, 1.49], [-1.990664, 47.049022, 1.51], [-1.991029, 47.04856, 1.55], [-1.991225, 47.047996, 1.59], [-1.991302, 47.047606, 1.69], [-1.991311, 47.047407, 1.84], [-1.991323, 47.047143, 2.03], [-1.99153, 47.046377, 2.61], [-1.991505, 47.046063, 2.84], [-1.991205, 47.044872, 3.06], [-1.990711, 47.044151, 3.1], [-1.990565, 47.043569, 2.82], [-1.989657, 47.042354, 2.28], [-1.989251, 47.041829, 2.28], [-1.988892, 47.041365, 2.27], [-1.988813, 47.041263, 2.27], [-1.988489, 47.040843, 2.25], [-1.988163, 47.040593, 2.2], [-1.986153, 47.039425, 2.13], [-1.98584, 47.039195, 2.21], [-1.985336, 47.03872, 2.35], [-1.985204, 47.038538, 2.4], [-1.98514, 47.038218, 2.55], [-1.985387, 47.036962, 3.77], [-1.985439, 47.036697, 4.02], [-1.985396, 47.036456, 4.23], [-1.985327, 47.036296, 4.32], [-1.984655, 47.03547, 4.83], [-1.983894, 47.034613, 5.19], [-1.982772, 47.033377, 5.24], [-1.981974, 47.03261, 4.27], [-1.981565, 47.032, 3.58], [-1.981346, 47.031825, 3.33], [-1.980392, 47.031253, 2.29], [-1.980185, 47.031073, 2.01], [-1.979575, 47.030482, 1.25], [-1.978891, 47.02962, 0.99], [-1.978672, 47.02951, 0.94], [-1.977876, 47.029292, 0.81], [-1.977573, 47.02923, 0.83], [-1.977211, 47.029183, 0.86], [-1.976134, 47.029134, 0.92], [-1.975505, 47.029112, 0.97], [-1.975518, 47.028964, 0.95], [-1.975521, 47.028928, 0.94], [-1.975536, 47.028752, 0.84], [-1.975539, 47.028714, 0.82], [-1.975535, 47.028615, 0.77], [-1.975688, 47.028574, 0.72], [-1.976288, 47.028545, 0.5], [-1.97862, 47.028579, -0.22], [-1.978826, 47.02833, -0.33], [-1.978963, 47.028295, -0.37], [-1.979129, 47.028297, -0.41], [-1.979179, 47.02827, -0.43], [-1.980051, 47.027351, -0.64], [-1.981493, 47.026531, -0.65], [-1.98255, 47.026013, -0.89], [-1.984475, 47.025039, -1.3], [-1.987319, 47.023491, -1.54], [-1.992244, 47.020858, -1.07], [-1.996907, 47.018461, -1.18], [-1.997135, 47.018372, -1.16], [-1.997829, 47.018252, -1.11], [-1.997975, 47.018207, -1.09], [-1.998094, 47.018131, -1.08], [-1.998137, 47.018055, -1.07], [-1.998085, 47.017693, -0.99], [-1.998117, 47.017611, -0.97], [-1.998356, 47.017578, -0.92], [-1.998487, 47.017615, -0.89], [-1.99869, 47.017991, -0.76], [-1.998814, 47.01808, -0.73], [-1.999089, 47.018107, -0.67], [-2.009515, 47.016596, 0.78], [-2.009677, 47.016596, 0.79], [-2.009914, 47.016617, 0.82], [-2.010055, 47.016597, 0.84], [-2.010288, 47.016485, 0.85], [-2.010789, 47.016102, 0.82], [-2.011206, 47.016094, 0.8], [-2.011297, 47.016059, 0.8], [-2.011393, 47.015982, 0.79], [-2.011662, 47.015558, 0.76], [-2.011802, 47.015416, 0.75], [-2.012805, 47.01476, 0.68], [-2.012923, 47.014652, 0.67], [-2.01299, 47.01456, 0.67], [-2.013018, 47.01418, 0.64], [-2.013098, 47.0141, 0.63], [-2.013541, 47.013798, 0.58], [-2.013972, 47.013556, 0.52], [-2.014676, 47.01322, 0.42], [-2.015026, 47.013132, 0.38], [-2.015856, 47.012651, 0.4], [-2.017014, 47.012182, 0.57], [-2.017089, 47.01213, 0.59], [-2.0172, 47.011879, 0.64], [-2.01836, 47.011862, 0.73], [-2.018834, 47.011825, 0.77], [-2.019154, 47.011758, 0.79], [-2.019525, 47.011644, 0.82], [-2.019731, 47.011545, 0.84], [-2.019802, 47.011478, 0.85], [-2.019854, 47.011353, 0.85], [-2.020032, 47.011127, 0.81], [-2.020149, 47.011057, 0.79], [-2.022338, 47.010331, 0.54], [-2.022804, 47.010137, 0.5], [-2.025536, 47.00925, 0.24], [-2.026569, 47.009064, 0.12], [-2.027382, 47.009085, 0.09], [-2.027322, 47.008335, 0.09], [-2.027122, 47.007578, 0.11], [-2.027169, 47.007324, 0.15], [-2.027123, 47.007229, 0.17], [-2.026926, 47.007144, 0.19], [-2.025915, 47.006967, 0.3], [-2.025783, 47.006913, 0.32], [-2.025714, 47.00684, 0.33], [-2.025657, 47.00667, 0.36], [-2.025872, 47.006343, 0.34], [-2.025946, 47.006142, 0.32], [-2.025998, 47.005898, 0.29], [-2.026202, 47.005353, 0.22], [-2.026376, 47.004979, 0.18], [-2.026429, 47.004854, 0.16], [-2.026835, 47.003897, 0.04], [-2.027343, 47.002963, -0.03], [-2.028031, 47.001438, 0.09], [-2.028189, 47.000158, 0.28], [-2.028205, 46.99983, 0.33], [-2.028147, 46.999459, 0.41], [-2.02818, 46.999227, 0.47], [-2.028298, 46.999069, 0.52], [-2.028763, 46.998796, 0.63], [-2.028902, 46.998665, 0.68], [-2.029023, 46.997966, 0.85], [-2.027455, 46.997632, 0.93], [-2.027108, 46.99756, 0.95], [-2.02661, 46.997419, 0.97], [-2.026583, 46.997389, 0.97], [-2.026635, 46.997271, 0.95], [-2.026656, 46.997199, 0.95], [-2.026762, 46.996877, 0.92], [-2.026793, 46.996449, 0.88], [-2.026848, 46.9963, 0.86], [-2.026774, 46.996254, 0.86], [-2.026857, 46.996149, 0.85], [-2.027361, 46.995132, 0.71], [-2.028361, 46.993163, 0.35], [-2.029095, 46.991701, 0.2], [-2.029596, 46.990744, 0.24], [-2.029779, 46.990487, 0.24], [-2.029888, 46.990363, 0.24], [-2.030142, 46.99015, 0.23], [-2.030266, 46.990063, 0.23], [-2.030329, 46.990038, 0.23], [-2.030391, 46.990038, 0.23], [-2.030451, 46.989838, 0.22], [-2.030472, 46.989481, 0.22], [-2.030575, 46.989392, 0.22], [-2.031254, 46.989058, 0.2], [-2.031409, 46.98895, 0.19], [-2.031507, 46.98877, 0.17], [-2.0315, 46.988567, 0.16], [-2.031381, 46.988329, 0.15], [-2.030963, 46.987792, 0.11], [-2.030806, 46.987638, 0.1], [-2.030338, 46.98737, 0.1], [-2.029387, 46.986754, 0.1], [-2.029325, 46.986643, 0.1], [-2.029183, 46.985997, 0.11], [-2.0292, 46.985814, 0.11], [-2.029288, 46.985815, 0.11], [-2.029377, 46.985788, 0.11], [-2.029928, 46.985498, 0.12], [-2.030358, 46.985304, 0.12], [-2.031243, 46.984975, 0.15], [-2.031445, 46.984815, 0.16], [-2.031461, 46.984722, 0.16], [-2.031372, 46.984375, 0.18], [-2.031115, 46.983681, 0.22], [-2.031061, 46.982628, 0.35], [-2.030935, 46.982528, 0.36], [-2.030613, 46.982486, 0.39], [-2.030537, 46.982443, 0.4], [-2.030506, 46.982373, 0.41], [-2.030512, 46.982171, 0.44], [-2.030692, 46.981775, 0.43], [-2.030811, 46.981653, 0.42], [-2.030922, 46.981629, 0.42], [-2.031445, 46.981605, 0.39], [-2.031987, 46.98155, 0.37], [-2.032132, 46.981519, 0.36], [-2.03221, 46.981471, 0.36], [-2.032258, 46.981389, 0.35], [-2.032349, 46.980937, 0.34], [-2.032513, 46.980727, 0.36], [-2.032546, 46.980637, 0.37], [-2.032462, 46.979878, 0.42], [-2.032485, 46.979801, 0.43], [-2.032544, 46.979743, 0.43], [-2.032761, 46.979678, 0.45], [-2.033831, 46.979525, 0.47], [-2.033923, 46.979475, 0.48], [-2.034537, 46.978405, 0.5], [-2.034844, 46.977942, 0.5], [-2.034896, 46.976898, 0.5], [-2.034864, 46.976527, 0.5], [-2.034797, 46.976273, 0.51], [-2.034311, 46.975586, 0.52], [-2.034024, 46.97499, 0.53], [-2.033806, 46.97421, 0.62], [-2.033722, 46.973573, 0.7], [-2.03374, 46.973401, 0.72], [-2.033839, 46.973156, 0.75], [-2.033965, 46.972538, 0.79], [-2.0339, 46.972021, 0.83], [-2.033934, 46.971437, 0.87], [-2.033857, 46.971217, 0.87], [-2.033572, 46.970937, 0.88], [-2.033491, 46.970773, 0.88], [-2.033411, 46.970095, 0.89], [-2.033475, 46.969421, 0.87], [-2.033458, 46.969182, 0.84], [-2.033448, 46.969095, 0.83], [-2.033442, 46.96899, 0.81], [-2.033446, 46.968941, 0.8], [-2.033499, 46.968817, 0.79], [-2.033748, 46.968865, 0.76], [-2.036859, 46.968742, 0.39], [-2.038933, 46.968469, 0.16], [-2.0391, 46.968394, 0.14], [-2.039374, 46.968363, 0.11], [-2.041927, 46.968142, -0.11], [-2.042018, 46.968125, -0.12], [-2.042256, 46.96797, -0.15], [-2.042659, 46.967956, -0.18], [-2.043228, 46.967892, -0.24], [-2.04345, 46.967742, -0.28], [-2.043562, 46.967428, -0.33], [-2.043983, 46.96665, -0.45], [-2.044002, 46.966504, -0.45], [-2.04361, 46.964286, -0.36], [-2.043617, 46.964128, -0.36], [-2.043459, 46.963484, -0.37], [-2.043232, 46.962092, -0.41], [-2.04315, 46.961614, -0.44], [-2.043137, 46.961431, -0.44], [-2.043077, 46.96128, -0.45], [-2.042903, 46.960322, -0.3], [-2.042476, 46.957827, 0.06], [-2.042404, 46.957376, 0.08], [-2.042424, 46.957066, 0.08], [-2.042472, 46.956915, 0.09], [-2.042904, 46.956224, 0.1], [-2.04349, 46.955384, 0.1], [-2.045317, 46.952813, 0.08], [-2.046969, 46.950456, -0.01], [-2.047074, 46.950238, -0.0], [-2.047566, 46.949601, 0.03], [-2.043484, 46.948259, 0.57], [-2.04334, 46.948143, 0.59], [-2.043301, 46.948081, 0.6], [-2.04329, 46.948009, 0.62], [-2.043355, 46.947856, 0.64], [-2.044162, 46.946987, 0.62], [-2.044638, 46.946348, 0.59], [-2.045161, 46.945811, 0.56], [-2.045463, 46.945626, 0.56], [-2.04576, 46.945488, 0.55], [-2.046348, 46.945289, 0.54], [-2.046879, 46.945154, 0.53], [-2.047595, 46.944823, 0.52], [-2.047837, 46.944686, 0.51], [-2.048599, 46.944107, 0.48], [-2.049435, 46.943606, 0.47], [-2.051389, 46.941939, 0.48], [-2.051436, 46.941865, 0.48], [-2.051428, 46.941815, 0.48], [-2.051314, 46.941705, 0.48], [-2.05128, 46.941629, 0.48], [-2.051363, 46.941513, 0.49], [-2.052615, 46.940619, 0.45], [-2.052696, 46.940587, 0.45], [-2.053716, 46.940442, 0.41], [-2.054546, 46.940285, 0.41], [-2.05483, 46.940252, 0.41], [-2.055488, 46.940211, 0.42], [-2.056553, 46.940106, 0.44], [-2.057344, 46.940077, 0.45], [-2.057412, 46.940056, 0.46], [-2.05763, 46.939859, 0.46], [-2.057786, 46.939756, 0.47], [-2.058387, 46.939448, 0.49], [-2.058994, 46.939017, 0.5], [-2.059517, 46.938682, 0.49], [-2.060573, 46.938098, 0.48], [-2.06303, 46.937682, 0.38], [-2.064035, 46.937577, 0.36], [-2.064613, 46.937485, 0.35], [-2.065258, 46.937284, 0.34], [-2.06703, 46.936603, 0.39], [-2.067431, 46.936491, 0.4], [-2.068295, 46.93638, 0.44], [-2.070231, 46.936248, 0.65], [-2.070619, 46.936189, 0.69], [-2.07109, 46.936028, 0.76], [-2.071068, 46.935994, 0.77], [-2.070947, 46.935767, 0.81], [-2.07082, 46.935118, 0.93], [-2.070807, 46.935074, 0.94], [-2.07088, 46.935059, 0.95], [-2.07098, 46.935022, 0.97], [-2.071043, 46.934992, 0.98], [-2.07118, 46.9349, 1.0], [-2.071381, 46.934615, 1.06], [-2.071678, 46.934715, 1.07], [-2.071991, 46.934968, 1.1], [-2.073231, 46.934544, 1.17], [-2.073407, 46.934529, 1.18], [-2.073628, 46.934547, 1.19], [-2.073958, 46.934606, 1.16], [-2.074352, 46.934644, 1.12], [-2.074709, 46.93464, 1.09], [-2.07515, 46.934587, 1.05], [-2.075344, 46.934517, 1.03], [-2.07548, 46.934395, 1.01], [-2.076153, 46.934149, 0.93], [-2.07778, 46.933471, 0.43], [-2.079309, 46.934041, 0.23], [-2.079942, 46.933934, 0.21], [-2.080468, 46.933894, 0.19], [-2.081001, 46.933791, 0.21], [-2.083017, 46.933234, 0.56], [-2.08397, 46.93302, 0.49], [-2.08454, 46.933084, 0.4], [-2.085665, 46.932909, 0.23], [-2.086929, 46.932437, 0.08], [-2.088527, 46.931783, -0.06], [-2.088887, 46.931584, -0.05], [-2.090537, 46.930543, -0.04], [-2.09069, 46.930564, -0.04], [-2.09096, 46.9305, -0.04], [-2.091191, 46.930375, -0.05], [-2.091398, 46.930225, -0.05], [-2.092138, 46.929431, -0.07], [-2.092809, 46.928654, -0.09], [-2.093168, 46.928166, -0.1], [-2.093516, 46.927827, -0.08], [-2.094326, 46.927185, -0.05], [-2.094374, 46.927124, -0.04], [-2.094398, 46.927033, -0.04], [-2.09407, 46.926472, -0.01], [-2.093276, 46.925029, 0.06], [-2.092493, 46.92379, 0.44], [-2.091655, 46.922593, 0.85], [-2.092112, 46.9225, 0.95], [-2.092372, 46.922381, 1.02], [-2.092611, 46.92214, 1.11], [-2.092694, 46.921963, 1.17], [-2.092735, 46.921588, 0.91], [-2.093147, 46.921498, 0.69], [-2.094383, 46.92108, 0.01], [-2.095303, 46.920872, -0.12], [-2.098651, 46.920153, 0.25], [-2.098913, 46.920092, 0.31], [-2.100392, 46.919774, 0.53], [-2.10049, 46.919759, 0.53], [-2.100809, 46.919731, 0.55], [-2.101097, 46.919754, 0.57], [-2.101277, 46.919788, 0.58], [-2.101596, 46.919895, 0.6], [-2.103109, 46.920706, 0.59], [-2.103255, 46.920784, 0.58], [-2.103613, 46.920975, 0.57], [-2.10374, 46.921045, 0.56], [-2.103845, 46.921103, 0.56], [-2.106822, 46.922674, 0.15], [-2.10758, 46.923154, 0.07], [-2.108831, 46.924073, 0.0], [-2.114226, 46.927634, -0.0], [-2.129606, 46.932325, -0.0], [-2.134696, 46.933862, -0.0], [-2.136215, 46.933886, -0.0], [-2.140609, 46.933895, -0.0], [-2.147476, 46.933893, -0.0], [-2.147634, 46.93388, -0.0], [-2.147867, 46.93382, -0.0], [-2.14795, 46.933768, -0.0], [-2.148163, 46.933711, -0.0], [-2.148179, 46.933755, -0.0], [-2.148098, 46.933837, -0.0], [-2.1477, 46.933967, -0.02], [-2.147492, 46.934072, -0.04], [-2.147429, 46.934189, -0.05], [-2.147464, 46.934322, -0.06], [-2.147812, 46.934844, -0.12], [-2.147886, 46.934871, -0.12], [-2.148118, 46.935099, -0.15], [-2.148632, 46.936022, -0.26], [-2.149137, 46.936859, -0.36], [-2.149533, 46.93745, -0.43], [-2.149697, 46.937811, -0.47], [-2.149683, 46.937896, -0.48], [-2.149604, 46.937927, -0.49], [-2.149272, 46.937925, -0.51], [-2.149073, 46.937961, -0.52], [-2.148733, 46.938121, -0.55], [-2.148558, 46.938293, -0.59], [-2.148448, 46.938496, -0.66], [-2.148469, 46.938868, -0.77], [-2.148571, 46.939087, -0.85], [-2.148738, 46.939266, -0.91], [-2.148915, 46.939378, -0.96], [-2.149314, 46.939535, -1.06], [-2.149627, 46.939565, -1.13], [-2.149976, 46.939553, -1.06], [-2.150595, 46.939384, -0.93], [-2.150654, 46.939408, -0.91], [-2.150743, 46.939505, -0.88], [-2.150874, 46.939777, -0.79], [-2.151092, 46.940102, -0.69], [-2.151857, 46.941414, -0.49], [-2.152006, 46.941614, -0.46], [-2.152108, 46.941669, -0.45], [-2.152083, 46.941774, -0.44], [-2.153813, 46.944659, -0.44], [-2.155451, 46.947465, -0.29], [-2.157023, 46.950023, -0.6], [-2.157149, 46.950117, -0.62], [-2.158242, 46.950593, -0.59], [-2.162704, 46.952663, -0.07], [-2.16284, 46.952769, -0.06], [-2.16284, 46.952769, -0.06], [-2.162949, 46.952771, -0.05], [-2.163059, 46.952818, -0.05], [-2.163222, 46.952883, -0.03], [-2.166609, 46.954485, 0.05], [-2.166844, 46.954617, 0.03], [-2.168511, 46.955348, -0.09], [-2.171111, 46.956326, -0.29], [-2.172545, 46.956814, -0.36], [-2.173568, 46.957124, -0.35], [-2.176827, 46.958389, -0.12], [-2.178212, 46.958723, -0.08], [-2.179189, 46.95893, -0.13], [-2.183238, 46.959706, -0.42], [-2.183746, 46.959749, -0.46], [-2.184052, 46.959746, -0.48], [-2.18431, 46.959853, -0.51], [-2.184384, 46.95986, -0.51], [-2.184581, 46.960016, -0.54], [-2.185363, 46.960324, -0.62], [-2.190311, 46.962174, -1.26], [-2.193931, 46.963495, -1.0], [-2.194451, 46.963705, -0.95], [-2.197631, 46.964857, -0.9], [-2.197934, 46.964934, -0.9], [-2.198057, 46.965016, -0.9], [-2.199876, 46.965664, -0.91], [-2.200358, 46.965858, -0.92], [-2.203733, 46.967093, -1.01], [-2.206759, 46.968242, -1.15], [-2.210609, 46.969643, -1.05], [-2.210917, 46.969498, -0.96], [-2.211787, 46.969808, -0.72], [-2.211911, 46.969817, -0.68], [-2.212138, 46.969922, -0.62], [-2.211961, 46.970117, -0.53], [-2.212383, 46.970306, -0.41], [-2.212513, 46.97033, -0.41], [-2.212639, 46.97041, -0.41], [-2.213299, 46.970699, -0.4], [-2.218531, 46.972918, -0.44], [-2.220156, 46.973605, -0.4], [-2.221033, 46.973936, -0.36], [-2.221512, 46.974161, -0.36], [-2.225151, 46.97572, -0.73], [-2.225913, 46.976024, -0.78], [-2.226043, 46.9761, -0.77], [-2.226624, 46.975655, -0.7], [-2.227173, 46.975153, -0.63], [-2.227634, 46.974822, -0.56], [-2.228211, 46.97435, -0.33], [-2.229067, 46.973596, 0.02], [-2.229218, 46.973432, 0.08], [-2.229353, 46.973368, 0.1], [-2.22973, 46.973303, 0.14], [-2.229885, 46.973231, 0.16], [-2.230223, 46.972992, 0.21], [-2.230328, 46.972951, 0.22], [-2.231548, 46.97372, 0.37], [-2.23178, 46.973829, 0.38], [-2.232125, 46.973497, 0.4], [-2.232589, 46.973197, 0.43], [-2.232663, 46.973126, 0.44], [-2.23308, 46.97334, 0.46], [-2.23452, 46.973712, 0.46], [-2.234928, 46.973774, 0.46], [-2.235613, 46.973811, 0.46], [-2.235824, 46.9738, 0.47], [-2.235974, 46.973733, 0.48], [-2.236131, 46.97355, 0.49], [-2.236354, 46.973009, 0.52], [-2.236462, 46.972866, 0.53], [-2.23662, 46.972848, 0.53], [-2.237522, 46.973042, 0.57], [-2.238552, 46.973231, 0.63], [-2.239232, 46.973298, 0.67], [-2.239504, 46.973244, 0.69], [-2.239571, 46.973226, 0.69], [-2.240572, 46.974754, 0.85], [-2.240775, 46.974969, 0.88], [-2.240922, 46.975059, 0.88], [-2.241346, 46.975114, 0.84], [-2.241366, 46.975147, 0.84], [-2.241408, 46.975214, 0.83], [-2.241427, 46.975245, 0.83], [-2.241253, 46.975456, 0.8], [-2.241226, 46.97563, 0.78], [-2.241278, 46.975734, 0.77], [-2.24149, 46.975919, 0.74], [-2.241568, 46.976021, 0.72], [-2.241573, 46.976042, 0.72], [-2.241623, 46.976108, 0.71], [-2.241659, 46.976134, 0.71], [-2.241864, 46.976723, 0.65], [-2.242772, 46.978135, 0.52], [-2.243375, 46.979032, 0.51], [-2.243671, 46.979349, 0.5], [-2.24386, 46.979488, 0.5], [-2.245024, 46.980202, 0.5], [-2.246535, 46.981142, 0.51], [-2.246633, 46.98123, 0.52], [-2.246738, 46.981416, 0.52], [-2.246751, 46.981661, 0.53], [-2.246568, 46.981926, 0.54], [-2.246178, 46.98227, 0.56], [-2.246021, 46.982441, 0.57], [-2.24595, 46.982563, 0.57], [-2.245897, 46.982766, 0.59], [-2.245915, 46.98294, 0.6], [-2.245964, 46.983062, 0.6], [-2.246461, 46.983743, 0.65], [-2.246667, 46.983973, 0.66], [-2.246742, 46.984083, 0.65], [-2.246836, 46.984252, 0.63], [-2.246935, 46.984387, 0.61], [-2.247562, 46.984867, 0.53], [-2.248827, 46.985784, 0.42], [-2.249133, 46.986068, 0.39], [-2.249424, 46.986433, 0.37], [-2.249653, 46.98701, 0.35], [-2.249696, 46.987415, 0.37], [-2.249647, 46.987781, 0.39], [-2.249514, 46.988117, 0.41], [-2.249293, 46.98847, 0.43], [-2.248832, 46.988995, 0.5], [-2.248785, 46.989103, 0.51], [-2.24879, 46.9892, 0.52], [-2.248731, 46.989204, 0.53], [-2.248542, 46.989253, 0.55], [-2.248526, 46.989394, 0.56], [-2.24848, 46.989514, 0.58], [-2.248283, 46.989695, 0.61], [-2.247875, 46.990003, 0.66], [-2.247612, 46.990101, 0.7], [-2.247442, 46.990273, 0.74], [-2.247312, 46.990408, 0.78], [-2.24736, 46.990498, 0.8], [-2.24743, 46.990509, 0.81], [-2.24747, 46.99059, 0.83], [-2.247341, 46.990642, 0.85], [-2.247228, 46.990785, 0.88], [-2.247158, 46.990939, 0.92], [-2.247082, 46.991101, 0.95], [-2.247045, 46.991256, 0.99], [-2.247079, 46.991405, 1.02], [-2.247025, 46.991542, 1.05], [-2.247042, 46.991578, 1.05], [-2.246891, 46.991634, 1.05], [-2.246845, 46.991675, 1.06], [-2.246961, 46.992182, 1.07], [-2.246992, 46.992213, 1.07], [-2.247155, 46.992981, 1.08], [-2.247101, 46.993029, 1.08], [-2.247098, 46.993075, 1.08], [-2.247116, 46.993143, 1.08], [-2.247203, 46.993242, 1.08], [-2.247241, 46.993375, 1.07], [-2.24721, 46.993421, 1.07], [-2.24717, 46.993555, 1.06], [-2.24709, 46.993566, 1.05], [-2.247021, 46.993576, 1.05], [-2.247038, 46.993682, 1.04], [-2.24708, 46.993875, 1.02], [-2.247103, 46.993947, 1.01], [-2.247197, 46.994428, 0.97], [-2.247117, 46.99467, 0.95], [-2.247254, 46.994986, 0.94], [-2.247427, 46.995533, 0.97], [-2.247502, 46.995879, 0.99], [-2.247568, 46.996192, 1.0], [-2.2476, 46.996362, 1.01], [-2.247757, 46.997095, 1.06], [-2.247817, 46.997406, 1.08], [-2.247806, 46.99762, 1.09], [-2.247654, 46.997786, 1.1], [-2.247598, 46.997812, 1.11], [-2.247619, 46.997854, 1.11], [-2.247642, 46.99791, 1.11], [-2.247841, 46.998003, 1.12], [-2.24795, 46.998096, 1.13], [-2.247994, 46.998226, 1.14], [-2.24806, 46.998596, 1.16], [-2.248074, 46.99904, 1.18], [-2.248143, 46.999065, 1.18], [-2.247991, 46.999483, 1.2], [-2.247989, 46.99949, 1.2], [-2.24797, 46.999528, 1.2], [-2.247949, 46.99958, 1.21], [-2.247877, 46.999758, 1.21], [-2.247873, 46.999769, 1.21], [-2.247846, 46.99984, 1.22], [-2.247587, 46.999796, 1.23], [-2.246034, 46.999565, 1.58], [-2.245487, 46.999481, 1.7], [-2.244988, 46.999401, 1.82], [-2.244685, 46.999372, 1.82], [-2.244636, 46.999435, 1.82], [-2.244513, 46.999514, 1.82], [-2.244409, 46.999571, 1.82], [-2.244354, 46.999707, 1.82], [-2.244479, 46.99983, 1.82], [-2.244492, 46.999895, 1.82], [-2.244468, 46.999931, 1.82], [-2.244342, 47.000017, 1.82], [-2.244223, 46.999998, 1.82], [-2.244171, 47.000095, 1.82]]}, "properties": {"name": "Pornic ➡️ Noirmoutier-en-l'Île", "source_file": "velodyssee_etape-3_pornic_noirmoutier.gpx", "point_count": 1007, "distance_km": 53.29, "duration_s": 8933, "elevation_gain_m": 82.1, "elevation_loss_m": 93.4}}]}
