{"type": "FeatureCollection", "features": [{"type": "Feature", "geometry": {"type": "LineString", "coordinates": [[-2.165396, 47.171147, 11.57], [-2.165436, 47.171033, 11.57], [-2.165471, 47.170905, 11.57], [-2.165509, 47.170781, 11.57], [-2.165545, 47.170656, 11.57], [-2.165589, 47.170534, 11.57], [-2.165617, 47.170405, 11.57], [-2.165681, 47.170281, 11.57], [-2.16572, 47.17016, 11.56], [-2.165763, 47.170038, 11.56], [-2.165787, 47.169912, 11.55], [-2.165835, 47.169799, 11.54], [-2.1659, 47.169681, 11.53], [-2.165935, 47.169557, 11.52], [-2.165965, 47.169441, 11.52], [-2.165972, 47.169336, 11.51], [-2.16601, 47.169241, 11.5], [-2.166036, 47.169142, 11.5], [-2.166095, 47.169044, 11.49], [-2.166125, 47.168953, 11.48], [-2.166159, 47.168836, 11.47], [-2.166185, 47.168734, 11.47], [-2.166201, 47.168639, 11.46], [-2.166275, 47.168462, 11.45], [-2.166286, 47.168362, 11.45], [-2.166349, 47.168257, 11.45], [-2.166385, 47.168139, 11.44], [-2.166427, 47.168021, 11.44], [-2.166471, 47.167904, 11.43], [-2.166495, 47.167786, 11.43], [-2.166523, 47.16768, 11.43], [-2.166575, 47.167592, 11.43], [-2.166629, 47.167428, 11.42], [-2.166659, 47.167326, 11.42], [-2.166692, 47.16721, 11.41], [-2.166717, 47.167103, 11.41], [-2.166751, 47.167002, 11.41], [-2.166815, 47.166911, 11.4], [-2.166848, 47.166752, 11.39], [-2.166898, 47.166647, 11.34], [-2.166931, 47.166529, 11.29], [-2.166951, 47.166428, 11.25], [-2.166985, 47.166336, 11.21], [-2.16702, 47.166224, 11.16], [-2.167134, 47.166138, 11.11], [-2.167191, 47.166048, 11.07], [-2.167218, 47.165954, 11.02], [-2.167266, 47.165866, 10.98], [-2.16729, 47.165736, 10.93], [-2.167334, 47.16561, 10.87], [-2.167368, 47.165492, 10.82], [-2.167448, 47.165383, 10.77], [-2.167545, 47.165272, 10.71], [-2.167622, 47.165193, 10.67], [-2.167706, 47.165117, 10.63], [-2.167779, 47.165038, 10.58], [-2.167865, 47.164966, 10.53], [-2.167946, 47.164887, 10.47], [-2.168036, 47.164807, 10.42], [-2.168129, 47.16472, 10.36], [-2.168219, 47.16463, 10.3], [-2.168314, 47.164544, 10.24], [-2.168394, 47.164447, 10.17], [-2.1685, 47.164356, 10.11], [-2.168611, 47.164269, 10.05], [-2.168722, 47.164178, 9.98], [-2.168816, 47.164084, 9.92], [-2.168931, 47.164031, 9.86], [-2.169066, 47.164012, 9.81], [-2.169153, 47.163922, 9.75], [-2.169134, 47.163782, 9.67], [-2.16932, 47.163745, 9.6], [-2.169418, 47.163666, 9.54], [-2.169513, 47.16359, 9.48], [-2.169593, 47.163502, 9.42], [-2.169691, 47.163422, 9.36], [-2.169789, 47.163339, 9.3], [-2.169868, 47.163251, 9.24], [-2.169963, 47.163172, 9.18], [-2.170047, 47.163084, 9.12], [-2.170138, 47.162999, 9.06], [-2.170243, 47.162921, 9.0], [-2.170318, 47.162828, 8.94], [-2.170411, 47.162747, 8.88], [-2.170498, 47.162674, 8.83], [-2.170579, 47.162593, 8.77], [-2.170671, 47.162511, 8.71], [-2.170759, 47.162416, 8.65], [-2.170854, 47.162329, 8.59], [-2.170956, 47.162246, 8.51], [-2.171034, 47.162155, 8.44], [-2.17111, 47.162068, 8.38], [-2.171179, 47.161983, 8.31], [-2.171239, 47.161898, 8.25], [-2.171323, 47.161821, 8.19], [-2.171413, 47.161747, 8.12], [-2.171486, 47.161667, 8.06], [-2.171607, 47.161564, 7.97], [-2.171679, 47.161486, 7.91], [-2.171752, 47.161401, 7.85], [-2.171827, 47.161312, 7.78], [-2.171903, 47.161234, 7.72], [-2.171964, 47.161151, 7.66], [-2.172024, 47.161064, 7.59], [-2.172115, 47.16099, 7.53], [-2.172202, 47.160909, 7.46], [-2.17228, 47.160828, 7.4], [-2.17236, 47.160752, 7.48], [-2.172475, 47.160648, 7.6], [-2.172581, 47.160542, 7.71], [-2.172683, 47.160443, 7.82], [-2.172787, 47.160345, 7.92], [-2.1729, 47.160231, 8.05], [-2.172976, 47.160145, 8.14], [-2.173055, 47.160053, 8.23], [-2.173141, 47.159965, 8.32], [-2.173219, 47.159876, 8.42], [-2.173306, 47.159787, 8.51], [-2.173403, 47.159697, 8.61], [-2.17351, 47.159611, 8.71], [-2.173595, 47.159517, 8.81], [-2.17368, 47.15942, 8.91], [-2.17377, 47.159329, 9.0], [-2.173858, 47.159238, 9.03], [-2.173942, 47.159143, 9.06], [-2.174026, 47.159056, 9.09], [-2.174107, 47.158967, 9.11], [-2.174185, 47.158879, 9.14], [-2.174272, 47.158794, 9.17], [-2.174354, 47.158707, 9.2], [-2.174439, 47.158624, 9.23], [-2.174522, 47.15854, 9.26], [-2.174602, 47.158451, 9.28], [-2.174687, 47.158366, 9.31], [-2.17477, 47.158279, 9.34], [-2.174849, 47.158192, 9.37], [-2.174933, 47.158104, 9.4], [-2.17502, 47.158019, 9.43], [-2.175103, 47.157931, 9.46], [-2.17516, 47.157834, 9.49], [-2.175197, 47.15774, 9.62], [-2.175197, 47.15764, 9.78], [-2.175155, 47.157549, 9.93], [-2.175071, 47.157474, 10.08], [-2.174969, 47.157405, 10.23], [-2.174874, 47.157338, 10.38], [-2.174784, 47.157268, 10.53], [-2.174689, 47.157196, 10.68], [-2.174587, 47.157133, 10.83], [-2.174588, 47.157026, 11.0], [-2.17476, 47.157052, 11.19], [-2.174959, 47.157057, 11.4], [-2.175101, 47.157047, 11.55], [-2.175253, 47.157023, 11.72], [-2.1754, 47.157003, 11.88], [-2.175543, 47.156977, 12.04], [-2.175682, 47.156949, 12.2], [-2.175825, 47.156926, 12.35], [-2.17597, 47.1569, 12.45], [-2.176104, 47.156871, 12.54], [-2.176236, 47.156837, 12.63], [-2.176323, 47.156763, 12.73], [-2.176245, 47.156668, 12.83], [-2.17619, 47.15656, 12.94], [-2.17617, 47.156436, 13.07], [-2.176153, 47.156315, 13.18], [-2.176137, 47.156225, 13.27], [-2.176133, 47.156134, 13.36], [-2.176151, 47.156043, 13.45], [-2.176171, 47.155951, 13.54], [-2.176194, 47.155858, 13.64], [-2.176216, 47.155769, 13.72], [-2.176256, 47.155646, 13.85], [-2.176316, 47.155556, 13.94], [-2.176487, 47.155567, 14.06], [-2.17668, 47.155593, 13.97], [-2.176814, 47.155595, 13.85], [-2.176953, 47.155599, 13.74], [-2.177091, 47.155611, 13.62], [-2.177227, 47.155622, 13.5], [-2.177371, 47.155619, 13.38], [-2.177518, 47.155623, 13.26], [-2.177658, 47.155629, 13.14], [-2.17784, 47.155648, 12.98], [-2.178004, 47.155634, 12.84], [-2.178197, 47.155627, 12.68], [-2.178361, 47.155634, 12.54], [-2.178534, 47.155635, 12.4], [-2.178705, 47.155632, 12.25], [-2.178874, 47.155631, 12.11], [-2.179041, 47.155638, 11.97], [-2.179211, 47.15564, 11.85], [-2.179378, 47.155634, 11.78], [-2.179551, 47.155643, 11.72], [-2.17972, 47.155647, 11.66], [-2.179883, 47.15565, 11.6], [-2.180044, 47.155652, 11.54], [-2.180206, 47.155653, 11.48], [-2.180371, 47.155669, 11.42], [-2.180548, 47.1557, 11.36], [-2.180739, 47.155742, 11.28], [-2.180916, 47.155788, 11.21], [-2.181055, 47.155843, 11.16], [-2.181175, 47.155898, 11.1], [-2.181346, 47.155954, 11.03], [-2.181492, 47.15601, 10.97], [-2.181636, 47.156059, 10.91], [-2.181788, 47.15611, 11.05], [-2.181977, 47.156143, 11.28], [-2.18211, 47.156159, 11.45], [-2.182308, 47.156175, 11.69], [-2.1825, 47.156198, 11.93], [-2.182632, 47.156207, 12.09], [-2.182766, 47.156223, 12.25], [-2.182957, 47.156246, 12.49], [-2.183147, 47.156273, 12.72], [-2.183337, 47.156296, 12.95], [-2.183521, 47.156345, 13.19], [-2.183646, 47.156383, 13.36], [-2.183826, 47.156439, 13.6], [-2.183958, 47.156465, 13.77], [-2.184091, 47.156488, 13.93], [-2.184235, 47.156508, 14.09], [-2.184384, 47.156523, 13.89], [-2.184544, 47.156541, 13.67], [-2.1847, 47.156553, 13.46], [-2.18486, 47.156564, 13.25], [-2.185022, 47.156565, 13.04], [-2.185188, 47.156558, 12.81], [-2.185351, 47.156538, 12.59], [-2.185503, 47.156507, 12.38], [-2.18565, 47.15647, 12.18], [-2.185804, 47.156446, 11.97], [-2.18596, 47.15643, 11.76], [-2.186125, 47.156424, 11.54], [-2.186298, 47.15643, 11.31], [-2.186468, 47.156434, 11.08], [-2.186638, 47.15644, 10.85], [-2.186805, 47.156444, 10.63], [-2.186966, 47.15645, 10.64], [-2.187134, 47.156451, 10.72], [-2.187303, 47.156454, 10.79], [-2.187473, 47.156464, 10.87], [-2.187646, 47.156459, 10.95], [-2.187818, 47.156464, 11.03], [-2.187996, 47.15647, 11.11], [-2.18817, 47.156474, 11.19], [-2.188346, 47.156478, 11.27], [-2.188526, 47.156481, 11.35], [-2.188693, 47.156487, 11.42], [-2.188854, 47.1565, 11.5], [-2.189004, 47.156517, 11.56], [-2.189137, 47.156528, 11.63], [-2.189268, 47.156545, 11.69], [-2.189456, 47.156591, 11.78], [-2.189577, 47.156638, 11.86], [-2.189706, 47.15667, 11.94], [-2.189835, 47.156707, 12.03], [-2.189965, 47.156744, 12.11], [-2.190106, 47.156778, 12.2], [-2.190243, 47.156816, 12.29], [-2.190381, 47.156849, 12.38], [-2.190524, 47.156884, 12.47], [-2.190658, 47.156926, 12.56], [-2.19079, 47.156973, 12.65], [-2.190914, 47.157017, 12.74], [-2.191038, 47.15707, 12.83], [-2.191175, 47.157128, 12.92], [-2.191325, 47.157171, 13.02], [-2.191482, 47.157201, 13.12], [-2.191639, 47.157227, 13.22], [-2.191799, 47.157251, 13.32], [-2.191959, 47.15728, 13.28], [-2.192106, 47.157295, 13.01], [-2.192242, 47.157317, 12.76], [-2.192416, 47.157341, 12.45], [-2.192577, 47.157369, 12.16], [-2.192748, 47.157404, 11.84], [-2.192919, 47.157433, 11.53], [-2.193056, 47.157451, 11.28], [-2.193209, 47.15747, 11.0], [-2.193352, 47.157502, 10.74], [-2.193519, 47.157505, 10.44], [-2.193676, 47.157466, 10.15], [-2.193849, 47.157399, 9.79], [-2.193989, 47.157295, 9.43], [-2.194048, 47.157188, 9.13], [-2.194089, 47.157097, 8.88], [-2.194154, 47.157015, 8.76], [-2.194308, 47.157033, 9.05], [-2.194451, 47.157088, 9.36], [-2.194451, 47.157209, 9.69], [-2.194471, 47.157298, 9.93], [-2.194506, 47.157421, 10.28], [-2.194571, 47.157522, 10.58], [-2.194683, 47.157586, 10.85], [-2.194804, 47.157648, 11.13], [-2.194949, 47.157703, 11.44], [-2.195082, 47.157732, 11.7], [-2.195118, 47.157741, 10.11], [-2.195131, 47.157717, 10.16], [-2.195529, 47.157787, 10.98], [-2.195941, 47.157837, 10.98], [-2.196222, 47.157858, 11.0], [-2.196451, 47.157873, 10.98], [-2.197189, 47.157885, 10.75], [-2.197698, 47.157881, 10.13], [-2.197853, 47.158763, 6.36], [-2.197851, 47.158845, 5.57], [-2.197951, 47.158824, 5.57], [-2.19796, 47.158843, 9.74], [-2.19811, 47.158807, 9.53], [-2.198277, 47.158797, 9.3], [-2.198434, 47.158769, 9.09], [-2.198572, 47.158721, 8.88], [-2.19874, 47.158688, 8.65], [-2.19888, 47.158656, 8.45], [-2.199034, 47.158628, 8.35], [-2.199205, 47.158606, 8.36], [-2.199379, 47.158579, 8.38], [-2.199537, 47.158525, 8.39], [-2.199669, 47.158443, 8.41], [-2.199813, 47.158372, 8.42], [-2.199934, 47.158325, 8.44], [-2.20007, 47.158316, 8.45], [-2.200215, 47.158293, 8.46], [-2.200345, 47.158232, 8.47], [-2.200493, 47.158192, 8.49], [-2.20063, 47.158182, 8.5], [-2.200752, 47.158144, 8.51], [-2.200886, 47.158116, 8.52], [-2.201038, 47.158071, 8.54], [-2.201167, 47.157998, 8.55], [-2.201273, 47.157909, 8.57], [-2.201368, 47.1578, 8.6], [-2.201437, 47.157721, 8.62], [-2.201569, 47.157625, 8.66], [-2.201673, 47.157569, 8.68], [-2.201735, 47.157489, 8.7], [-2.201873, 47.157414, 8.73], [-2.202011, 47.1574, 8.76], [-2.20217, 47.157336, 8.79], [-2.202325, 47.157252, 8.83], [-2.202447, 47.157208, 8.85], [-2.202615, 47.157146, 8.89], [-2.20274, 47.157101, 8.91], [-2.202863, 47.157048, 8.94], [-2.202992, 47.157006, 8.96], [-2.203111, 47.156951, 8.99], [-2.203237, 47.156887, 9.02], [-2.203375, 47.156833, 9.04], [-2.203521, 47.156801, 9.06], [-2.203655, 47.156766, 9.07], [-2.203765, 47.15669, 9.09], [-2.20393, 47.15667, 9.11], [-2.204115, 47.156636, 9.13], [-2.20425, 47.156615, 9.14], [-2.204381, 47.15659, 9.16], [-2.20452, 47.156572, 9.17], [-2.204657, 47.156542, 9.19], [-2.204799, 47.156511, 9.2], [-2.204947, 47.156493, 9.22], [-2.205103, 47.156471, 9.24], [-2.205258, 47.156439, 9.25], [-2.205416, 47.156416, 9.27], [-2.205574, 47.156384, 9.29], [-2.205735, 47.15636, 9.3], [-2.205894, 47.156334, 9.3], [-2.206056, 47.156307, 9.22], [-2.206223, 47.156284, 9.13], [-2.206389, 47.156257, 9.04], [-2.206549, 47.156228, 8.95], [-2.206712, 47.156198, 8.86], [-2.20688, 47.156173, 8.77], [-2.207049, 47.156145, 8.68], [-2.207209, 47.156115, 8.59], [-2.207374, 47.156094, 8.5], [-2.207538, 47.156069, 8.41], [-2.207699, 47.156041, 8.32], [-2.207859, 47.15601, 8.24], [-2.208023, 47.155986, 8.15], [-2.208185, 47.155964, 8.06], [-2.208346, 47.155936, 7.97], [-2.208512, 47.155906, 7.96], [-2.208691, 47.15588, 8.05], [-2.208862, 47.155848, 8.14], [-2.209028, 47.155824, 8.22], [-2.209181, 47.155793, 8.3], [-2.209324, 47.155759, 8.38], [-2.209451, 47.155724, 8.44], [-2.209578, 47.155699, 8.51], [-2.209739, 47.155657, 8.6], [-2.209891, 47.155625, 8.67], [-2.210044, 47.155588, 8.75], [-2.210193, 47.15555, 8.83], [-2.210339, 47.155519, 8.91], [-2.210474, 47.15549, 8.98], [-2.210603, 47.155453, 9.05], [-2.210754, 47.155426, 9.12], [-2.210918, 47.155389, 9.21], [-2.211083, 47.155342, 9.21], [-2.211262, 47.155303, 9.17], [-2.211452, 47.155275, 9.14], [-2.21159, 47.15525, 9.11], [-2.211743, 47.155221, 9.08], [-2.211901, 47.155202, 9.05], [-2.212063, 47.155189, 9.02], [-2.212221, 47.155166, 9.0], [-2.212382, 47.155156, 8.97], [-2.212543, 47.155136, 8.94], [-2.212699, 47.155117, 8.91], [-2.212857, 47.155099, 8.88], [-2.213018, 47.155076, 8.85], [-2.213173, 47.155056, 8.82], [-2.213319, 47.155031, 8.79], [-2.213449, 47.154984, 8.77], [-2.213569, 47.154933, 8.75], [-2.213703, 47.154962, 8.74], [-2.213835, 47.154996, 8.73], [-2.214005, 47.155017, 8.72], [-2.214176, 47.155001, 8.71], [-2.214335, 47.154966, 8.7], [-2.214431, 47.154881, 8.69], [-2.21451, 47.154806, 8.68], [-2.214609, 47.154731, 8.67], [-2.214706, 47.154631, 8.66], [-2.214814, 47.154532, 8.65], [-2.214914, 47.154439, 8.64], [-2.215019, 47.154348, 8.62], [-2.21514, 47.154261, 8.61], [-2.215238, 47.154187, 8.6], [-2.215327, 47.154118, 8.59], [-2.215468, 47.15405, 8.58], [-2.215584, 47.153964, 8.51], [-2.215704, 47.153888, 8.44], [-2.215848, 47.153848, 8.38], [-2.216005, 47.153821, 8.31], [-2.216138, 47.153794, 8.25], [-2.216303, 47.153757, 8.17], [-2.216452, 47.153713, 8.1], [-2.216582, 47.153659, 8.04], [-2.216723, 47.153614, 7.97], [-2.216875, 47.153552, 7.9], [-2.217007, 47.153509, 7.83], [-2.217141, 47.153478, 7.77], [-2.217289, 47.153454, 7.71], [-2.217463, 47.153422, 7.63], [-2.217636, 47.153387, 7.55], [-2.217782, 47.153354, 7.49], [-2.217969, 47.153309, 7.43], [-2.218099, 47.153279, 7.42], [-2.218265, 47.153264, 7.4], [-2.218407, 47.153244, 7.38], [-2.218566, 47.153234, 7.36], [-2.218714, 47.153245, 7.34], [-2.218855, 47.153262, 7.33], [-2.219051, 47.153268, 7.3], [-2.219186, 47.153262, 7.29], [-2.21934, 47.153231, 7.27], [-2.219509, 47.153228, 7.25], [-2.219656, 47.153241, 7.23], [-2.219811, 47.153259, 7.21], [-2.219976, 47.153254, 7.19], [-2.220128, 47.153218, 7.17], [-2.220287, 47.153246, 7.15], [-2.220462, 47.153269, 7.13], [-2.220626, 47.153296, 7.13], [-2.220773, 47.153316, 7.13], [-2.220932, 47.153339, 7.13], [-2.221053, 47.153383, 7.13], [-2.221017, 47.153227, 7.13], [-2.2213, 47.153327, 7.13], [-2.221446, 47.153375, 7.13], [-2.221626, 47.153384, 7.13], [-2.22181, 47.153367, 7.13], [-2.22181, 47.153368, 2.49], [-2.222303, 47.153287, 2.32], [-2.2226, 47.153223, 2.27], [-2.222724, 47.153189, 2.28], [-2.222957, 47.153109, 2.4], [-2.223695, 47.152734, 3.15], [-2.22374, 47.152772, 3.03], [-2.223941, 47.152849, 2.45], [-2.224104, 47.15289, 2.0], [-2.224166, 47.152823, 7.68], [-2.224325, 47.15276, 7.66], [-2.224474, 47.152701, 7.63], [-2.22462, 47.152644, 7.6], [-2.224757, 47.152591, 7.58], [-2.224895, 47.152516, 7.55], [-2.225039, 47.15245, 7.52], [-2.225184, 47.152379, 7.49], [-2.225347, 47.15232, 7.44], [-2.225476, 47.152248, 7.39], [-2.225537, 47.15215, 7.35], [-2.225589, 47.152064, 7.31], [-2.225604, 47.151949, 7.27], [-2.225618, 47.151838, 7.22], [-2.225651, 47.15171, 7.17], [-2.225667, 47.151617, 7.13], [-2.225692, 47.151482, 7.07], [-2.225712, 47.151353, 7.02], [-2.225741, 47.151265, 6.99], [-2.225802, 47.15114, 6.93], [-2.225837, 47.151048, 6.89], [-2.225885, 47.150918, 6.84], [-2.225911, 47.150802, 6.79], [-2.226007, 47.150728, 6.79], [-2.226045, 47.150601, 6.86], [-2.226109, 47.150474, 6.93], [-2.226169, 47.150344, 7.0], [-2.226279, 47.15023, 7.07], [-2.226324, 47.150134, 7.12], [-2.22637, 47.150037, 7.17], [-2.22642, 47.149939, 7.23], [-2.226475, 47.149854, 7.27], [-2.226518, 47.149768, 7.32], [-2.226571, 47.149652, 7.38], [-2.226447, 47.149611, 7.43], [-2.226301, 47.149611, 7.48], [-2.22644, 47.149554, 7.54], [-2.226567, 47.149481, 7.6], [-2.226611, 47.149357, 7.66], [-2.22662, 47.149235, 7.68], [-2.226632, 47.149118, 7.64], [-2.226637, 47.148986, 7.59], [-2.22665, 47.148854, 7.54], [-2.22668, 47.148765, 7.51], [-2.226731, 47.148675, 7.47], [-2.226779, 47.14855, 7.43], [-2.226821, 47.148443, 7.39], [-2.226903, 47.14834, 7.35], [-2.226948, 47.148216, 7.3], [-2.227015, 47.148094, 7.25], [-2.227123, 47.14801, 7.21], [-2.227183, 47.147899, 7.17], [-2.227351, 47.147833, 7.13], [-2.227416, 47.147751, 7.09], [-2.227505, 47.147677, 7.06], [-2.227623, 47.147586, 7.06], [-2.227659, 47.14747, 7.06], [-2.227618, 47.147375, 7.06], [-2.227746, 47.147338, 7.06], [-2.227882, 47.147324, 7.06], [-2.227952, 47.147213, 7.07], [-2.228032, 47.147135, 7.07], [-2.228115, 47.147057, 7.07], [-2.228172, 47.146974, 7.07], [-2.22828, 47.146863, 7.07], [-2.22834, 47.146778, 7.07], [-2.22841, 47.146692, 7.07], [-2.228463, 47.146606, 7.08], [-2.228505, 47.146514, 7.08], [-2.22854, 47.14642, 7.08], [-2.228621, 47.1463, 7.08], [-2.228661, 47.14621, 7.08], [-2.228678, 47.146113, 7.1], [-2.228697, 47.146007, 7.14], [-2.228696, 47.145908, 7.17], [-2.228699, 47.145809, 7.2], [-2.228723, 47.145672, 7.24], [-2.228724, 47.145542, 7.28], [-2.228743, 47.145416, 7.32], [-2.22876, 47.145306, 7.36], [-2.22869, 47.145218, 7.39], [-2.228713, 47.145124, 7.42], [-2.228736, 47.145019, 7.45], [-2.228748, 47.144908, 7.49], [-2.228627, 47.144835, 7.52], [-2.228489, 47.144794, 7.55], [-2.228346, 47.144727, 7.59], [-2.228175, 47.144679, 7.63], [-2.227998, 47.144639, 7.64], [-2.227866, 47.144565, 7.63], [-2.227901, 47.144462, 7.63], [-2.227938, 47.144358, 7.62], [-2.227955, 47.144248, 7.61], [-2.227978, 47.144138, 7.6], [-2.228013, 47.144026, 7.59], [-2.228055, 47.14392, 7.58], [-2.228066, 47.143812, 7.57], [-2.228089, 47.143712, 7.56], [-2.228118, 47.143613, 7.56], [-2.228115, 47.143515, 7.55], [-2.228105, 47.143417, 7.54], [-2.228087, 47.143312, 7.53], [-2.228038, 47.143213, 7.52], [-2.227969, 47.143118, 7.52], [-2.227908, 47.14302, 7.51], [-2.227839, 47.142923, 7.58], [-2.22777, 47.142829, 7.67], [-2.227687, 47.142739, 7.76], [-2.227583, 47.142663, 7.85], [-2.227489, 47.142575, 7.95], [-2.227393, 47.142494, 8.04], [-2.227299, 47.142422, 8.12], [-2.227218, 47.142342, 8.21], [-2.227144, 47.142258, 8.29], [-2.227041, 47.142189, 8.38], [-2.226967, 47.142102, 8.47], [-2.226867, 47.142028, 8.55], [-2.226777, 47.141956, 8.64], [-2.226697, 47.141882, 8.72], [-2.226583, 47.141775, 8.83], [-2.226536, 47.141683, 8.92], [-2.226475, 47.141552, 9.04], [-2.22645, 47.141457, 9.18], [-2.226429, 47.141363, 9.37], [-2.226401, 47.141269, 9.56], [-2.226365, 47.141136, 9.83], [-2.226336, 47.141005, 10.1], [-2.226296, 47.140877, 10.36], [-2.226267, 47.140755, 10.61], [-2.226238, 47.14063, 10.86], [-2.226209, 47.140509, 11.1], [-2.226183, 47.14039, 11.34], [-2.226152, 47.140274, 11.58], [-2.226136, 47.14016, 11.81], [-2.226115, 47.140041, 12.05], [-2.226103, 47.139927, 12.27], [-2.226098, 47.139814, 12.5], [-2.226173, 47.13973, 12.69], [-2.226312, 47.139727, 12.83], [-2.226484, 47.139732, 12.99], [-2.226661, 47.139735, 13.17], [-2.22685, 47.139721, 13.36], [-2.226986, 47.139715, 13.49], [-2.227124, 47.139715, 13.63], [-2.227268, 47.13971, 13.77], [-2.227408, 47.139709, 13.91], [-2.227545, 47.139691, 14.05], [-2.227678, 47.13968, 14.18], [-2.227816, 47.139665, 14.32], [-2.227954, 47.139662, 14.45], [-2.22809, 47.139648, 14.59], [-2.228228, 47.139649, 14.72], [-2.228364, 47.139645, 14.86], [-2.228563, 47.139614, 15.06], [-2.228692, 47.139582, 15.19], [-2.22882, 47.139554, 15.34], [-2.228999, 47.139507, 15.59], [-2.229128, 47.139485, 15.76], [-2.229304, 47.139445, 16.0], [-2.229448, 47.13937, 16.24], [-2.229597, 47.139302, 16.47], [-2.229752, 47.139242, 16.7], [-2.22991, 47.139184, 16.93], [-2.23006, 47.139126, 17.15], [-2.230199, 47.139074, 17.36], [-2.230334, 47.139025, 17.56], [-2.230484, 47.138964, 17.78], [-2.230638, 47.13891, 18.01], [-2.230767, 47.138866, 18.19], [-2.230897, 47.138811, 18.39], [-2.231036, 47.138756, 18.6], [-2.231198, 47.138696, 18.52], [-2.231354, 47.13866, 18.28], [-2.231498, 47.138593, 18.02], [-2.231636, 47.138551, 17.8], [-2.231817, 47.138498, 17.5], [-2.231946, 47.13847, 17.3], [-2.232113, 47.138404, 17.01], [-2.232289, 47.138367, 16.74], [-2.232425, 47.138331, 16.52], [-2.232575, 47.13831, 16.3], [-2.232728, 47.138281, 16.06], [-2.232889, 47.138249, 15.81], [-2.233059, 47.138232, 15.56], [-2.233231, 47.138192, 15.29], [-2.233406, 47.138172, 15.02], [-2.233576, 47.138139, 14.76], [-2.233742, 47.138138, 14.38], [-2.23392, 47.138135, 13.98], [-2.2341, 47.13814, 13.58], [-2.23428, 47.138155, 13.17], [-2.234453, 47.138163, 12.78], [-2.234629, 47.138182, 12.38], [-2.23481, 47.13819, 11.97], [-2.234974, 47.138191, 11.6], [-2.235137, 47.138232, 11.21], [-2.235199, 47.138335, 10.84], [-2.23526, 47.138453, 10.43], [-2.235324, 47.138573, 10.0], [-2.235387, 47.138687, 9.6], [-2.235429, 47.1388, 9.22], [-2.235523, 47.138885, 8.86], [-2.235655, 47.138945, 8.74], [-2.235781, 47.139009, 8.66], [-2.235877, 47.13908, 8.59], [-2.235973, 47.139146, 8.52], [-2.236066, 47.139259, 8.42], [-2.23621, 47.139289, 8.34], [-2.236342, 47.139209, 8.25], [-2.236469, 47.139141, 8.17], [-2.236591, 47.139038, 8.07], [-2.236672, 47.138958, 8.0], [-2.236805, 47.138854, 7.89], [-2.236922, 47.138774, 7.81], [-2.237092, 47.138778, 7.72], [-2.23728, 47.138783, 7.62], [-2.237449, 47.138736, 7.53], [-2.23757, 47.138693, 7.46], [-2.237707, 47.138635, 7.47], [-2.237833, 47.138575, 7.49], [-2.237945, 47.138501, 7.51], [-2.238018, 47.13842, 7.53], [-2.238095, 47.138333, 7.55], [-2.238264, 47.138275, 7.58], [-2.238283, 47.138181, 7.59], [-2.238335, 47.138097, 7.61], [-2.238417, 47.13802, 7.63], [-2.238498, 47.137931, 7.65], [-2.238579, 47.137837, 7.67], [-2.238711, 47.13778, 7.69], [-2.238837, 47.137702, 7.71], [-2.23895, 47.137628, 7.73], [-2.239069, 47.137548, 7.75], [-2.239137, 47.137457, 7.77], [-2.23924, 47.137399, 7.79], [-2.239346, 47.137337, 7.8], [-2.239445, 47.137261, 7.81], [-2.239587, 47.137212, 7.82], [-2.239744, 47.137155, 7.83], [-2.239846, 47.13709, 7.83], [-2.239941, 47.137019, 7.84], [-2.240047, 47.136956, 7.85], [-2.240118, 47.136873, 7.86], [-2.240225, 47.136796, 7.86], [-2.240347, 47.13672, 7.87], [-2.240463, 47.136637, 7.88], [-2.240594, 47.136561, 7.89], [-2.240728, 47.136488, 7.9], [-2.240871, 47.136428, 7.91], [-2.241013, 47.136382, 7.92], [-2.241114, 47.136294, 7.92], [-2.241252, 47.136231, 7.93], [-2.241393, 47.136173, 7.91], [-2.24154, 47.13612, 7.88], [-2.241673, 47.136057, 7.85], [-2.241814, 47.135991, 7.82], [-2.241966, 47.13593, 7.79], [-2.242112, 47.135882, 7.76], [-2.2422, 47.135813, 7.74], [-2.242294, 47.135727, 7.71], [-2.242345, 47.135625, 7.68], [-2.242508, 47.135557, 7.65], [-2.24267, 47.135568, 7.62], [-2.242834, 47.135597, 7.59], [-2.242996, 47.135621, 7.56], [-2.243163, 47.13564, 7.53], [-2.243338, 47.135664, 7.5], [-2.243523, 47.135681, 7.47], [-2.243708, 47.135698, 7.5], [-2.243888, 47.135718, 7.52], [-2.244066, 47.135741, 7.55], [-2.244251, 47.13576, 7.57], [-2.244429, 47.135779, 7.59], [-2.244608, 47.135796, 7.62], [-2.244783, 47.13581, 7.64], [-2.244954, 47.135811, 7.66], [-2.245106, 47.135812, 7.68], [-2.245253, 47.135811, 7.7], [-2.24539, 47.135798, 7.72], [-2.245486, 47.135727, 7.74], [-2.245605, 47.135627, 7.76], [-2.245726, 47.135542, 7.79], [-2.245876, 47.135498, 7.81], [-2.245983, 47.135425, 7.84], [-2.246106, 47.135332, 7.9], [-2.246169, 47.135251, 7.94], [-2.246269, 47.135191, 7.99], [-2.246355, 47.135116, 8.03], [-2.246437, 47.135043, 8.07], [-2.246517, 47.134971, 8.11], [-2.246608, 47.134905, 8.16], [-2.246726, 47.134805, 8.22], [-2.246832, 47.13472, 8.27], [-2.246912, 47.13463, 8.32], [-2.247002, 47.134516, 8.38], [-2.247097, 47.134405, 8.44], [-2.247209, 47.134301, 8.5], [-2.247317, 47.134189, 8.56], [-2.247418, 47.134126, 8.6], [-2.247514, 47.134061, 8.64], [-2.247635, 47.133958, 8.84], [-2.247769, 47.133876, 9.05], [-2.247764, 47.133772, 9.22], [-2.247642, 47.133691, 9.41], [-2.247548, 47.133597, 9.6], [-2.24747, 47.133506, 9.77], [-2.247341, 47.133401, 10.0], [-2.247263, 47.133321, 10.16], [-2.247203, 47.13322, 10.34], [-2.247113, 47.133125, 10.53], [-2.247016, 47.133016, 10.74], [-2.246941, 47.132934, 10.9], [-2.246885, 47.132852, 11.05], [-2.246851, 47.132723, 11.27], [-2.246836, 47.132628, 11.43], [-2.246819, 47.132529, 11.59], [-2.24678, 47.132434, 11.63], [-2.246725, 47.132342, 11.63], [-2.246643, 47.132266, 11.63], [-2.246562, 47.132185, 11.62], [-2.246472, 47.13211, 11.62], [-2.246383, 47.132034, 11.62], [-2.246294, 47.131955, 11.61], [-2.246199, 47.131884, 11.61], [-2.246087, 47.131817, 11.61], [-2.245991, 47.131747, 11.6], [-2.245892, 47.131684, 11.6], [-2.245768, 47.131595, 11.6], [-2.245646, 47.131529, 11.59], [-2.24553, 47.131461, 11.59], [-2.245428, 47.131392, 11.59], [-2.245319, 47.13134, 11.58], [-2.24528, 47.131237, 11.58], [-2.245328, 47.131146, 11.58], [-2.245118, 47.13111, 11.49], [-2.244975, 47.131131, 11.42], [-2.244823, 47.131126, 11.35], [-2.24468, 47.131073, 11.27], [-2.244563, 47.131172, 11.18], [-2.244508, 47.131255, 11.11], [-2.244444, 47.131375, 11.02], [-2.244386, 47.131494, 10.93], [-2.24432, 47.131615, 10.84], [-2.244239, 47.13174, 10.74], [-2.244141, 47.131802, 10.67], [-2.244013, 47.131878, 10.59], [-2.243851, 47.131934, 10.5], [-2.243662, 47.131967, 10.41], [-2.243525, 47.131967, 10.34], [-2.243413, 47.132029, 10.29], [-2.243335, 47.13211, 10.29], [-2.24327, 47.132193, 10.29], [-2.243221, 47.132279, 10.29], [-2.243178, 47.132393, 10.3], [-2.243139, 47.132491, 10.3], [-2.243044, 47.132584, 10.3], [-2.242911, 47.132597, 10.31], [-2.242772, 47.132631, 10.31], [-2.242621, 47.132654, 10.31], [-2.24247, 47.132676, 10.31], [-2.242328, 47.132712, 10.32], [-2.242182, 47.132734, 10.32], [-2.242046, 47.132775, 10.32], [-2.24191, 47.132804, 10.33], [-2.241776, 47.132835, 10.33], [-2.241644, 47.132862, 10.33], [-2.241469, 47.132924, 10.33], [-2.241356, 47.133031, 10.52], [-2.24122, 47.133125, 10.77], [-2.24113, 47.133192, 10.94], [-2.241019, 47.133247, 11.11], [-2.240873, 47.133335, 11.36], [-2.240766, 47.133397, 11.54], [-2.240659, 47.133451, 11.71], [-2.240563, 47.133517, 11.88], [-2.240454, 47.133567, 12.05], [-2.240295, 47.133632, 12.29], [-2.240128, 47.133693, 12.53], [-2.239963, 47.133738, 12.75], [-2.239779, 47.133774, 13.0], [-2.239618, 47.13381, 13.21], [-2.239477, 47.133847, 13.4], [-2.239344, 47.133821, 13.58], [-2.239347, 47.133722, 13.76], [-2.239395, 47.133614, 13.95], [-2.23941, 47.133489, 14.16], [-2.239454, 47.133355, 14.4], [-2.239463, 47.133214, 14.64], [-2.239333, 47.133103, 14.88], [-2.239147, 47.133077, 15.1], [-2.238986, 47.133078, 15.28], [-2.23883, 47.13307, 15.47], [-2.238683, 47.133047, 15.64], [-2.238538, 47.133046, 15.81], [-2.238387, 47.133036, 15.98], [-2.238228, 47.133021, 16.17], [-2.238075, 47.133003, 16.35], [-2.237923, 47.132994, 16.53], [-2.237785, 47.132972, 16.69], [-2.237655, 47.132957, 16.73], [-2.237478, 47.132952, 16.68], [-2.237305, 47.132933, 16.63], [-2.237131, 47.132918, 16.57], [-2.236977, 47.1329, 16.52], [-2.236812, 47.132882, 16.47], [-2.236664, 47.132871, 16.43], [-2.236591, 47.132784, 16.38], [-2.236595, 47.132691, 16.34], [-2.236584, 47.132594, 16.3], [-2.236576, 47.132487, 16.25], [-2.236592, 47.132373, 16.2], [-2.236611, 47.132259, 16.14], [-2.23663, 47.132138, 16.09], [-2.236666, 47.132016, 16.03], [-2.236703, 47.131885, 15.97], [-2.236671, 47.131762, 15.69], [-2.236552, 47.131668, 15.19], [-2.236387, 47.131646, 14.74], [-2.236222, 47.131637, 14.29], [-2.236054, 47.131606, 13.81], [-2.235884, 47.13159, 13.35], [-2.235708, 47.13158, 12.87], [-2.235529, 47.131585, 12.38], [-2.235355, 47.131593, 11.9], [-2.235186, 47.131607, 11.44], [-2.235005, 47.131625, 10.94], [-2.234825, 47.131639, 10.45], [-2.234662, 47.131684, 9.97], [-2.234537, 47.131762, 9.51], [-2.234416, 47.131836, 9.07], [-2.234276, 47.131886, 8.81], [-2.23409, 47.131886, 9.07], [-2.233894, 47.131876, 9.34], [-2.233681, 47.131914, 9.64], [-2.233488, 47.131952, 9.92], [-2.233338, 47.131906, 10.15], [-2.233218, 47.131827, 10.38], [-2.233083, 47.131804, 10.57], [-2.232913, 47.131756, 10.82], [-2.232774, 47.131764, 11.01], [-2.232626, 47.131743, 11.22], [-2.232463, 47.131726, 11.45], [-2.232322, 47.131715, 11.65], [-2.232135, 47.131707, 11.9], [-2.231966, 47.13169, 12.14], [-2.231788, 47.131684, 12.38], [-2.231614, 47.131672, 12.47], [-2.231457, 47.131653, 12.55], [-2.231309, 47.131647, 12.62], [-2.23117, 47.131641, 12.68], [-2.231025, 47.131613, 12.75], [-2.230876, 47.131639, 12.83], [-2.230726, 47.131637, 12.9], [-2.230587, 47.131641, 12.96], [-2.230453, 47.131632, 13.03], [-2.230308, 47.131613, 13.1], [-2.230137, 47.13156, 13.18], [-2.23001, 47.131524, 13.25], [-2.229884, 47.131478, 13.32], [-2.229753, 47.131426, 13.39], [-2.229623, 47.131389, 13.45], [-2.22948, 47.131348, 13.53], [-2.229333, 47.13131, 13.6], [-2.229174, 47.131286, 13.49], [-2.229017, 47.131259, 13.2], [-2.228856, 47.131256, 12.91], [-2.228709, 47.131244, 12.64], [-2.228559, 47.131238, 12.37], [-2.228411, 47.13124, 12.1], [-2.22825, 47.131235, 11.81], [-2.228076, 47.131241, 11.49], [-2.227886, 47.131252, 11.15], [-2.227698, 47.131272, 10.81], [-2.227491, 47.131287, 10.43], [-2.227271, 47.131287, 10.03], [-2.227055, 47.131258, 9.63], [-2.226863, 47.131195, 9.25], [-2.2267, 47.131119, 8.89], [-2.226541, 47.131032, 8.98], [-2.226384, 47.130948, 9.1], [-2.226225, 47.130872, 9.23], [-2.226076, 47.130782, 9.35], [-2.225927, 47.1307, 9.47], [-2.225791, 47.13061, 9.59], [-2.225678, 47.130514, 9.71], [-2.225578, 47.130424, 9.81], [-2.225461, 47.130357, 9.91], [-2.225351, 47.130292, 10.0], [-2.225258, 47.130226, 10.09], [-2.225111, 47.13014, 10.21], [-2.224968, 47.130046, 10.33], [-2.224795, 47.129981, 10.46], [-2.224631, 47.129923, 10.49], [-2.224461, 47.129867, 10.39], [-2.224289, 47.129821, 10.29], [-2.224125, 47.129753, 10.19], [-2.223992, 47.129728, 10.12], [-2.223873, 47.129683, 10.05], [-2.223759, 47.129635, 9.97], [-2.223663, 47.129564, 9.9], [-2.223588, 47.12948, 9.82], [-2.223514, 47.129398, 9.75], [-2.223436, 47.129313, 9.67], [-2.223358, 47.129228, 9.59], [-2.223265, 47.129154, 9.51], [-2.22318, 47.129078, 9.44], [-2.223096, 47.129005, 9.37], [-2.223001, 47.12893, 9.29], [-2.222888, 47.128865, 9.21], [-2.222768, 47.128792, 9.13], [-2.222641, 47.128717, 9.09], [-2.222517, 47.128643, 9.06], [-2.222417, 47.128555, 9.02], [-2.222327, 47.128463, 8.99], [-2.222218, 47.12839, 8.96], [-2.222115, 47.128316, 8.92], [-2.222014, 47.128246, 8.89], [-2.221926, 47.128171, 8.86], [-2.221856, 47.12809, 8.83], [-2.221757, 47.128021, 8.81], [-2.221638, 47.127969, 8.78], [-2.221504, 47.127947, 8.75], [-2.22137, 47.127956, 8.72], [-2.221198, 47.127982, 8.68], [-2.221061, 47.128027, 8.65], [-2.220927, 47.128048, 8.62], [-2.220819, 47.127961, 8.59], [-2.220757, 47.127864, 8.58], [-2.220755, 47.127774, 8.6], [-2.220768, 47.127651, 8.62], [-2.220736, 47.127528, 8.64], [-2.220742, 47.127394, 8.66], [-2.220753, 47.12726, 8.68], [-2.220765, 47.12717, 8.7], [-2.220774, 47.127077, 8.72], [-2.220777, 47.126979, 8.73], [-2.22078, 47.126881, 8.75], [-2.220799, 47.126781, 8.77], [-2.220798, 47.12668, 8.78], [-2.2208, 47.126575, 8.8], [-2.2208, 47.126461, 8.82], [-2.220822, 47.12635, 8.84], [-2.220827, 47.126225, 8.86], [-2.220812, 47.126104, 8.89], [-2.220763, 47.125986, 8.93], [-2.220678, 47.125876, 8.98], [-2.22056, 47.125782, 9.02], [-2.220425, 47.125702, 9.07], [-2.220283, 47.12563, 9.11], [-2.220145, 47.125564, 9.16], [-2.220003, 47.125511, 9.2], [-2.21986, 47.125455, 9.24], [-2.219702, 47.125425, 9.28], [-2.219554, 47.125405, 9.32], [-2.219417, 47.125392, 9.35], [-2.219275, 47.125377, 9.39], [-2.219122, 47.125373, 9.42], [-2.218982, 47.12536, 9.46], [-2.218851, 47.125344, 9.49], [-2.218724, 47.125315, 9.53], [-2.218602, 47.12528, 9.52], [-2.218496, 47.125219, 9.5], [-2.218376, 47.125166, 9.47], [-2.218256, 47.125102, 9.44], [-2.21812, 47.125052, 9.41], [-2.217969, 47.125015, 9.38], [-2.21782, 47.124978, 9.35], [-2.217666, 47.124936, 9.32], [-2.217514, 47.124903, 9.29], [-2.217356, 47.124873, 9.26], [-2.217202, 47.124848, 9.23], [-2.217046, 47.124831, 9.2], [-2.216889, 47.124826, 9.17], [-2.216729, 47.124834, 9.13], [-2.216569, 47.124848, 9.1], [-2.21641, 47.124859, 9.07], [-2.21625, 47.124869, 9.04], [-2.216092, 47.124872, 9.13], [-2.215942, 47.124863, 9.27], [-2.215803, 47.124822, 9.4], [-2.215682, 47.124762, 9.54], [-2.215576, 47.1247, 9.67], [-2.215464, 47.124642, 9.79], [-2.215356, 47.124589, 9.91], [-2.215178, 47.124533, 10.09], [-2.215038, 47.124496, 10.23], [-2.214886, 47.124473, 10.37], [-2.214742, 47.124443, 10.5], [-2.214597, 47.12443, 10.64], [-2.214449, 47.124428, 10.77], [-2.214293, 47.124423, 10.91], [-2.214144, 47.124435, 11.05], [-2.214006, 47.124454, 11.18], [-2.21387, 47.124472, 11.3], [-2.213744, 47.124502, 11.42], [-2.213554, 47.124537, 11.39], [-2.21337, 47.124559, 11.35], [-2.213239, 47.124575, 11.32], [-2.213104, 47.124582, 11.29], [-2.212963, 47.124592, 11.26], [-2.212828, 47.124588, 11.24], [-2.212694, 47.124585, 11.21], [-2.212512, 47.124577, 11.17], [-2.212339, 47.124577, 11.14], [-2.212167, 47.124562, 11.1], [-2.211986, 47.124561, 11.06], [-2.211803, 47.124563, 11.03], [-2.211615, 47.124578, 10.99], [-2.211484, 47.1246, 10.96], [-2.21135, 47.124619, 10.93], [-2.211221, 47.124642, 10.91], [-2.211084, 47.124661, 10.88], [-2.210952, 47.12469, 10.86], [-2.210802, 47.124712, 10.84], [-2.210653, 47.124733, 10.82], [-2.210509, 47.124755, 10.81], [-2.210364, 47.124778, 10.79], [-2.210225, 47.124806, 10.77], [-2.210088, 47.124834, 10.75], [-2.209952, 47.124852, 10.73], [-2.209813, 47.124876, 10.71], [-2.209672, 47.124909, 10.7], [-2.209489, 47.124941, 10.67], [-2.209305, 47.124979, 10.65], [-2.209135, 47.125019, 10.62], [-2.208944, 47.125018, 10.6], [-2.208808, 47.125019, 10.58], [-2.208669, 47.125033, 10.56], [-2.208517, 47.125043, 10.54], [-2.208363, 47.125066, 10.49], [-2.208204, 47.125088, 10.45], [-2.208056, 47.125125, 10.41], [-2.207914, 47.125169, 10.36], [-2.207774, 47.125207, 10.32], [-2.20763, 47.125243, 10.28], [-2.207476, 47.125265, 10.23], [-2.207313, 47.125286, 10.19], [-2.20731, 47.125271, 5.99], [-2.206988, 47.125266, 4.67], [-2.206298, 47.125121, 5.15], [-2.206091, 47.125099, 5.16], [-2.206109, 47.125059, 4.88], [-2.205936, 47.125061, 4.89], [-2.205445, 47.125127, 5.36], [-2.205319, 47.12512, 5.2], [-2.205088, 47.125089, 4.42], [-2.204563, 47.124996, 2.49], [-2.204319, 47.124948, 2.21], [-2.204114, 47.124947, 2.32], [-2.204025, 47.124972, 2.58], [-2.203869, 47.125028, 3.14], [-2.203903, 47.125061, 3.38], [-2.203829, 47.125098, 4.3], [-2.203693, 47.125168, 6.01], [-2.20359, 47.125206, 6.13], [-2.203549, 47.125212, 6.18], [-2.203384, 47.1252, 6.38], [-2.203377, 47.125249, 10.86], [-2.203244, 47.125212, 11.01], [-2.203276, 47.125096, 11.19], [-2.203229, 47.12499, 11.36], [-2.203173, 47.124892, 11.52], [-2.203102, 47.124806, 11.67], [-2.203028, 47.124726, 11.81], [-2.202908, 47.124674, 11.96], [-2.202781, 47.124643, 12.1], [-2.202662, 47.124588, 12.18], [-2.202525, 47.12452, 12.26], [-2.202377, 47.124457, 12.33], [-2.202244, 47.124387, 12.41], [-2.202108, 47.12433, 12.48], [-2.201972, 47.124248, 12.56], [-2.201831, 47.124175, 12.64], [-2.201691, 47.124099, 12.72], [-2.201552, 47.124024, 12.8], [-2.201377, 47.123981, 12.88], [-2.201196, 47.123963, 12.96], [-2.201021, 47.123941, 13.04], [-2.200865, 47.12393, 13.11], [-2.200733, 47.123883, 13.18], [-2.200604, 47.123806, 13.26], [-2.200431, 47.123777, 13.33], [-2.200247, 47.123763, 13.4], [-2.200069, 47.123743, 13.47], [-2.199893, 47.123736, 13.54], [-2.199733, 47.123711, 13.6], [-2.199565, 47.123723, 13.67], [-2.199399, 47.123712, 13.73], [-2.199229, 47.123693, 13.8], [-2.199071, 47.123682, 13.86], [-2.198905, 47.123667, 13.93], [-2.198733, 47.123656, 13.99], [-2.198563, 47.123644, 14.06], [-2.198398, 47.123626, 14.12], [-2.19823, 47.123619, 14.19], [-2.198044, 47.123611, 14.26], [-2.197863, 47.123604, 14.32], [-2.19768, 47.123604, 14.13], [-2.197508, 47.123626, 13.94], [-2.197343, 47.123653, 13.76], [-2.197198, 47.123701, 13.59], [-2.197067, 47.123752, 13.43], [-2.196944, 47.123813, 13.27], [-2.196834, 47.12389, 13.11], [-2.196676, 47.123882, 12.94], [-2.196543, 47.12383, 12.78], [-2.196406, 47.123794, 12.62], [-2.196275, 47.12381, 12.48], [-2.196162, 47.123869, 12.33], [-2.196079, 47.123944, 12.19], [-2.196017, 47.124027, 12.04], [-2.195932, 47.124117, 11.88], [-2.195807, 47.124156, 11.73], [-2.195646, 47.12412, 11.56], [-2.19553, 47.124175, 11.76], [-2.195469, 47.12426, 12.0], [-2.195402, 47.124339, 12.22], [-2.195332, 47.124478, 12.59], [-2.195273, 47.124573, 12.85], [-2.195202, 47.124665, 13.1], [-2.195112, 47.124762, 13.39], [-2.195009, 47.124842, 13.65], [-2.194822, 47.124981, 14.12], [-2.194688, 47.125037, 14.39], [-2.19458, 47.125091, 14.61], [-2.194472, 47.125154, 14.85], [-2.194378, 47.12523, 15.1], [-2.194296, 47.125315, 15.35], [-2.194245, 47.12541, 15.6], [-2.194228, 47.125508, 15.85], [-2.194264, 47.125601, 16.14], [-2.194249, 47.125706, 16.58], [-2.194243, 47.125798, 16.96], [-2.19423, 47.125902, 17.39], [-2.194225, 47.126014, 17.85], [-2.19423, 47.126131, 18.34], [-2.19426, 47.126234, 18.77], [-2.194273, 47.126336, 19.2], [-2.194296, 47.126433, 19.6], [-2.194309, 47.126538, 20.04], [-2.194328, 47.126633, 20.43], [-2.194353, 47.126737, 20.87], [-2.194394, 47.126864, 21.41], [-2.194424, 47.126989, 21.93], [-2.19447, 47.127104, 22.43], [-2.194544, 47.127212, 22.92], [-2.194639, 47.127293, 23.35], [-2.194705, 47.127393, 23.79], [-2.194773, 47.127498, 24.26], [-2.194825, 47.127597, 24.68], [-2.194871, 47.127709, 25.16], [-2.19488, 47.127824, 25.62], [-2.194835, 47.127943, 26.12], [-2.194777, 47.128044, 26.56], [-2.194729, 47.128139, 26.97], [-2.194686, 47.128233, 27.37], [-2.194653, 47.128333, 27.78], [-2.194602, 47.12842, 28.16], [-2.194548, 47.128524, 28.61], [-2.194495, 47.128617, 29.01], [-2.194449, 47.128721, 29.45], [-2.194366, 47.128808, 29.87], [-2.194219, 47.128839, 30.3], [-2.194161, 47.128928, 30.69], [-2.19408, 47.129034, 31.04], [-2.193925, 47.129041, 31.33], [-2.193786, 47.12902, 31.59], [-2.193614, 47.129008, 31.91], [-2.193459, 47.128997, 32.2], [-2.193302, 47.12898, 32.5], [-2.193158, 47.128969, 32.77], [-2.193005, 47.128943, 33.07], [-2.193046, 47.128846, 33.34], [-2.193107, 47.128731, 33.68], [-2.19303, 47.128646, 33.95], [-2.192847, 47.128651, 34.29], [-2.192659, 47.12863, 34.65], [-2.192474, 47.128618, 35.0], [-2.192278, 47.128611, 35.36], [-2.192094, 47.128609, 35.69], [-2.191901, 47.128597, 35.87], [-2.191712, 47.128573, 36.05], [-2.191538, 47.128542, 36.21], [-2.191365, 47.128529, 36.37], [-2.191185, 47.128505, 36.54], [-2.191014, 47.128492, 36.7], [-2.19087, 47.128527, 36.84], [-2.190816, 47.128648, 37.01], [-2.190789, 47.128767, 37.17], [-2.190717, 47.128875, 37.33], [-2.190653, 47.128993, 37.5], [-2.190624, 47.129082, 37.63], [-2.190589, 47.12921, 37.8], [-2.190541, 47.129332, 37.97], [-2.190505, 47.129459, 38.12], [-2.190461, 47.129545, 38.14], [-2.190397, 47.129667, 38.18], [-2.190282, 47.129729, 38.21], [-2.190127, 47.129689, 38.25], [-2.189959, 47.129649, 38.29], [-2.189791, 47.129603, 38.32], [-2.189632, 47.129542, 38.36], [-2.189479, 47.129475, 38.4], [-2.189352, 47.129434, 38.43], [-2.189184, 47.129381, 38.47], [-2.18906, 47.129341, 38.5], [-2.188866, 47.129323, 38.54], [-2.188725, 47.129319, 38.57], [-2.188588, 47.129311, 38.6], [-2.188451, 47.129306, 38.63], [-2.18832, 47.129293, 38.66], [-2.188185, 47.129279, 38.55], [-2.187991, 47.129269, 38.35], [-2.18786, 47.129254, 38.21], [-2.187723, 47.129236, 38.06], [-2.187576, 47.129236, 37.9], [-2.187433, 47.129225, 37.75], [-2.187284, 47.129224, 37.59], [-2.187138, 47.129207, 37.44], [-2.186979, 47.129196, 37.27], [-2.186825, 47.129186, 37.1], [-2.186667, 47.129185, 36.94], [-2.186519, 47.129174, 36.78], [-2.186374, 47.129167, 36.62], [-2.186233, 47.129161, 36.47], [-2.186093, 47.129152, 36.33], [-2.185948, 47.129147, 36.17], [-2.185815, 47.129181, 36.02], [-2.185741, 47.129262, 35.87], [-2.185609, 47.129364, 35.77], [-2.185516, 47.129434, 35.7], [-2.185409, 47.129503, 35.63], [-2.185267, 47.129536, 35.56], [-2.185117, 47.129531, 35.48], [-2.184974, 47.129542, 35.41], [-2.18483, 47.129538, 35.34], [-2.184691, 47.129535, 35.28], [-2.184552, 47.129526, 35.21], [-2.184415, 47.129528, 35.14], [-2.184236, 47.129516, 35.05], [-2.184072, 47.129513, 34.97], [-2.183945, 47.129566, 34.9], [-2.183855, 47.129664, 34.82], [-2.1838, 47.129769, 34.74], [-2.183715, 47.129861, 34.66], [-2.183646, 47.129963, 34.58], [-2.183501, 47.130001, 34.49], [-2.183225, 47.129924, 34.31], [-2.183039, 47.129886, 34.19], [-2.182889, 47.129848, 34.09], [-2.18272, 47.129816, 33.99], [-2.18256, 47.129767, 33.88], [-2.182419, 47.129687, 33.77], [-2.182265, 47.129617, 33.66], [-2.182183, 47.129516, 33.55], [-2.182195, 47.129394, 33.44], [-2.182124, 47.129275, 33.33], [-2.182074, 47.129157, 33.22], [-2.182029, 47.129038, 33.11], [-2.181993, 47.128921, 33.01], [-2.181941, 47.128802, 32.81], [-2.181911, 47.128684, 32.59], [-2.181888, 47.128565, 32.36], [-2.181859, 47.128446, 32.14], [-2.181829, 47.128336, 31.93], [-2.181745, 47.128246, 31.73], [-2.181568, 47.128237, 31.5], [-2.1814, 47.128283, 31.27], [-2.181222, 47.128291, 31.05], [-2.181052, 47.128318, 30.83], [-2.180886, 47.128325, 30.61], [-2.180724, 47.12834, 30.41], [-2.180569, 47.128351, 30.21], [-2.180416, 47.128369, 30.01], [-2.180264, 47.128383, 29.82], [-2.180126, 47.128403, 29.64], [-2.179956, 47.128409, 29.66], [-2.179865, 47.12848, 29.69], [-2.179714, 47.128539, 29.73], [-2.179533, 47.128547, 29.78], [-2.179365, 47.128544, 29.82], [-2.17921, 47.128522, 29.86], [-2.179097, 47.128468, 29.89], [-2.178942, 47.128523, 29.94], [-2.178847, 47.128641, 29.99], [-2.178717, 47.128678, 30.02], [-2.178566, 47.128691, 30.06], [-2.178401, 47.128709, 30.1], [-2.178224, 47.128716, 30.14], [-2.178044, 47.128739, 30.19], [-2.177863, 47.128756, 30.23], [-2.177681, 47.128756, 30.28], [-2.177518, 47.12879, 30.33], [-2.177368, 47.128741, 30.37], [-2.177391, 47.12865, 30.41], [-2.177415, 47.128521, 30.46], [-2.177257, 47.128451, 30.51], [-2.177113, 47.128454, 30.55], [-2.17697, 47.128422, 30.59], [-2.17682, 47.1284, 30.63], [-2.17667, 47.128377, 30.68], [-2.17653, 47.128348, 30.72], [-2.176387, 47.128329, 30.76], [-2.176242, 47.128299, 30.8], [-2.176079, 47.128277, 30.84], [-2.175908, 47.12826, 30.89], [-2.17574, 47.128232, 30.94], [-2.175585, 47.128206, 30.98], [-2.175426, 47.128161, 30.76], [-2.175255, 47.128129, 30.43], [-2.175083, 47.128094, 30.09], [-2.17492, 47.128054, 29.77], [-2.174771, 47.128017, 29.47], [-2.174679, 47.127939, 29.19], [-2.17475, 47.127808, 28.81], [-2.17482, 47.127715, 28.52], [-2.174831, 47.12762, 28.26], [-2.174808, 47.127527, 28.0], [-2.174689, 47.127484, 27.75], [-2.174576, 47.12741, 27.45], [-2.174456, 47.12733, 27.14], [-2.174324, 47.127238, 26.79], [-2.174182, 47.12715, 26.43], [-2.17402, 47.127074, 26.06], [-2.173873, 47.126985, 25.76], [-2.17372, 47.126886, 25.45], [-2.173575, 47.126779, 25.14], [-2.173414, 47.126673, 24.81], [-2.173246, 47.126574, 24.48], [-2.173093, 47.126492, 24.19], [-2.172983, 47.126407, 23.95], [-2.172965, 47.126292, 23.7], [-2.172943, 47.126187, 23.47], [-2.17288, 47.126091, 23.24], [-2.172735, 47.12605, 23.01], [-2.172576, 47.126069, 22.77], [-2.172424, 47.1261, 22.54], [-2.17227, 47.12607, 22.3], [-2.172122, 47.126038, 22.21], [-2.171972, 47.126026, 22.4], [-2.171834, 47.125996, 22.58], [-2.171693, 47.125958, 22.76], [-2.171554, 47.125916, 22.95], [-2.171414, 47.125877, 23.14], [-2.17128, 47.125839, 23.31], [-2.171152, 47.125794, 23.49], [-2.171016, 47.125763, 23.67], [-2.170884, 47.125724, 23.85], [-2.170758, 47.125681, 24.02], [-2.170625, 47.125656, 24.19], [-2.170449, 47.12563, 24.41], [-2.170359, 47.125554, 24.59], [-2.170433, 47.125469, 24.77], [-2.170471, 47.12537, 24.95], [-2.17051, 47.125263, 25.15], [-2.170547, 47.12515, 25.36], [-2.170584, 47.125039, 25.54], [-2.170614, 47.12494, 25.7], [-2.170631, 47.124846, 25.85], [-2.170693, 47.124753, 26.01], [-2.170735, 47.124656, 26.17], [-2.170789, 47.124527, 26.37], [-2.170819, 47.124436, 26.52], [-2.170859, 47.124341, 26.67], [-2.170902, 47.12424, 26.84], [-2.170937, 47.12414, 27.0], [-2.170988, 47.12404, 27.16], [-2.171053, 47.123936, 27.34], [-2.171126, 47.123837, 27.51], [-2.171202, 47.123736, 27.68], [-2.171288, 47.123645, 27.85], [-2.171388, 47.123563, 28.02], [-2.171503, 47.123489, 28.18], [-2.171622, 47.123416, 28.1], [-2.171727, 47.123336, 27.99], [-2.171827, 47.123255, 27.88], [-2.171923, 47.123165, 27.76], [-2.172011, 47.123071, 27.65], [-2.172107, 47.122973, 27.52], [-2.172191, 47.122872, 27.4], [-2.172281, 47.122771, 27.28], [-2.172365, 47.122669, 27.16], [-2.172455, 47.122568, 27.04], [-2.172549, 47.122467, 26.91], [-2.172642, 47.122367, 26.79], [-2.172724, 47.122261, 26.67], [-2.17278, 47.122151, 26.55], [-2.172794, 47.122039, 26.43], [-2.17277, 47.121921, 26.34], [-2.172718, 47.121817, 26.35], [-2.17261, 47.121722, 26.35], [-2.172471, 47.121645, 26.36], [-2.172313, 47.121582, 26.37], [-2.172148, 47.12154, 26.38], [-2.171976, 47.121505, 26.39], [-2.171804, 47.121476, 26.4], [-2.171636, 47.121445, 26.41], [-2.171471, 47.12141, 26.42], [-2.171311, 47.121382, 26.42], [-2.171147, 47.121354, 26.43], [-2.170985, 47.121318, 26.44], [-2.170811, 47.121292, 26.45], [-2.170643, 47.121251, 26.46], [-2.170476, 47.121218, 26.46], [-2.170304, 47.12119, 26.32], [-2.170136, 47.121147, 26.18], [-2.169965, 47.121112, 26.05], [-2.169792, 47.121077, 25.91], [-2.169621, 47.121047, 25.77], [-2.169455, 47.121012, 25.64], [-2.169277, 47.120984, 25.5], [-2.169111, 47.120944, 25.37], [-2.168934, 47.120912, 25.23], [-2.16876, 47.120883, 25.09], [-2.168583, 47.12085, 24.95], [-2.168407, 47.120824, 24.81], [-2.168238, 47.12078, 24.68], [-2.168062, 47.120744, 24.54], [-2.167887, 47.120707, 24.27], [-2.167721, 47.120659, 23.81], [-2.167561, 47.120607, 23.36], [-2.167403, 47.120551, 22.91], [-2.167253, 47.120498, 22.48], [-2.167098, 47.120454, 22.05], [-2.167002, 47.120378, 21.67], [-2.167017, 47.120255, 21.21], [-2.167085, 47.120132, 20.72], [-2.167167, 47.120018, 20.24], [-2.167266, 47.119904, 19.75], [-2.167368, 47.119792, 19.26], [-2.16749, 47.119683, 18.74], [-2.167587, 47.119557, 18.21], [-2.167694, 47.119429, 17.67], [-2.167786, 47.119326, 17.26], [-2.167852, 47.119238, 16.92], [-2.167824, 47.119133, 16.56], [-2.167677, 47.119056, 16.14], [-2.167503, 47.119, 15.7], [-2.167338, 47.118945, 15.27], [-2.167166, 47.118888, 14.83], [-2.16699, 47.118837, 14.39], [-2.166803, 47.118791, 13.94], [-2.166618, 47.118747, 13.49], [-2.16642, 47.11871, 13.02], [-2.166225, 47.118673, 12.55], [-2.166024, 47.118644, 12.08], [-2.165819, 47.118617, 11.62], [-2.16561, 47.118603, 11.42], [-2.165409, 47.118577, 11.22], [-2.16522, 47.118568, 11.03], [-2.165087, 47.118635, 10.87], [-2.165033, 47.118719, 10.74], [-2.164949, 47.118816, 10.58], [-2.164853, 47.118913, 10.41], [-2.164772, 47.119018, 10.24], [-2.164699, 47.119122, 10.07], [-2.164667, 47.119235, 9.9], [-2.164621, 47.119335, 9.75], [-2.164446, 47.119239, 9.53], [-2.164307, 47.119154, 9.35], [-2.164172, 47.119084, 9.18], [-2.164063, 47.119015, 9.1], [-2.163945, 47.118971, 9.52], [-2.163874, 47.118894, 9.94], [-2.163745, 47.118822, 10.46], [-2.163813, 47.118741, 10.89], [-2.163679, 47.11875, 11.31], [-2.163545, 47.118757, 11.73], [-2.163414, 47.118773, 12.15], [-2.163271, 47.118778, 12.6], [-2.16312, 47.118762, 13.08], [-2.162953, 47.118734, 13.61], [-2.162781, 47.118708, 14.17], [-2.162616, 47.11869, 14.69], [-2.162453, 47.118671, 15.21], [-2.162286, 47.118647, 15.74], [-2.162118, 47.118621, 16.28], [-2.161962, 47.118594, 16.78], [-2.161809, 47.118573, 17.27], [-2.161658, 47.118551, 17.62], [-2.161501, 47.118531, 17.97], [-2.161345, 47.118514, 18.32], [-2.161179, 47.118515, 18.68], [-2.161016, 47.118539, 19.04], [-2.16085, 47.118556, 19.41], [-2.160685, 47.118522, 19.78], [-2.160509, 47.118508, 20.17], [-2.160358, 47.118466, 20.53], [-2.16021, 47.11843, 20.87], [-2.160068, 47.11839, 21.2], [-2.159916, 47.118353, 21.56], [-2.159776, 47.118315, 21.88], [-2.159622, 47.118286, 22.23], [-2.159456, 47.118233, 22.63], [-2.159289, 47.118208, 23.0], [-2.159129, 47.118171, 23.1], [-2.158968, 47.118131, 23.11], [-2.158816, 47.118111, 23.13], [-2.158726, 47.118022, 23.14], [-2.15876, 47.117914, 23.16], [-2.158787, 47.117807, 23.17], [-2.158806, 47.117691, 23.19], [-2.1588, 47.117573, 23.2], [-2.158823, 47.117454, 23.22], [-2.158857, 47.117341, 23.23], [-2.158817, 47.11724, 23.25], [-2.158645, 47.117207, 23.26], [-2.158472, 47.117202, 23.28], [-2.158315, 47.117171, 23.29], [-2.158157, 47.117145, 23.31], [-2.158014, 47.117108, 23.32], [-2.157875, 47.117074, 23.52], [-2.157745, 47.117038, 23.75], [-2.157615, 47.117014, 23.98], [-2.157444, 47.11695, 24.3], [-2.157282, 47.116883, 24.62], [-2.157156, 47.116779, 24.95], [-2.157058, 47.116709, 25.18], [-2.156935, 47.116666, 25.42], [-2.156792, 47.116638, 25.66], [-2.15665, 47.116609, 25.91], [-2.156507, 47.116581, 26.16], [-2.156363, 47.116556, 26.41], [-2.156226, 47.116528, 26.64], [-2.156089, 47.116501, 26.88], [-2.15589, 47.11639, 27.31], [-2.155836, 47.11626, 27.64], [-2.155815, 47.116171, 27.8], [-2.155755, 47.116088, 27.91], [-2.15563, 47.116033, 28.04], [-2.155497, 47.116002, 28.16], [-2.155355, 47.11599, 28.29], [-2.155209, 47.11598, 28.41], [-2.155068, 47.115969, 28.54], [-2.154928, 47.115946, 28.66], [-2.154774, 47.115936, 28.79], [-2.154625, 47.11592, 28.92], [-2.154464, 47.115912, 29.06], [-2.154313, 47.115903, 29.2], [-2.154155, 47.115897, 29.33], [-2.154002, 47.115891, 29.46], [-2.153848, 47.115888, 29.6], [-2.153706, 47.115875, 29.72], [-2.153544, 47.115875, 29.86], [-2.153396, 47.115862, 29.99], [-2.153236, 47.115854, 29.95], [-2.153078, 47.115847, 29.87], [-2.152923, 47.115837, 29.8], [-2.152767, 47.115837, 29.73], [-2.152611, 47.115866, 29.66], [-2.152469, 47.115902, 29.59], [-2.152334, 47.115944, 29.52], [-2.152178, 47.115953, 29.45], [-2.152034, 47.115911, 29.38], [-2.151874, 47.115869, 29.3], [-2.151711, 47.115843, 29.23], [-2.15154, 47.115829, 29.15], [-2.151367, 47.115787, 29.07], [-2.151199, 47.11575, 28.99], [-2.151027, 47.115716, 28.91], [-2.150851, 47.11569, 28.82], [-2.15068, 47.115658, 28.37], [-2.150513, 47.115624, 27.86], [-2.150378, 47.115547, 27.34], [-2.150266, 47.115475, 26.88], [-2.15012, 47.115536, 26.37], [-2.150169, 47.115632, 25.93], [-2.150138, 47.115723, 25.52], [-2.150085, 47.115831, 25.03], [-2.150064, 47.115933, 24.58], [-2.149919, 47.116004, 24.05], [-2.149731, 47.116002, 23.5], [-2.149544, 47.116028, 22.93], [-2.149368, 47.116105, 22.31], [-2.149166, 47.116166, 21.66], [-2.148944, 47.116202, 20.98], [-2.148726, 47.116214, 20.14], [-2.148534, 47.116211, 19.4], [-2.148386, 47.116217, 18.83], [-2.14819, 47.116186, 18.06], [-2.148103, 47.116081, 17.38], [-2.148012, 47.115965, 16.63], [-2.147902, 47.115855, 15.88], [-2.147784, 47.115739, 15.08], [-2.147671, 47.115615, 14.26], [-2.147557, 47.115494, 13.44], [-2.147442, 47.115373, 12.63], [-2.147331, 47.115259, 11.86], [-2.147217, 47.11514, 11.05], [-2.147118, 47.115039, 10.91], [-2.14703, 47.114944, 11.03], [-2.146966, 47.11486, 11.13], [-2.146845, 47.1148, 11.24], [-2.146686, 47.114783, 11.36], [-2.146639, 47.114687, 11.46], [-2.146651, 47.114569, 11.59], [-2.146601, 47.114456, 11.72], [-2.146557, 47.114344, 11.84], [-2.14652, 47.114232, 11.96], [-2.146472, 47.114126, 12.08], [-2.146434, 47.114014, 12.21], [-2.146413, 47.1139, 12.33], [-2.146427, 47.113792, 12.44], [-2.146426, 47.113694, 12.55], [-2.146422, 47.113603, 12.65], [-2.146422, 47.113472, 12.79], [-2.146421, 47.113347, 12.96], [-2.146422, 47.11322, 13.12], [-2.146376, 47.113134, 13.24], [-2.146318, 47.113049, 13.37], [-2.146213, 47.112981, 13.49], [-2.146088, 47.112931, 13.62], [-2.145955, 47.112886, 13.76], [-2.145826, 47.112826, 13.89], [-2.145682, 47.112775, 14.04], [-2.145541, 47.112728, 14.18], [-2.145396, 47.112681, 14.32], [-2.145232, 47.112656, 14.47], [-2.145068, 47.112622, 14.62], [-2.14491, 47.112575, 14.77], [-2.144774, 47.112482, 14.95], [-2.144624, 47.112397, 15.1], [-2.144452, 47.112326, 15.13], [-2.144269, 47.112271, 15.16], [-2.144079, 47.112231, 15.2], [-2.143883, 47.112207, 15.23], [-2.143678, 47.112193, 15.26], [-2.143474, 47.112168, 15.3], [-2.143283, 47.112143, 15.33], [-2.143118, 47.112122, 15.36], [-2.142962, 47.112099, 15.38], [-2.142809, 47.112091, 15.41], [-2.142649, 47.112095, 15.44], [-2.142494, 47.112104, 15.46], [-2.142334, 47.1121, 15.49], [-2.142171, 47.112105, 15.52], [-2.142008, 47.112114, 15.56], [-2.141856, 47.112142, 15.62], [-2.141711, 47.112172, 15.67], [-2.141557, 47.112187, 15.73], [-2.141395, 47.112183, 15.79], [-2.141229, 47.112144, 15.86], [-2.141047, 47.112115, 15.92], [-2.140859, 47.112112, 15.99], [-2.140667, 47.112129, 16.07], [-2.140473, 47.112155, 16.14], [-2.140273, 47.112182, 16.22], [-2.140074, 47.112202, 16.29], [-2.139899, 47.112202, 16.35], [-2.139745, 47.112172, 16.41], [-2.139641, 47.112111, 16.46], [-2.139557, 47.11204, 16.54], [-2.139447, 47.111974, 16.8], [-2.139299, 47.111929, 17.1], [-2.139142, 47.1119, 17.39], [-2.138982, 47.111894, 17.68], [-2.138827, 47.111903, 17.96], [-2.138677, 47.111912, 18.24], [-2.138538, 47.111913, 18.49], [-2.138339, 47.111926, 18.85], [-2.13817, 47.111987, 19.2], [-2.138008, 47.112052, 19.54], [-2.137869, 47.112087, 19.81], [-2.137712, 47.112097, 20.09], [-2.137554, 47.112051, 20.41], [-2.13741, 47.111991, 20.71], [-2.137263, 47.111944, 21.01], [-2.137109, 47.11191, 21.3], [-2.136954, 47.1119, 21.48], [-2.136803, 47.111922, 21.65], [-2.136627, 47.111958, 21.86], [-2.136473, 47.111998, 22.05], [-2.136311, 47.112048, 22.25], [-2.136195, 47.112099, 22.41], [-2.136053, 47.112129, 22.58], [-2.135909, 47.112178, 22.76], [-2.135764, 47.112216, 22.94], [-2.135631, 47.112265, 23.11], [-2.135486, 47.1123, 23.29], [-2.135332, 47.112312, 23.46], [-2.135167, 47.11233, 23.65], [-2.13498, 47.112336, 23.87], [-2.134796, 47.112348, 24.08], [-2.134615, 47.112353, 24.28], [-2.134438, 47.112368, 24.28], [-2.134261, 47.112379, 24.26], [-2.134091, 47.112391, 24.23], [-2.133928, 47.112422, 24.2], [-2.133784, 47.112474, 24.18], [-2.133646, 47.112529, 24.15], [-2.133508, 47.112575, 24.13], [-2.133375, 47.112623, 24.1], [-2.133229, 47.112659, 24.08], [-2.133072, 47.11268, 24.06], [-2.132914, 47.11271, 24.03], [-2.132773, 47.112772, 24.0], [-2.132679, 47.112877, 23.97], [-2.132512, 47.112925, 23.95], [-2.132373, 47.112894, 23.92], [-2.132211, 47.112915, 23.9], [-2.132078, 47.112924, 23.7], [-2.131879, 47.112802, 23.23], [-2.131692, 47.112782, 22.9], [-2.131532, 47.112762, 22.61], [-2.131376, 47.112729, 22.32], [-2.131222, 47.112715, 22.05], [-2.131049, 47.112707, 21.74], [-2.130897, 47.112745, 21.46], [-2.130784, 47.112802, 21.21], [-2.130627, 47.112838, 20.92], [-2.130468, 47.112838, 20.64], [-2.130308, 47.11276, 20.3], [-2.130214, 47.112642, 19.95], [-2.130084, 47.112541, 19.6], [-2.12991, 47.112487, 19.27], [-2.129729, 47.112452, 18.95], [-2.12954, 47.112444, 18.63], [-2.129352, 47.112442, 18.31], [-2.129168, 47.11243, 17.99], [-2.128983, 47.11242, 17.68], [-2.128803, 47.112411, 17.37], [-2.128621, 47.112394, 17.06], [-2.128443, 47.112392, 16.76], [-2.128267, 47.112383, 16.46], [-2.128084, 47.112377, 16.15], [-2.127902, 47.112364, 15.84], [-2.127724, 47.112349, 15.53], [-2.127512, 47.112353, 15.17], [-2.127314, 47.112347, 14.84], [-2.127114, 47.112337, 14.61], [-2.126933, 47.112295, 14.43], [-2.126765, 47.11224, 14.25], [-2.126598, 47.112183, 14.07], [-2.126439, 47.112123, 13.89], [-2.126278, 47.112058, 13.71], [-2.126112, 47.112, 13.53], [-2.125957, 47.111937, 13.36], [-2.125798, 47.111874, 13.18], [-2.125641, 47.111818, 13.01], [-2.125482, 47.111768, 12.84], [-2.125331, 47.111703, 12.67], [-2.125188, 47.111644, 12.5], [-2.125049, 47.111593, 12.35], [-2.124907, 47.111537, 12.21], [-2.12475, 47.111486, 12.17], [-2.124573, 47.111455, 12.12], [-2.124402, 47.111461, 12.08], [-2.12424, 47.111469, 12.04], [-2.124094, 47.11152, 12.0], [-2.123942, 47.111578, 11.96], [-2.123754, 47.111594, 11.92], [-2.123575, 47.111561, 11.87], [-2.123445, 47.111488, 11.83], [-2.123395, 47.111393, 11.8], [-2.123358, 47.111293, 11.76], [-2.123301, 47.111203, 11.73], [-2.123226, 47.111115, 11.69], [-2.123126, 47.111041, 11.65], [-2.12303, 47.110973, 11.62], [-2.12294, 47.110894, 11.59], [-2.122739, 47.110719, 11.76], [-2.122627, 47.110663, 11.84], [-2.12251, 47.11061, 11.92], [-2.122382, 47.110558, 12.01], [-2.122238, 47.110517, 12.1], [-2.122085, 47.110487, 12.19], [-2.121937, 47.110473, 12.28], [-2.121784, 47.110457, 12.37], [-2.121627, 47.110447, 12.46], [-2.121471, 47.110429, 12.56], [-2.121312, 47.110412, 12.65], [-2.121154, 47.110399, 12.74], [-2.120993, 47.11039, 12.84], [-2.120822, 47.110369, 12.94], [-2.120654, 47.110377, 13.04], [-2.120481, 47.110391, 13.12], [-2.120315, 47.110412, 13.03], [-2.120148, 47.110423, 12.94], [-2.119995, 47.110454, 12.85], [-2.119827, 47.11048, 12.76], [-2.119669, 47.110493, 12.67], [-2.119513, 47.110502, 12.58], [-2.11936, 47.11051, 12.5], [-2.119201, 47.110519, 12.42], [-2.119042, 47.110527, 12.33], [-2.118882, 47.110531, 12.24], [-2.118726, 47.110543, 12.16], [-2.118574, 47.110557, 12.07], [-2.118421, 47.110558, 11.99], [-2.118268, 47.110571, 11.91], [-2.118101, 47.110571, 11.82], [-2.11794, 47.110578, 11.73], [-2.117763, 47.110587, 11.89], [-2.117585, 47.110604, 12.18], [-2.117396, 47.110616, 12.48], [-2.117201, 47.110624, 12.79], [-2.117013, 47.110631, 13.09], [-2.116828, 47.110638, 13.39], [-2.11665, 47.110639, 13.67], [-2.116481, 47.110632, 13.94], [-2.116307, 47.110616, 14.22], [-2.116137, 47.110594, 14.5], [-2.115973, 47.11058, 14.76], [-2.115815, 47.110568, 15.02], [-2.115654, 47.110563, 15.27], [-2.115499, 47.110576, 15.52], [-2.115352, 47.110598, 15.76], [-2.11521, 47.110619, 16.0], [-2.115066, 47.110622, 16.24], [-2.11492, 47.110639, 16.48], [-2.114785, 47.110667, 16.71], [-2.11465, 47.11068, 16.94], [-2.114487, 47.110695, 17.21], [-2.114318, 47.110704, 17.49], [-2.114186, 47.110735, 17.72], [-2.114023, 47.110758, 17.99], [-2.11388, 47.110792, 18.24], [-2.113736, 47.110827, 18.49], [-2.113597, 47.110861, 18.74], [-2.113455, 47.110892, 18.98], [-2.113316, 47.11093, 19.23], [-2.113177, 47.110967, 19.47], [-2.113039, 47.111001, 19.72], [-2.112906, 47.11103, 19.95], [-2.112777, 47.111064, 20.17], [-2.112639, 47.111103, 20.25], [-2.112497, 47.111139, 20.21], [-2.112349, 47.111177, 20.17], [-2.112208, 47.111219, 20.13], [-2.112067, 47.11127, 20.09], [-2.111924, 47.111326, 20.04], [-2.111781, 47.11138, 20.0], [-2.111622, 47.111433, 19.95], [-2.111472, 47.111492, 19.91], [-2.111309, 47.111545, 19.86], [-2.111154, 47.111595, 19.82], [-2.111009, 47.111643, 19.77], [-2.110865, 47.111689, 19.73], [-2.110713, 47.111737, 19.69], [-2.110562, 47.111786, 19.65], [-2.110419, 47.111838, 19.6], [-2.11028, 47.111894, 19.41], [-2.110141, 47.111947, 19.07], [-2.110002, 47.111991, 18.75], [-2.109853, 47.112035, 18.4], [-2.1097, 47.112077, 18.05], [-2.109543, 47.112114, 17.7], [-2.109373, 47.112152, 17.32], [-2.109199, 47.112194, 16.93], [-2.109013, 47.112222, 16.53], [-2.108824, 47.112275, 16.09], [-2.108629, 47.112306, 15.67], [-2.108438, 47.112354, 15.23], [-2.108231, 47.112402, 14.77], [-2.108038, 47.112442, 14.34], [-2.107853, 47.112486, 13.94], [-2.107663, 47.112525, 13.65], [-2.107487, 47.112588, 13.36], [-2.107387, 47.112705, 13.06], [-2.107353, 47.112851, 12.74], [-2.107289, 47.112988, 12.43], [-2.107192, 47.113126, 12.1], [-2.107105, 47.113274, 11.76], [-2.10699, 47.113417, 11.41], [-2.106903, 47.11356, 11.07], [-2.106824, 47.113656, 10.84], [-2.106766, 47.113737, 10.64], [-2.106685, 47.11383, 10.41], [-2.106582, 47.11395, 10.11], [-2.106509, 47.114042, 9.98], [-2.106423, 47.114131, 9.87], [-2.10635, 47.114218, 9.76], [-2.106255, 47.114309, 9.64], [-2.106116, 47.114371, 9.52], [-2.106012, 47.114446, 9.41], [-2.105882, 47.114532, 9.27], [-2.105715, 47.114558, 9.15], [-2.105586, 47.114584, 9.05], [-2.105449, 47.114615, 8.94], [-2.1053, 47.114651, 8.83], [-2.105133, 47.11469, 8.7], [-2.104958, 47.114719, 8.56], [-2.104756, 47.114719, 8.42], [-2.104608, 47.114707, 8.31], [-2.104425, 47.114617, 8.14], [-2.104288, 47.114612, 7.98], [-2.104067, 47.114625, 7.73], [-2.103887, 47.114648, 7.53], [-2.103701, 47.114673, 7.31], [-2.103524, 47.1147, 7.11], [-2.10335, 47.114732, 6.9], [-2.103158, 47.114752, 6.68], [-2.103016, 47.114753, 6.52], [-2.102876, 47.114775, 6.36], [-2.10273, 47.114792, 6.19], [-2.102578, 47.114813, 6.02], [-2.102424, 47.114832, 5.84], [-2.102265, 47.114858, 5.65], [-2.10211, 47.114879, 5.48], [-2.101938, 47.114899, 5.28], [-2.101769, 47.114899, 5.19], [-2.101597, 47.114901, 5.28], [-2.101426, 47.114907, 5.37], [-2.101251, 47.114909, 5.46], [-2.101084, 47.114911, 5.55], [-2.100916, 47.114916, 5.63], [-2.100749, 47.114923, 5.72], [-2.100581, 47.114945, 5.81], [-2.100421, 47.114991, 5.9], [-2.10026, 47.11503, 5.99], [-2.100112, 47.115054, 6.07], [-2.099977, 47.1151, 6.15], [-2.099873, 47.115169, 6.23], [-2.099816, 47.115255, 6.3], [-2.099733, 47.115331, 6.37], [-2.099588, 47.115328, 6.45], [-2.099442, 47.115347, 6.53], [-2.099289, 47.115352, 6.54], [-2.099143, 47.115357, 6.54], [-2.099008, 47.115366, 6.54], [-2.099008, 47.115368, 3.5], [-2.098828, 47.115372, 3.31], [-2.098778, 47.115297, 3.38], [-2.098639, 47.114947, 4.95]]}, "properties": {"name": "Activité", "source_file": "velodyssee_etape-2_saint-michel-chef-chef_pornic.gpx", "point_count": 2008, "distance_km": 25.29, "duration_s": 20348, "elevation_gain_m": 152.8, "elevation_loss_m": 159.4}}]}
