{"type": "FeatureCollection", "features": [{"type": "Feature", "geometry": {"type": "LineString", "coordinates": [[-2.170233, 47.267949], [-2.170191, 47.267329], [-2.169794, 47.2672], [-2.170238, 47.26713], [-2.170837, 47.264385], [-2.170356, 47.264174], [-2.170885, 47.264169], [-2.171009, 47.26276], [-2.170819, 47.262596], [-2.171015, 47.262455], [-2.170968, 47.261481], [-2.170624, 47.259048], [-2.169911, 47.258786], [-2.169727, 47.256365], [-2.169831, 47.256044], [-2.169564, 47.254361], [-2.170054, 47.254243], [-2.170198, 47.254058], [-2.169762, 47.252591], [-2.169633, 47.251401], [-2.169267, 47.251275], [-2.169166, 47.250836], [-2.169101, 47.249131], [-2.16954, 47.248379], [-2.169857, 47.247254], [-2.170684, 47.241205], [-2.171176, 47.239462], [-2.169547, 47.239002], [-2.169403, 47.238837], [-2.17216, 47.236518], [-2.175358, 47.23559], [-2.175596, 47.235213], [-2.175363, 47.233795], [-2.175473, 47.233581], [-2.177761, 47.233377], [-2.178365, 47.23318], [-2.17895, 47.232678], [-2.179059, 47.231801], [-2.178722, 47.231235], [-2.177016, 47.22978], [-2.176621, 47.229225], [-2.175413, 47.228482], [-2.1753, 47.228298], [-2.175426, 47.228332], [-2.170948, 47.22504], [-2.168044, 47.222532], [-2.167035, 47.221883], [-2.164835, 47.219901], [-2.162443, 47.218579], [-2.158977, 47.212716], [-2.158443, 47.212148], [-2.157526, 47.211544], [-2.155742, 47.206566], [-2.155817, 47.206233], [-2.155546, 47.206088], [-2.154966, 47.204501], [-2.154185, 47.203765], [-2.152594, 47.203034], [-2.152411, 47.202686], [-2.152974, 47.201631], [-2.153166, 47.200876], [-2.152753, 47.197967], [-2.152792, 47.197524], [-2.153058, 47.197152], [-2.156408, 47.19702], [-2.156661, 47.19689], [-2.156489, 47.19673], [-2.157035, 47.197022], [-2.157439, 47.197046], [-2.158157, 47.195563], [-2.159354, 47.194619], [-2.159776, 47.193727], [-2.160863, 47.193313], [-2.160813, 47.191775], [-2.160343, 47.189424], [-2.160095, 47.188635], [-2.159434, 47.188101], [-2.160074, 47.186162], [-2.161245, 47.18466], [-2.161755, 47.183442], [-2.162199, 47.182801], [-2.161884, 47.181918], [-2.163221, 47.179733], [-2.163724, 47.176553], [-2.163901, 47.175926], [-2.164069, 47.17585], [-2.163964, 47.175659], [-2.16518, 47.171616]]}, "properties": {"name": "🚲 Vélodyssée - N°1 - Saint-Brévin-les-Pins  ➡️ Saint-Michel-Chef-Chef", "source_file": "velodyssee_etape-1_saint-brevin-les-pins_saint-michel-chef-chef.gpx", "point_count": 1006, "distance_km": 12.88, "duration_s": 11756, "elevation_gain_m": 42.1, "elevation_loss_m": 35.0}}]}
