{"type": "FeatureCollection", "features": [{"type": "Feature", "geometry": {"type": "LineString", "coordinates": [[-2.244171, 47.000095], [-2.244223, 46.999998], [-2.243219, 46.999697], [-2.243418, 46.999169], [-2.247846, 46.99984], [-2.248059, 46.999465], [-2.248232, 46.998771], [-2.248149, 46.998215], [-2.247994, 46.998226], [-2.247598, 46.997812], [-2.247817, 46.997406], [-2.247117, 46.99467], [-2.247197, 46.994428], [-2.24666, 46.991386], [-2.247105, 46.990435], [-2.24842, 46.989224], [-2.24879, 46.9892], [-2.249293, 46.98847], [-2.249647, 46.987781], [-2.249653, 46.98701], [-2.249133, 46.986068], [-2.246935, 46.984387], [-2.245964, 46.983062], [-2.24595, 46.982563], [-2.246751, 46.981661], [-2.246633, 46.98123], [-2.24386, 46.979488], [-2.243375, 46.979032], [-2.241864, 46.976723], [-2.241659, 46.976134], [-2.241278, 46.975734], [-2.241346, 46.975114], [-2.240922, 46.975059], [-2.240572, 46.974754], [-2.239571, 46.973226], [-2.238552, 46.973231], [-2.236462, 46.972866], [-2.235974, 46.973733], [-2.235613, 46.973811], [-2.23452, 46.973712], [-2.232663, 46.973126], [-2.23178, 46.973829], [-2.230328, 46.972951], [-2.229218, 46.973432], [-2.226043, 46.9761], [-2.212383, 46.970306], [-2.211961, 46.970117], [-2.212138, 46.969922], [-2.211911, 46.969817], [-2.210917, 46.969498], [-2.210609, 46.969643], [-2.184052, 46.959746], [-2.183238, 46.959706], [-2.176827, 46.958389], [-2.168511, 46.955348], [-2.163222, 46.952883], [-2.164437, 46.951286], [-2.163645, 46.951183], [-2.16311, 46.950272], [-2.162465, 46.949875], [-2.162438, 46.949519], [-2.161856, 46.949396], [-2.161458, 46.949107], [-2.159451, 46.944423], [-2.15964, 46.942443], [-2.160468, 46.942179], [-2.160497, 46.941935], [-2.157061, 46.936547], [-2.155422, 46.935143], [-2.154948, 46.934507], [-2.154279, 46.931523], [-2.153683, 46.930773], [-2.153071, 46.930338], [-2.152903, 46.92988], [-2.152078, 46.929491], [-2.151961, 46.928227], [-2.151742, 46.927937], [-2.151041, 46.927831], [-2.150397, 46.92699], [-2.148476, 46.926521], [-2.147949, 46.926747], [-2.146953, 46.926277], [-2.146832, 46.924715], [-2.147146, 46.924499], [-2.147107, 46.924057], [-2.147527, 46.92337], [-2.148765, 46.922776], [-2.148972, 46.922467], [-2.149234, 46.921762], [-2.149314, 46.920668], [-2.149918, 46.920451], [-2.150562, 46.920456], [-2.150795, 46.920173], [-2.1511, 46.917224], [-2.151092, 46.91655], [-2.150702, 46.916187], [-2.150819, 46.915676], [-2.148717, 46.914548], [-2.148561, 46.913539], [-2.150115, 46.912296], [-2.149887, 46.910745], [-2.150033, 46.909791], [-2.15068, 46.909276], [-2.151785, 46.908862], [-2.152009, 46.908126], [-2.15238, 46.907696], [-2.153303, 46.907245], [-2.153453, 46.907029], [-2.153476, 46.906647], [-2.153042, 46.905541], [-2.151666, 46.905215], [-2.151644, 46.903557], [-2.151468, 46.902711], [-2.15168, 46.902435], [-2.151181, 46.901931], [-2.150821, 46.901161], [-2.151013, 46.90083], [-2.150811, 46.900257], [-2.151022, 46.900086], [-2.151445, 46.900059], [-2.151071, 46.899677], [-2.149644, 46.896962], [-2.14915, 46.895556], [-2.149191, 46.894486], [-2.150816, 46.887218], [-2.150695, 46.886206], [-2.150269, 46.885466], [-2.149152, 46.884619], [-2.149308, 46.884484], [-2.148917, 46.884275], [-2.147926, 46.883993], [-2.145417, 46.883826], [-2.142588, 46.88333], [-2.142006, 46.879321], [-2.141273, 46.878929], [-2.140509, 46.878753], [-2.138552, 46.878759], [-2.136049, 46.878449], [-2.134978, 46.878732], [-2.13356, 46.878569], [-2.131479, 46.878011], [-2.129859, 46.878565], [-2.127597, 46.878449], [-2.125897, 46.878637], [-2.125068, 46.878464], [-2.12485, 46.877179], [-2.124075, 46.875868], [-2.123663, 46.875464], [-2.123537, 46.874882], [-2.123804, 46.8743], [-2.124313, 46.873869], [-2.124417, 46.873482], [-2.124299, 46.872901], [-2.123573, 46.871457], [-2.123582, 46.870621], [-2.123999, 46.870057], [-2.124771, 46.869456], [-2.124913, 46.868963], [-2.124769, 46.868635], [-2.124862, 46.868184], [-2.124745, 46.867658], [-2.12383, 46.866564], [-2.124484, 46.865333], [-2.124502, 46.865012], [-2.124962, 46.86466], [-2.124971, 46.863504], [-2.122667, 46.862665], [-2.121831, 46.862096], [-2.121025, 46.862281], [-2.120531, 46.862193], [-2.120111, 46.861], [-2.118127, 46.859172], [-2.119004, 46.858613], [-2.119477, 46.85854], [-2.121469, 46.856782], [-2.122827, 46.856761], [-2.123057, 46.855714], [-2.123354, 46.855379], [-2.124665, 46.854348], [-2.124844, 46.853983], [-2.126599, 46.852344], [-2.127912, 46.851388], [-2.128103, 46.850685], [-2.12844, 46.8504], [-2.12865, 46.849934], [-2.129434, 46.849536], [-2.130082, 46.848544], [-2.130227, 46.848059], [-2.13055, 46.847795], [-2.130732, 46.846969], [-2.131433, 46.846643], [-2.131608, 46.846345], [-2.13214, 46.845991], [-2.132602, 46.844806], [-2.133083, 46.844397], [-2.133373, 46.84354], [-2.134152, 46.842818], [-2.134912, 46.84155], [-2.138772, 46.84174], [-2.13922, 46.841634], [-2.139253, 46.841153], [-2.138655, 46.839162], [-2.138378, 46.838886], [-2.137547, 46.836939], [-2.13816, 46.835302], [-2.138169, 46.834094], [-2.139404, 46.832152], [-2.140147, 46.831264], [-2.140211, 46.83083], [-2.139595, 46.828934], [-2.139621, 46.828127], [-2.139253, 46.826457], [-2.13873, 46.825364], [-2.138065, 46.822875], [-2.137155, 46.82039], [-2.134902, 46.819862], [-2.132313, 46.820038], [-2.130841, 46.819119], [-2.13042, 46.818244], [-2.128843, 46.817126], [-2.125846, 46.815898], [-2.123877, 46.813898], [-2.123792, 46.813119], [-2.122934, 46.812788], [-2.122184, 46.813068], [-2.1218, 46.813393], [-2.121291, 46.813199], [-2.119075, 46.811886], [-2.118121, 46.810545], [-2.116958, 46.810072], [-2.116051, 46.809979], [-2.111856, 46.808456], [-2.109891, 46.807931], [-2.107328, 46.806678], [-2.103412, 46.805835], [-2.101341, 46.805019], [-2.10123, 46.805135], [-2.09915, 46.8047], [-2.09824, 46.803967], [-2.097281, 46.803552], [-2.092745, 46.802239], [-2.091315, 46.801636], [-2.089703, 46.801408], [-2.088026, 46.800997], [-2.086668, 46.800472], [-2.084608, 46.800119], [-2.081887, 46.79934], [-2.0805, 46.799263], [-2.079229, 46.798958], [-2.076935, 46.798143], [-2.076656, 46.797203], [-2.077175, 46.796392], [-2.077724, 46.794888], [-2.078647, 46.794475], [-2.079065, 46.794111], [-2.079345, 46.7935], [-2.080382, 46.792676], [-2.0809, 46.791982], [-2.081767, 46.791666], [-2.080431, 46.789919], [-2.080332, 46.789283], [-2.080519, 46.787714], [-2.080367, 46.787271], [-2.079891, 46.786833], [-2.072688, 46.783686], [-2.068769, 46.781587], [-2.067927, 46.781359], [-2.067251, 46.78091], [-2.067136, 46.780645], [-2.066065, 46.780188], [-2.065893, 46.779924], [-2.06509, 46.77945], [-2.064064, 46.779348], [-2.063571, 46.778912], [-2.063444, 46.778479], [-2.058148, 46.775186], [-2.052023, 46.770718], [-2.051341, 46.770696], [-2.049338, 46.771392], [-2.048723, 46.771316], [-2.045789, 46.769992], [-2.04417, 46.768904], [-2.043016, 46.767681], [-2.042026, 46.767007], [-2.039303, 46.766161], [-2.037055, 46.766049], [-2.03588, 46.765765], [-2.031214, 46.763766], [-2.029938, 46.763665], [-2.029093, 46.763331], [-2.026713, 46.760639], [-2.025295, 46.75952], [-2.02484, 46.758426], [-2.02492, 46.757986], [-2.024434, 46.757036], [-2.023417, 46.75627], [-2.02244, 46.75509], [-2.020966, 46.754494], [-2.019549, 46.753389], [-2.016257, 46.751292], [-2.016243, 46.751107], [-2.015945, 46.751091], [-2.013642, 46.749503], [-2.011971, 46.746664], [-2.010324, 46.745257], [-2.008847, 46.743536], [-2.008128, 46.743019], [-2.006849, 46.740886], [-2.006696, 46.740183], [-2.003499, 46.74062], [-2.001202, 46.741186], [-1.996827, 46.741496], [-1.994274, 46.742086], [-1.99349, 46.742084], [-1.9932, 46.741549], [-1.992951, 46.741442], [-1.992635, 46.739963], [-1.992192, 46.739115], [-1.987087, 46.73376], [-1.985778, 46.733791], [-1.985094, 46.73357], [-1.98331, 46.731808], [-1.981121, 46.727039], [-1.979757, 46.725046], [-1.978608, 46.724105], [-1.978568, 46.723902], [-1.978065, 46.723793], [-1.968887, 46.718631], [-1.968949, 46.718311], [-1.970449, 46.717641], [-1.97212, 46.716512], [-1.97622, 46.714151], [-1.977816, 46.712772], [-1.979078, 46.712162], [-1.979571, 46.711583], [-1.97987, 46.711646], [-1.980286, 46.710915], [-1.979492, 46.710748], [-1.979677, 46.710124], [-1.979397, 46.710048], [-1.979594, 46.709384], [-1.979025, 46.708042], [-1.979127, 46.708], [-1.978978, 46.706751], [-1.979297, 46.705583], [-1.978957, 46.704632], [-1.976302, 46.702063], [-1.973547, 46.700023], [-1.971665, 46.697749], [-1.967572, 46.69374], [-1.966622, 46.693302], [-1.965568, 46.693147], [-1.961376, 46.693292], [-1.960295, 46.694256], [-1.95972, 46.694458], [-1.957591, 46.694672], [-1.954589, 46.695496], [-1.95265, 46.695253], [-1.951372, 46.696183], [-1.949782, 46.696831], [-1.948947, 46.697517], [-1.947433, 46.698091], [-1.946893, 46.698118], [-1.944709, 46.69755], [-1.944784, 46.697306], [-1.943068, 46.696327], [-1.940852, 46.695467], [-1.94039, 46.695838], [-1.937326, 46.694435], [-1.936469, 46.694231], [-1.935957, 46.694457], [-1.935782, 46.695072], [-1.935794, 46.696107], [-1.934469, 46.696274], [-1.934136, 46.69586], [-1.933462, 46.694273], [-1.933526, 46.693839], [-1.933384, 46.693724], [-1.933461, 46.693512], [-1.933329, 46.693434], [-1.933155, 46.692322], [-1.933218, 46.69168], [-1.931437, 46.691856], [-1.93072, 46.692163], [-1.930483, 46.692136], [-1.930085, 46.691703], [-1.925743, 46.692315], [-1.925895, 46.692552], [-1.925876, 46.693107], [-1.92545, 46.6931]]}, "properties": {"name": "Noirmoutier-en-l'Île ➡️ Saint-Gilles-Croix-de-Vie", "source_file": "velodyssee_etape-4_noirmoutier_st-gilles-croix-de-vie.gpx", "point_count": 1349, "distance_km": 57.51, "duration_s": 9520, "elevation_gain_m": 77.7, "elevation_loss_m": 72.4}}]}
