{"type": "FeatureCollection", "features": [{"type": "Feature", "geometry": {"type": "LineString", "coordinates": [[-2.244171, 47.000095, 2.67], [-2.244223, 46.999998, 2.67], [-2.24382, 46.999883, 2.67], [-2.243825, 46.999841, 2.67], [-2.243514, 46.999771, 2.67], [-2.24327, 46.99971, 2.67], [-2.243219, 46.999697, 2.67], [-2.243402, 46.999219, 2.28], [-2.243418, 46.999169, 2.24], [-2.24357, 46.999172, 2.15], [-2.243962, 46.999239, 1.92], [-2.244117, 46.999288, 1.82], [-2.244685, 46.999372, 1.49], [-2.244988, 46.999401, 1.32], [-2.245487, 46.999481, 1.19], [-2.246034, 46.999565, 1.2], [-2.247587, 46.999796, 1.23], [-2.247846, 46.99984, 1.24], [-2.247873, 46.999769, 1.23], [-2.247877, 46.999758, 1.23], [-2.247949, 46.99958, 1.22], [-2.24797, 46.999528, 1.22], [-2.247989, 46.99949, 1.22], [-2.248002, 46.999485, 1.21], [-2.248059, 46.999465, 1.21], [-2.24821, 46.999071, 1.19], [-2.248232, 46.998771, 1.17], [-2.248149, 46.998215, 1.13], [-2.248066, 46.998222, 1.13], [-2.247994, 46.998226, 1.13], [-2.24795, 46.998096, 1.12], [-2.247841, 46.998003, 1.11], [-2.247642, 46.99791, 1.1], [-2.247619, 46.997854, 1.1], [-2.247598, 46.997812, 1.1], [-2.247654, 46.997786, 1.1], [-2.247806, 46.99762, 1.08], [-2.247817, 46.997406, 1.07], [-2.247757, 46.997095, 1.05], [-2.2476, 46.996362, 1.01], [-2.247568, 46.996192, 1.0], [-2.247502, 46.995879, 0.98], [-2.247427, 46.995533, 0.96], [-2.247254, 46.994986, 0.92], [-2.247117, 46.99467, 0.92], [-2.247197, 46.994428, 0.93], [-2.247103, 46.993947, 0.96], [-2.24708, 46.993875, 0.96], [-2.247038, 46.993682, 0.97], [-2.247021, 46.993576, 0.97], [-2.246942, 46.993125, 1.0], [-2.246872, 46.992777, 0.96], [-2.246654, 46.99162, 0.8], [-2.24666, 46.991386, 0.77], [-2.246723, 46.99106, 0.73], [-2.246858, 46.990767, 0.69], [-2.247105, 46.990435, 0.64], [-2.24793, 46.989673, 0.52], [-2.24842, 46.989224, 0.49], [-2.248482, 46.989236, 0.49], [-2.248542, 46.989253, 0.49], [-2.248731, 46.989204, 0.48], [-2.24879, 46.9892, 0.48], [-2.248785, 46.989103, 0.47], [-2.248832, 46.988995, 0.47], [-2.249293, 46.98847, 0.43], [-2.249514, 46.988117, 0.41], [-2.249647, 46.987781, 0.4], [-2.249696, 46.987415, 0.38], [-2.249653, 46.98701, 0.36], [-2.249424, 46.986433, 0.36], [-2.249133, 46.986068, 0.39], [-2.248827, 46.985784, 0.41], [-2.247562, 46.984867, 0.52], [-2.246935, 46.984387, 0.6], [-2.246836, 46.984252, 0.61], [-2.246742, 46.984083, 0.64], [-2.246667, 46.983973, 0.65], [-2.246461, 46.983743, 0.68], [-2.245964, 46.983062, 0.62], [-2.245915, 46.98294, 0.61], [-2.245897, 46.982766, 0.59], [-2.24595, 46.982563, 0.58], [-2.246021, 46.982441, 0.57], [-2.246178, 46.98227, 0.55], [-2.246568, 46.981926, 0.53], [-2.246751, 46.981661, 0.52], [-2.246738, 46.981416, 0.52], [-2.246633, 46.98123, 0.52], [-2.246535, 46.981142, 0.51], [-2.245024, 46.980202, 0.5], [-2.24386, 46.979488, 0.5], [-2.243671, 46.979349, 0.5], [-2.243375, 46.979032, 0.51], [-2.242772, 46.978135, 0.52], [-2.241864, 46.976723, 0.66], [-2.241659, 46.976134, 0.72], [-2.241623, 46.976108, 0.72], [-2.241573, 46.976042, 0.73], [-2.241568, 46.976021, 0.73], [-2.24149, 46.975919, 0.74], [-2.241278, 46.975734, 0.76], [-2.241226, 46.97563, 0.77], [-2.241253, 46.975456, 0.79], [-2.241427, 46.975245, 0.81], [-2.241408, 46.975214, 0.81], [-2.241366, 46.975147, 0.82], [-2.241346, 46.975114, 0.82], [-2.240922, 46.975059, 0.85], [-2.240775, 46.974969, 0.86], [-2.240572, 46.974754, 0.87], [-2.239571, 46.973226, 0.68], [-2.239504, 46.973244, 0.68], [-2.239232, 46.973298, 0.66], [-2.238552, 46.973231, 0.63], [-2.237522, 46.973042, 0.57], [-2.23662, 46.972848, 0.53], [-2.236462, 46.972866, 0.52], [-2.236354, 46.973009, 0.52], [-2.236131, 46.97355, 0.5], [-2.235974, 46.973733, 0.49], [-2.235824, 46.9738, 0.48], [-2.235613, 46.973811, 0.48], [-2.234928, 46.973774, 0.47], [-2.23452, 46.973712, 0.46], [-2.23308, 46.97334, 0.45], [-2.232663, 46.973126, 0.44], [-2.232589, 46.973197, 0.43], [-2.232125, 46.973497, 0.41], [-2.23178, 46.973829, 0.39], [-2.231548, 46.97372, 0.38], [-2.230328, 46.972951, 0.23], [-2.230223, 46.972992, 0.21], [-2.229885, 46.973231, 0.14], [-2.22973, 46.973303, 0.11], [-2.229353, 46.973368, 0.06], [-2.229218, 46.973432, 0.03], [-2.229067, 46.973596, -0.01], [-2.228211, 46.97435, -0.32], [-2.227634, 46.974822, -0.54], [-2.227173, 46.975153, -0.66], [-2.226624, 46.975655, -0.71], [-2.226043, 46.9761, -0.75], [-2.225913, 46.976024, -0.76], [-2.225151, 46.97572, -0.74], [-2.221512, 46.974161, -0.39], [-2.221033, 46.973936, -0.34], [-2.220156, 46.973605, -0.39], [-2.218531, 46.972918, -0.45], [-2.213299, 46.970699, -0.33], [-2.212639, 46.97041, -0.43], [-2.212513, 46.97033, -0.45], [-2.212383, 46.970306, -0.47], [-2.211961, 46.970117, -0.55], [-2.212138, 46.969922, -0.62], [-2.211911, 46.969817, -0.68], [-2.211787, 46.969808, -0.71], [-2.210917, 46.969498, -0.92], [-2.210609, 46.969643, -1.01], [-2.206759, 46.968242, -1.15], [-2.203733, 46.967093, -1.02], [-2.200358, 46.965858, -0.91], [-2.199876, 46.965664, -0.91], [-2.198057, 46.965016, -0.9], [-2.197934, 46.964934, -0.9], [-2.197631, 46.964857, -0.9], [-2.194451, 46.963705, -0.97], [-2.193931, 46.963495, -1.0], [-2.190311, 46.962174, -1.25], [-2.185363, 46.960324, -0.64], [-2.184581, 46.960016, -0.53], [-2.184384, 46.95986, -0.51], [-2.18431, 46.959853, -0.5], [-2.184052, 46.959746, -0.48], [-2.183746, 46.959749, -0.45], [-2.183238, 46.959706, -0.41], [-2.179189, 46.95893, -0.13], [-2.178212, 46.958723, -0.1], [-2.176827, 46.958389, -0.11], [-2.173568, 46.957124, -0.34], [-2.172545, 46.956814, -0.38], [-2.171111, 46.956326, -0.29], [-2.168511, 46.955348, -0.08], [-2.166844, 46.954617, 0.04], [-2.166609, 46.954485, 0.05], [-2.163222, 46.952883, 0.22], [-2.163232, 46.952769, 0.25], [-2.163368, 46.952584, 0.31], [-2.164165, 46.951799, 0.6], [-2.164288, 46.951522, 0.66], [-2.164437, 46.951286, 0.69], [-2.164379, 46.951254, 0.69], [-2.163809, 46.951264, 0.73], [-2.163645, 46.951183, 0.74], [-2.163522, 46.951044, 0.76], [-2.16311, 46.950272, 0.77], [-2.163025, 46.950179, 0.73], [-2.162681, 46.950036, 0.63], [-2.162465, 46.949875, 0.55], [-2.162427, 46.949805, 0.52], [-2.162457, 46.949571, 0.44], [-2.162438, 46.949519, 0.42], [-2.162372, 46.949487, 0.4], [-2.162009, 46.94945, 0.3], [-2.161856, 46.949396, 0.26], [-2.161743, 46.949336, 0.22], [-2.161458, 46.949107, 0.14], [-2.161047, 46.948064, -0.08], [-2.160277, 46.946399, -0.14], [-2.159642, 46.94489, -0.06], [-2.159451, 46.944423, -0.02], [-2.15964, 46.942443, 0.04], [-2.159673, 46.942391, 0.04], [-2.159735, 46.942361, 0.04], [-2.160316, 46.942235, 0.06], [-2.160468, 46.942179, 0.07], [-2.160525, 46.942103, 0.07], [-2.160522, 46.942044, 0.08], [-2.160497, 46.941935, 0.08], [-2.160124, 46.941254, 0.13], [-2.160099, 46.941127, 0.14], [-2.159791, 46.940689, 0.16], [-2.159636, 46.940539, 0.16], [-2.159159, 46.93967, 0.19], [-2.15853, 46.938876, 0.2], [-2.158342, 46.93855, 0.2], [-2.15825, 46.938454, 0.2], [-2.157693, 46.937655, 0.2], [-2.157418, 46.937095, 0.24], [-2.157061, 46.936547, 0.27], [-2.156594, 46.936034, 0.31], [-2.156093, 46.935678, 0.42], [-2.155422, 46.935143, 0.57], [-2.155187, 46.934815, 0.64], [-2.155081, 46.934605, 0.69], [-2.154948, 46.934507, 0.72], [-2.154881, 46.934362, 0.75], [-2.154653, 46.933393, 0.95], [-2.154446, 46.932469, 0.94], [-2.154349, 46.932175, 0.85], [-2.154348, 46.932062, 0.81], [-2.154406, 46.931795, 0.73], [-2.154379, 46.931698, 0.7], [-2.154279, 46.931523, 0.64], [-2.153852, 46.930953, 0.46], [-2.153683, 46.930773, 0.41], [-2.153071, 46.930338, 0.26], [-2.153022, 46.930266, 0.25], [-2.152951, 46.929961, 0.17], [-2.152903, 46.92988, 0.15], [-2.152714, 46.929773, 0.11], [-2.152433, 46.929722, 0.08], [-2.152287, 46.929662, 0.07], [-2.152078, 46.929491, 0.07], [-2.152, 46.929246, 0.07], [-2.151932, 46.928431, 0.05], [-2.151961, 46.928227, 0.05], [-2.151905, 46.928065, 0.06], [-2.151742, 46.927937, 0.09], [-2.151638, 46.927905, 0.11], [-2.151174, 46.927881, 0.17], [-2.151041, 46.927831, 0.19], [-2.15078, 46.927558, 0.26], [-2.150649, 46.927286, 0.32], [-2.150525, 46.92711, 0.36], [-2.150397, 46.92699, 0.39], [-2.149153, 46.926712, 0.45], [-2.148476, 46.926521, 0.47], [-2.148356, 46.926541, 0.47], [-2.148258, 46.926681, 0.48], [-2.148141, 46.926748, 0.48], [-2.147949, 46.926747, 0.49], [-2.147827, 46.926718, 0.48], [-2.147513, 46.926613, 0.42], [-2.147106, 46.926428, 0.34], [-2.146993, 46.926341, 0.31], [-2.146953, 46.926277, 0.29], [-2.146871, 46.925704, 0.14], [-2.146811, 46.924862, 0.02], [-2.146832, 46.924715, 0.02], [-2.147146, 46.924499, 0.02], [-2.14719, 46.924356, 0.01], [-2.147106, 46.924137, 0.01], [-2.147107, 46.924057, 0.01], [-2.147395, 46.92372, 0.0], [-2.147527, 46.92337, -0.01], [-2.147571, 46.923316, -0.01], [-2.148175, 46.922983, -0.02], [-2.148527, 46.922897, -0.02], [-2.148765, 46.922776, -0.03], [-2.148972, 46.922467, -0.03], [-2.149234, 46.921762, -0.04], [-2.1493, 46.921371, -0.04], [-2.149247, 46.920846, -0.05], [-2.149314, 46.920668, -0.05], [-2.149398, 46.920596, -0.05], [-2.149566, 46.920532, -0.05], [-2.149918, 46.920451, -0.05], [-2.150562, 46.920456, -0.05], [-2.150706, 46.920367, -0.05], [-2.150795, 46.920173, -0.05], [-2.150855, 46.918933, -0.01], [-2.151068, 46.917535, 0.03], [-2.1511, 46.917224, -0.01], [-2.151049, 46.916775, -0.07], [-2.151092, 46.91655, -0.1], [-2.150963, 46.916494, -0.12], [-2.150794, 46.916353, -0.14], [-2.150702, 46.916187, -0.16], [-2.150711, 46.916005, -0.19], [-2.150836, 46.91578, -0.27], [-2.150819, 46.915676, -0.3], [-2.150697, 46.915608, -0.33], [-2.150564, 46.915558, -0.36], [-2.149248, 46.914862, -0.71], [-2.148854, 46.914661, -0.69], [-2.148717, 46.914548, -0.67], [-2.148679, 46.914456, -0.66], [-2.148555, 46.913732, -0.55], [-2.148561, 46.913539, -0.53], [-2.148608, 46.913446, -0.51], [-2.148775, 46.913293, -0.49], [-2.149694, 46.912753, -0.33], [-2.149926, 46.912575, -0.28], [-2.150017, 46.912471, -0.25], [-2.150115, 46.912296, -0.22], [-2.150153, 46.912084, -0.17], [-2.150025, 46.911476, -0.11], [-2.14991, 46.910996, -0.09], [-2.149887, 46.910745, -0.09], [-2.149961, 46.91001, -0.07], [-2.150033, 46.909791, -0.06], [-2.150157, 46.909653, -0.05], [-2.15068, 46.909276, -0.03], [-2.150818, 46.909205, -0.03], [-2.151139, 46.90909, -0.02], [-2.151436, 46.908996, -0.01], [-2.151725, 46.908905, -0.0], [-2.151785, 46.908862, -0.0], [-2.151834, 46.908784, 0.0], [-2.151923, 46.908358, 0.01], [-2.152009, 46.908126, 0.02], [-2.15238, 46.907696, 0.03], [-2.152489, 46.907624, 0.03], [-2.153303, 46.907245, 0.07], [-2.15338, 46.907171, 0.08], [-2.153453, 46.907029, 0.1], [-2.153476, 46.906647, 0.14], [-2.15339, 46.906347, 0.18], [-2.153129, 46.90564, 0.25], [-2.153042, 46.905541, 0.24], [-2.152927, 46.905497, 0.24], [-2.151804, 46.905269, 0.2], [-2.151666, 46.905215, 0.19], [-2.151644, 46.905153, 0.19], [-2.151644, 46.903557, 0.33], [-2.151628, 46.903379, 0.36], [-2.151468, 46.902711, 0.57], [-2.151672, 46.902491, 0.88], [-2.15168, 46.902435, 0.94], [-2.151616, 46.902361, 1.04], [-2.151448, 46.902281, 1.21], [-2.151395, 46.902241, 1.27], [-2.151181, 46.901931, 1.67], [-2.150984, 46.901462, 2.24], [-2.150825, 46.901203, 2.57], [-2.150821, 46.901161, 2.62], [-2.150973, 46.901011, 2.84], [-2.151013, 46.90083, 3.06], [-2.150928, 46.900593, 3.35], [-2.150806, 46.900401, 3.61], [-2.150797, 46.900367, 3.65], [-2.150794, 46.900325, 3.7], [-2.150811, 46.900257, 3.78], [-2.150926, 46.900129, 3.96], [-2.151022, 46.900086, 4.06], [-2.151148, 46.900058, 4.17], [-2.151446, 46.900099, 4.42], [-2.151445, 46.900059, 4.46], [-2.151302, 46.899925, 4.66], [-2.151071, 46.899677, 4.81], [-2.150766, 46.899096, 5.01], [-2.150711, 46.898987, 5.05], [-2.15011, 46.897785, 5.38], [-2.149918, 46.897411, 5.43], [-2.149644, 46.896962, 5.49], [-2.149481, 46.896628, 5.54], [-2.149212, 46.895912, 5.44], [-2.14915, 46.895556, 5.37], [-2.149123, 46.89506, 5.28], [-2.149191, 46.894486, 5.19], [-2.15038, 46.889224, 4.7], [-2.150414, 46.889044, 4.71], [-2.15052, 46.888697, 4.71], [-2.150816, 46.887218, 4.78], [-2.150834, 46.887015, 4.81], [-2.150801, 46.88664, 4.85], [-2.150695, 46.886206, 4.9], [-2.150571, 46.885934, 4.93], [-2.150269, 46.885466, 5.01], [-2.150043, 46.885238, 5.06], [-2.149489, 46.884797, 5.15], [-2.149152, 46.884619, 5.2], [-2.149232, 46.884557, 5.22], [-2.149318, 46.884541, 5.23], [-2.149308, 46.884484, 5.24], [-2.149224, 46.884479, 5.23], [-2.148917, 46.884275, 5.14], [-2.147926, 46.883993, 4.93], [-2.147353, 46.883915, 4.82], [-2.146016, 46.883867, 4.57], [-2.145417, 46.883826, 4.47], [-2.143663, 46.88353, 4.33], [-2.142769, 46.883403, 4.44], [-2.142588, 46.88333, 4.46], [-2.142497, 46.883218, 4.49], [-2.142323, 46.881288, 4.8], [-2.142185, 46.880617, 4.92], [-2.142083, 46.879734, 5.09], [-2.142006, 46.879321, 5.17], [-2.141644, 46.879086, 5.21], [-2.141273, 46.878929, 5.22], [-2.140509, 46.878753, 5.24], [-2.139697, 46.878802, 5.26], [-2.139294, 46.878796, 5.25], [-2.138552, 46.878759, 5.1], [-2.137226, 46.878642, 4.83], [-2.136465, 46.878473, 4.83], [-2.136049, 46.878449, 4.95], [-2.135654, 46.878472, 5.06], [-2.135349, 46.878535, 5.15], [-2.134978, 46.878732, 5.28], [-2.134902, 46.878721, 5.3], [-2.13381, 46.878569, 5.7], [-2.13356, 46.878569, 5.81], [-2.133012, 46.878451, 6.06], [-2.132707, 46.87833, 6.21], [-2.131892, 46.878063, 6.61], [-2.131479, 46.878011, 6.7], [-2.131264, 46.878046, 6.74], [-2.130084, 46.878539, 7.01], [-2.129944, 46.878555, 7.04], [-2.129859, 46.878565, 7.06], [-2.129535, 46.878531, 7.12], [-2.128944, 46.87847, 7.21], [-2.128611, 46.878468, 7.26], [-2.127597, 46.878449, 7.4], [-2.126651, 46.878521, 7.46], [-2.126397, 46.878528, 7.38], [-2.126083, 46.878624, 7.28], [-2.125897, 46.878637, 7.22], [-2.125396, 46.878577, 7.07], [-2.125068, 46.878464, 6.95], [-2.125096, 46.878335, 6.9], [-2.125075, 46.877927, 6.72], [-2.12485, 46.877179, 6.37], [-2.124075, 46.875868, 5.81], [-2.123709, 46.87551, 5.7], [-2.123663, 46.875464, 5.69], [-2.123541, 46.875193, 5.62], [-2.123537, 46.874882, 5.54], [-2.12365, 46.874512, 5.47], [-2.123804, 46.8743, 5.6], [-2.124313, 46.873869, 5.9], [-2.124413, 46.873696, 6.0], [-2.124417, 46.873482, 6.11], [-2.124309, 46.873002, 6.38], [-2.124299, 46.872901, 6.41], [-2.124198, 46.87266, 6.24], [-2.123978, 46.872302, 5.98], [-2.123805, 46.872114, 5.84], [-2.123751, 46.87199, 5.75], [-2.123573, 46.871457, 5.39], [-2.12355, 46.870841, 5.21], [-2.123582, 46.870621, 5.2], [-2.123681, 46.870412, 5.19], [-2.123999, 46.870057, 5.17], [-2.124492, 46.869766, 5.15], [-2.124771, 46.869456, 5.32], [-2.124868, 46.869234, 5.48], [-2.124913, 46.868963, 5.68], [-2.124867, 46.868799, 5.8], [-2.124769, 46.868635, 5.93], [-2.124746, 46.868452, 6.06], [-2.124786, 46.8683, 6.17], [-2.124862, 46.868184, 6.27], [-2.124855, 46.867998, 6.4], [-2.124745, 46.867658, 6.5], [-2.124614, 46.867423, 6.56], [-2.124117, 46.866859, 6.7], [-2.123926, 46.866699, 6.74], [-2.12383, 46.866564, 6.77], [-2.124059, 46.865995, 6.77], [-2.124484, 46.865333, 6.65], [-2.124536, 46.865209, 6.63], [-2.124502, 46.865012, 6.6], [-2.124559, 46.864934, 6.58], [-2.124962, 46.86466, 6.55], [-2.124999, 46.864491, 6.6], [-2.124955, 46.864298, 6.66], [-2.124938, 46.863917, 6.77], [-2.124966, 46.863674, 6.84], [-2.124971, 46.863504, 6.88], [-2.124415, 46.863326, 7.0], [-2.123842, 46.863042, 7.13], [-2.123222, 46.862773, 7.25], [-2.122667, 46.862665, 7.34], [-2.122351, 46.86249, 7.41], [-2.122134, 46.862288, 7.47], [-2.121968, 46.862151, 7.41], [-2.121831, 46.862096, 7.36], [-2.121682, 46.862106, 7.32], [-2.121255, 46.862245, 7.18], [-2.121025, 46.862281, 7.11], [-2.120763, 46.862275, 7.03], [-2.120531, 46.862193, 6.96], [-2.120406, 46.862077, 6.9], [-2.120287, 46.861517, 6.64], [-2.120111, 46.861, 6.35], [-2.119895, 46.860856, 6.24], [-2.119539, 46.860514, 6.01], [-2.119125, 46.860169, 5.77], [-2.118708, 46.859701, 5.9], [-2.118151, 46.859285, 6.12], [-2.118127, 46.859172, 6.17], [-2.118259, 46.859007, 6.24], [-2.119004, 46.858613, 6.5], [-2.119189, 46.858584, 6.56], [-2.119477, 46.85854, 6.65], [-2.119707, 46.858374, 6.76], [-2.120255, 46.85793, 7.02], [-2.120508, 46.857646, 7.17], [-2.121469, 46.856782, 6.82], [-2.121616, 46.856722, 6.77], [-2.12182, 46.856716, 6.71], [-2.122226, 46.856742, 6.59], [-2.122566, 46.85682, 6.48], [-2.122718, 46.856803, 6.44], [-2.122827, 46.856761, 6.41], [-2.122928, 46.856604, 6.36], [-2.123057, 46.855714, 6.11], [-2.123265, 46.855501, 6.04], [-2.123354, 46.855379, 6.01], [-2.124036, 46.854789, 6.04], [-2.124373, 46.854533, 6.1], [-2.124665, 46.854348, 6.16], [-2.124844, 46.853983, 6.23], [-2.125667, 46.853257, 6.22], [-2.125983, 46.852923, 6.18], [-2.126599, 46.852344, 6.12], [-2.126792, 46.852214, 6.09], [-2.126849, 46.852176, 6.09], [-2.12724, 46.851972, 6.04], [-2.127346, 46.851815, 6.02], [-2.127472, 46.851698, 6.0], [-2.127912, 46.851388, 5.94], [-2.12796, 46.851293, 5.93], [-2.127946, 46.851061, 5.89], [-2.128035, 46.850824, 5.87], [-2.128103, 46.850685, 5.88], [-2.12844, 46.8504, 5.89], [-2.12865, 46.849934, 5.91], [-2.12874, 46.849868, 5.92], [-2.129146, 46.849757, 5.93], [-2.129434, 46.849536, 5.94], [-2.129671, 46.849072, 6.0], [-2.129954, 46.848782, 6.04], [-2.130082, 46.848544, 6.07], [-2.130227, 46.848059, 6.13], [-2.130326, 46.847937, 6.15], [-2.13055, 46.847795, 6.18], [-2.13065, 46.847591, 6.24], [-2.130695, 46.847387, 6.3], [-2.130679, 46.847174, 6.36], [-2.130732, 46.846969, 6.41], [-2.130819, 46.846853, 6.45], [-2.131101, 46.846693, 6.52], [-2.131433, 46.846643, 6.58], [-2.131514, 46.846513, 6.62], [-2.131527, 46.846427, 6.64], [-2.131608, 46.846345, 6.65], [-2.1318, 46.846274, 6.65], [-2.132007, 46.84616, 6.65], [-2.13214, 46.845991, 6.66], [-2.13221, 46.84577, 6.66], [-2.132479, 46.845055, 6.66], [-2.132602, 46.844806, 6.66], [-2.133083, 46.844397, 6.55], [-2.133178, 46.84387, 6.44], [-2.133373, 46.84354, 6.37], [-2.133763, 46.843214, 6.29], [-2.134152, 46.842818, 6.26], [-2.13455, 46.842227, 6.22], [-2.134727, 46.841888, 6.2], [-2.134823, 46.841636, 6.19], [-2.134912, 46.84155, 6.19], [-2.135223, 46.841551, 6.19], [-2.13602, 46.841602, 6.18], [-2.136239, 46.841611, 6.18], [-2.138095, 46.841657, 6.32], [-2.138772, 46.84174, 6.46], [-2.139003, 46.841741, 6.5], [-2.139163, 46.841683, 6.54], [-2.13922, 46.841634, 6.56], [-2.139287, 46.841412, 6.62], [-2.139253, 46.841153, 6.7], [-2.139071, 46.840497, 6.68], [-2.138655, 46.839162, 6.59], [-2.138378, 46.838886, 6.52], [-2.138329, 46.838654, 6.47], [-2.137975, 46.837846, 6.29], [-2.137767, 46.837412, 6.24], [-2.137576, 46.837163, 6.22], [-2.137547, 46.836939, 6.21], [-2.137695, 46.836507, 6.18], [-2.137783, 46.836121, 6.15], [-2.138105, 46.835498, 6.25], [-2.13816, 46.835302, 6.29], [-2.138162, 46.835066, 6.33], [-2.138122, 46.834366, 6.47], [-2.138169, 46.834094, 6.53], [-2.139187, 46.832493, 6.93], [-2.139404, 46.832152, 6.94], [-2.139837, 46.831629, 6.95], [-2.140058, 46.831368, 6.95], [-2.140147, 46.831264, 6.96], [-2.140155, 46.831212, 6.96], [-2.140157, 46.831169, 6.96], [-2.140144, 46.831116, 6.96], [-2.140211, 46.83083, 6.96], [-2.140116, 46.830527, 6.93], [-2.140044, 46.830277, 6.91], [-2.139833, 46.829542, 6.85], [-2.139595, 46.828934, 6.72], [-2.139585, 46.828795, 6.66], [-2.139593, 46.828712, 6.62], [-2.139652, 46.828634, 6.59], [-2.139613, 46.828547, 6.55], [-2.139621, 46.828127, 6.38], [-2.139549, 46.827745, 6.22], [-2.139478, 46.827362, 6.06], [-2.139253, 46.826457, 5.79], [-2.139102, 46.82628, 5.73], [-2.139015, 46.826179, 5.69], [-2.138924, 46.825817, 5.58], [-2.138907, 46.825778, 5.57], [-2.13873, 46.825364, 5.58], [-2.1386, 46.824934, 5.65], [-2.138065, 46.822875, 6.13], [-2.137813, 46.822182, 6.35], [-2.137179, 46.820447, 7.15], [-2.137155, 46.82039, 7.17], [-2.137062, 46.820319, 7.15], [-2.136867, 46.820262, 7.12], [-2.136334, 46.820164, 7.04], [-2.13587, 46.820044, 6.98], [-2.134902, 46.819862, 6.84], [-2.134761, 46.81986, 6.82], [-2.134364, 46.819856, 6.63], [-2.133814, 46.819888, 6.34], [-2.132906, 46.820067, 5.83], [-2.132695, 46.82009, 5.71], [-2.132435, 46.820078, 5.57], [-2.132313, 46.820038, 5.5], [-2.131454, 46.819397, 5.3], [-2.131027, 46.819254, 5.25], [-2.130841, 46.819119, 5.23], [-2.130544, 46.81843, 5.19], [-2.13042, 46.818244, 5.23], [-2.128843, 46.817126, 5.52], [-2.127408, 46.816524, 5.53], [-2.127031, 46.816449, 5.53], [-2.126467, 46.816234, 5.57], [-2.125846, 46.815898, 5.69], [-2.125666, 46.815682, 5.74], [-2.124746, 46.814905, 5.94], [-2.124392, 46.814322, 6.03], [-2.123877, 46.813898, 6.11], [-2.123785, 46.813727, 6.14], [-2.123775, 46.813605, 6.16], [-2.123902, 46.813257, 6.11], [-2.123874, 46.813179, 6.08], [-2.123792, 46.813119, 6.06], [-2.122934, 46.812788, 5.86], [-2.122817, 46.812792, 5.83], [-2.122184, 46.813068, 5.68], [-2.1218, 46.813393, 5.71], [-2.121729, 46.81339, 5.72], [-2.121291, 46.813199, 5.8], [-2.120064, 46.812542, 6.04], [-2.119075, 46.811886, 6.42], [-2.118797, 46.811602, 6.56], [-2.118311, 46.810757, 6.75], [-2.11827, 46.810675, 6.74], [-2.118121, 46.810545, 6.72], [-2.117964, 46.810453, 6.71], [-2.116958, 46.810072, 6.62], [-2.116342, 46.810032, 6.55], [-2.116051, 46.809979, 6.48], [-2.114219, 46.809289, 6.05], [-2.112332, 46.808728, 5.86], [-2.111905, 46.808517, 5.82], [-2.111856, 46.808456, 5.82], [-2.11096, 46.808194, 5.99], [-2.110211, 46.808008, 6.13], [-2.109891, 46.807931, 6.19], [-2.109468, 46.807763, 6.28], [-2.107638, 46.806865, 6.79], [-2.107328, 46.806678, 6.88], [-2.106219, 46.806394, 7.07], [-2.105778, 46.806342, 7.15], [-2.104233, 46.805931, 7.25], [-2.103622, 46.805887, 7.2], [-2.103412, 46.805835, 7.18], [-2.102153, 46.805436, 7.15], [-2.101508, 46.805104, 7.3], [-2.101341, 46.805019, 7.34], [-2.10123, 46.805135, 7.38], [-2.099943, 46.80491, 7.72], [-2.099663, 46.804799, 7.91], [-2.09915, 46.8047, 8.23], [-2.098947, 46.80462, 8.37], [-2.09876, 46.804488, 8.53], [-2.098387, 46.804115, 8.93], [-2.09824, 46.803967, 9.09], [-2.098003, 46.803849, 9.13], [-2.097756, 46.803787, 9.08], [-2.097561, 46.803708, 9.04], [-2.097281, 46.803552, 8.98], [-2.097061, 46.803493, 8.94], [-2.096779, 46.803437, 8.89], [-2.096648, 46.803397, 8.87], [-2.096027, 46.80311, 8.74], [-2.095998, 46.803095, 8.74], [-2.095397, 46.80291, 8.95], [-2.094531, 46.802685, 9.36], [-2.094118, 46.80255, 9.57], [-2.093604, 46.802453, 9.81], [-2.093192, 46.802382, 9.95], [-2.092745, 46.802239, 10.07], [-2.091865, 46.801844, 10.34], [-2.091315, 46.801636, 10.49], [-2.091053, 46.80157, 10.52], [-2.090899, 46.80156, 10.44], [-2.089703, 46.801408, 9.86], [-2.088967, 46.801228, 9.49], [-2.088821, 46.801178, 9.41], [-2.088645, 46.801067, 9.29], [-2.088513, 46.801024, 9.22], [-2.088354, 46.80101, 9.13], [-2.088229, 46.801019, 9.07], [-2.088026, 46.800997, 8.96], [-2.087246, 46.800752, 8.51], [-2.086668, 46.800472, 8.14], [-2.085825, 46.800311, 7.9], [-2.085311, 46.800267, 7.89], [-2.084608, 46.800119, 7.87], [-2.083109, 46.799716, 7.67], [-2.081887, 46.79934, 7.34], [-2.081327, 46.79929, 7.2], [-2.0805, 46.799263, 7.15], [-2.079229, 46.798958, 7.07], [-2.078713, 46.798791, 7.11], [-2.07825, 46.798527, 7.67], [-2.077825, 46.798358, 8.13], [-2.077417, 46.79826, 8.53], [-2.077062, 46.798199, 8.86], [-2.076935, 46.798143, 9.0], [-2.076846, 46.798053, 9.15], [-2.076652, 46.79733, 9.63], [-2.076656, 46.797203, 9.67], [-2.077175, 46.796392, 9.94], [-2.077228, 46.796208, 10.0], [-2.077236, 46.796163, 10.02], [-2.077518, 46.795249, 8.63], [-2.077598, 46.795059, 8.31], [-2.077724, 46.794888, 8.01], [-2.077961, 46.794723, 7.64], [-2.078437, 46.794587, 7.09], [-2.078647, 46.794475, 6.87], [-2.079065, 46.794111, 6.33], [-2.079113, 46.794044, 6.24], [-2.079345, 46.7935, 5.57], [-2.079727, 46.793184, 5.08], [-2.079965, 46.793021, 4.87], [-2.079991, 46.79296, 4.81], [-2.080105, 46.792884, 4.72], [-2.080382, 46.792676, 4.48], [-2.08056, 46.792388, 4.22], [-2.0809, 46.791982, 3.82], [-2.081004, 46.791906, 3.73], [-2.081147, 46.791845, 3.64], [-2.081302, 46.791814, 3.54], [-2.081428, 46.791807, 3.48], [-2.081487, 46.791783, 3.46], [-2.081513, 46.791772, 3.45], [-2.081731, 46.79168, 3.38], [-2.081767, 46.791666, 3.37], [-2.081616, 46.791513, 3.29], [-2.081646, 46.79147, 3.27], [-2.080729, 46.79045, 2.75], [-2.080431, 46.789919, 3.1], [-2.08039, 46.789774, 3.21], [-2.080332, 46.789283, 3.58], [-2.080365, 46.788972, 3.82], [-2.080458, 46.788477, 4.06], [-2.0805, 46.788238, 4.04], [-2.080519, 46.787714, 4.0], [-2.080441, 46.787413, 3.97], [-2.080367, 46.787271, 3.96], [-2.080127, 46.787006, 3.93], [-2.079891, 46.786833, 3.83], [-2.079677, 46.786715, 3.68], [-2.079226, 46.786524, 3.39], [-2.079056, 46.786469, 3.29], [-2.078971, 46.78643, 3.24], [-2.078937, 46.78643, 3.22], [-2.07892, 46.786396, 3.19], [-2.078882, 46.786335, 3.14], [-2.078814, 46.786305, 3.09], [-2.078259, 46.786065, 2.74], [-2.077442, 46.785705, 2.52], [-2.076766, 46.785417, 2.52], [-2.07662, 46.785365, 2.52], [-2.076365, 46.785252, 2.52], [-2.076171, 46.785169, 2.52], [-2.07578, 46.784985, 2.53], [-2.075693, 46.784926, 2.53], [-2.075571, 46.784863, 2.57], [-2.07503, 46.784674, 2.72], [-2.074358, 46.784377, 2.93], [-2.07416, 46.784295, 2.99], [-2.073948, 46.784202, 3.05], [-2.073414, 46.783974, 3.2], [-2.072852, 46.783714, 3.23], [-2.072688, 46.783686, 3.24], [-2.072533, 46.783561, 3.25], [-2.072275, 46.783442, 3.27], [-2.071992, 46.783307, 3.28], [-2.071756, 46.783181, 3.3], [-2.071096, 46.782866, 3.28], [-2.070855, 46.782784, 3.24], [-2.070805, 46.782765, 3.23], [-2.070335, 46.782515, 3.14], [-2.070158, 46.782357, 3.1], [-2.069679, 46.782098, 3.01], [-2.068769, 46.781587, 3.15], [-2.068643, 46.781542, 3.2], [-2.068389, 46.781527, 3.29], [-2.068163, 46.781412, 3.39], [-2.067927, 46.781359, 3.47], [-2.067677, 46.781155, 3.61], [-2.067251, 46.78091, 3.8], [-2.067202, 46.780845, 3.83], [-2.067136, 46.780645, 3.87], [-2.066916, 46.780504, 3.91], [-2.066588, 46.780312, 3.96], [-2.066465, 46.780271, 3.98], [-2.06617, 46.780237, 4.01], [-2.066065, 46.780188, 4.03], [-2.06598, 46.780127, 4.04], [-2.065893, 46.779924, 4.08], [-2.065462, 46.779669, 4.15], [-2.06509, 46.77945, 4.05], [-2.065003, 46.779425, 4.03], [-2.064343, 46.779404, 3.89], [-2.064281, 46.779402, 3.87], [-2.064064, 46.779348, 3.82], [-2.063768, 46.779165, 3.73], [-2.063571, 46.778912, 3.64], [-2.063535, 46.778788, 3.6], [-2.063532, 46.778566, 3.5], [-2.063444, 46.778479, 3.45], [-2.062957, 46.778195, 3.23], [-2.062457, 46.777902, 3.0], [-2.062312, 46.777818, 2.93], [-2.062161, 46.777733, 2.86], [-2.061624, 46.777421, 2.67], [-2.06107, 46.777097, 2.69], [-2.06083, 46.77695, 2.7], [-2.060617, 46.776811, 2.71], [-2.059895, 46.776345, 2.74], [-2.059175, 46.775873, 2.82], [-2.058955, 46.775727, 2.85], [-2.058571, 46.775464, 2.9], [-2.058148, 46.775186, 2.96], [-2.057518, 46.774721, 2.85], [-2.057472, 46.774651, 2.82], [-2.057295, 46.774537, 2.76], [-2.057032, 46.774343, 2.66], [-2.056808, 46.774178, 2.57], [-2.056678, 46.774029, 2.51], [-2.056414, 46.77383, 2.41], [-2.056089, 46.773608, 2.33], [-2.0555, 46.773172, 2.37], [-2.054995, 46.77286, 2.4], [-2.054692, 46.772543, 2.43], [-2.054502, 46.772428, 2.45], [-2.054192, 46.772195, 2.54], [-2.053764, 46.771914, 2.71], [-2.053129, 46.77143, 2.97], [-2.05253, 46.77099, 3.21], [-2.052323, 46.770874, 3.25], [-2.052249, 46.770833, 3.27], [-2.052023, 46.770718, 3.32], [-2.051942, 46.7707, 3.33], [-2.051786, 46.770671, 3.36], [-2.051603, 46.770636, 3.39], [-2.051394, 46.770684, 3.43], [-2.051341, 46.770696, 3.44], [-2.050799, 46.77091, 3.54], [-2.050181, 46.771145, 3.56], [-2.050138, 46.771161, 3.54], [-2.049338, 46.771392, 3.16], [-2.048723, 46.771316, 2.89], [-2.046522, 46.77043, 2.42], [-2.046269, 46.7703, 2.4], [-2.045789, 46.769992, 2.38], [-2.044606, 46.769204, 2.52], [-2.04417, 46.768904, 2.58], [-2.043883, 46.768643, 2.64], [-2.043533, 46.768281, 2.77], [-2.043495, 46.768163, 2.8], [-2.043016, 46.767681, 2.98], [-2.042888, 46.767571, 3.02], [-2.042783, 46.767541, 3.04], [-2.042611, 46.767423, 3.09], [-2.042428, 46.767287, 3.15], [-2.042104, 46.767109, 3.36], [-2.042026, 46.767007, 3.45], [-2.041891, 46.766981, 3.52], [-2.041778, 46.767009, 3.59], [-2.039737, 46.766253, 4.84], [-2.039303, 46.766161, 5.09], [-2.038428, 46.766105, 5.58], [-2.037559, 46.766089, 6.04], [-2.037055, 46.766049, 6.16], [-2.03588, 46.765765, 6.44], [-2.035642, 46.765695, 6.5], [-2.035106, 46.765471, 6.61], [-2.034091, 46.764954, 6.51], [-2.033916, 46.764899, 6.5], [-2.033112, 46.76466, 6.42], [-2.031855, 46.764012, 6.58], [-2.031214, 46.763766, 6.67], [-2.030929, 46.763715, 6.71], [-2.029938, 46.763665, 6.69], [-2.029426, 46.763519, 6.66], [-2.029093, 46.763331, 6.63], [-2.028596, 46.762659, 6.55], [-2.02842, 46.76249, 6.5], [-2.027969, 46.762113, 6.4], [-2.027722, 46.761764, 6.32], [-2.027557, 46.761564, 6.27], [-2.027462, 46.761497, 6.25], [-2.027356, 46.761418, 6.23], [-2.027098, 46.761102, 6.04], [-2.026713, 46.760639, 5.66], [-2.026503, 46.760461, 5.5], [-2.025807, 46.759953, 5.01], [-2.025668, 46.759834, 4.9], [-2.025659, 46.759744, 4.84], [-2.025616, 46.759713, 4.81], [-2.025431, 46.759642, 4.7], [-2.025295, 46.75952, 4.59], [-2.025188, 46.759377, 4.48], [-2.024966, 46.758851, 4.09], [-2.02484, 46.758426, 3.78], [-2.024815, 46.758133, 3.57], [-2.024857, 46.758068, 3.51], [-2.024931, 46.758028, 3.47], [-2.02492, 46.757986, 3.44], [-2.024891, 46.757941, 3.4], [-2.02479, 46.757882, 3.34], [-2.024689, 46.757441, 3.01], [-2.024434, 46.757036, 2.69], [-2.024409, 46.757003, 2.67], [-2.024286, 46.756959, 2.6], [-2.024083, 46.756811, 2.45], [-2.023977, 46.756734, 2.37], [-2.023417, 46.75627, 2.26], [-2.022634, 46.755267, 2.07], [-2.02244, 46.75509, 2.09], [-2.022153, 46.754955, 2.16], [-2.021483, 46.754744, 2.3], [-2.020966, 46.754494, 2.43], [-2.019943, 46.753668, 2.67], [-2.019549, 46.753389, 2.73], [-2.01865, 46.752842, 2.87], [-2.018142, 46.752481, 2.93], [-2.017451, 46.751977, 3.01], [-2.017401, 46.752006, 3.02], [-2.016859, 46.751659, 3.08], [-2.016257, 46.751292, 3.19], [-2.01629, 46.751246, 3.2], [-2.016279, 46.751145, 3.22], [-2.016243, 46.751107, 3.23], [-2.016192, 46.751078, 3.24], [-2.016065, 46.751058, 3.26], [-2.015945, 46.751091, 3.28], [-2.015538, 46.750727, 3.38], [-2.015013, 46.750347, 3.56], [-2.014756, 46.750194, 3.75], [-2.014278, 46.749912, 4.11], [-2.013928, 46.749711, 4.37], [-2.013642, 46.749503, 4.61], [-2.013696, 46.749475, 4.64], [-2.013518, 46.749236, 4.87], [-2.012737, 46.747841, 6.26], [-2.011971, 46.746664, 6.2], [-2.011699, 46.746397, 6.04], [-2.010324, 46.745257, 4.51], [-2.009788, 46.744617, 3.48], [-2.008847, 46.743536, 2.28], [-2.008616, 46.743344, 2.06], [-2.008195, 46.74308, 1.72], [-2.008128, 46.743019, 1.65], [-2.007415, 46.741794, 1.73], [-2.007014, 46.741177, 1.84], [-2.006849, 46.740886, 1.97], [-2.006779, 46.740256, 2.24], [-2.006696, 46.740183, 2.27], [-2.006432, 46.740197, 2.35], [-2.004312, 46.740524, 2.76], [-2.003499, 46.74062, 2.88], [-2.00272, 46.740809, 3.08], [-2.001616, 46.741107, 3.41], [-2.001202, 46.741186, 3.53], [-2.000369, 46.741295, 3.78], [-1.999252, 46.741379, 4.13], [-1.997364, 46.741471, 4.54], [-1.996827, 46.741496, 4.58], [-1.996601, 46.741529, 4.6], [-1.996271, 46.741598, 4.63], [-1.995591, 46.74179, 4.68], [-1.995019, 46.741937, 4.61], [-1.994274, 46.742086, 4.51], [-1.993808, 46.742124, 4.46], [-1.99349, 46.742084, 4.42], [-1.993446, 46.741913, 4.39], [-1.993313, 46.741722, 4.42], [-1.993223, 46.741673, 4.45], [-1.9932, 46.741549, 4.49], [-1.993157, 46.741515, 4.5], [-1.992951, 46.741442, 4.55], [-1.992885, 46.741158, 4.65], [-1.992817, 46.741064, 4.68], [-1.992795, 46.740932, 4.73], [-1.992815, 46.740908, 4.74], [-1.992839, 46.740881, 4.75], [-1.992778, 46.740531, 4.86], [-1.992745, 46.740492, 4.88], [-1.992635, 46.739963, 5.06], [-1.992404, 46.739438, 5.24], [-1.992192, 46.739115, 5.36], [-1.991826, 46.738753, 5.5], [-1.990378, 46.737277, 5.87], [-1.989658, 46.736495, 5.96], [-1.988616, 46.735436, 6.03], [-1.987151, 46.733968, 5.88], [-1.98708, 46.733832, 5.9], [-1.987087, 46.73376, 5.91], [-1.987017, 46.733724, 5.92], [-1.986983, 46.733706, 5.93], [-1.986863, 46.733761, 5.94], [-1.986264, 46.733823, 6.01], [-1.985778, 46.733791, 6.06], [-1.985374, 46.733689, 6.1], [-1.985094, 46.73357, 6.16], [-1.984905, 46.733452, 6.26], [-1.984625, 46.733197, 6.46], [-1.98331, 46.731808, 7.27], [-1.983102, 46.731507, 7.32], [-1.982801, 46.730861, 7.42], [-1.981646, 46.728098, 6.43], [-1.981522, 46.727826, 6.32], [-1.981388, 46.727496, 6.18], [-1.981121, 46.727039, 5.99], [-1.979757, 46.725046, 5.49], [-1.979319, 46.724619, 5.48], [-1.978608, 46.724105, 5.47], [-1.978571, 46.724053, 5.47], [-1.978546, 46.723976, 5.47], [-1.978568, 46.723902, 5.5], [-1.978519, 46.723879, 5.51], [-1.978477, 46.72386, 5.53], [-1.978374, 46.723892, 5.56], [-1.978274, 46.723887, 5.59], [-1.978065, 46.723793, 5.66], [-1.973987, 46.721477, 7.09], [-1.972753, 46.720776, 7.51], [-1.971086, 46.71989, 8.9], [-1.971013, 46.719851, 8.97], [-1.969161, 46.718875, 10.74], [-1.968968, 46.71874, 10.95], [-1.968887, 46.718631, 11.09], [-1.968827, 46.71849, 11.26], [-1.968881, 46.718361, 11.41], [-1.968949, 46.718311, 11.48], [-1.970084, 46.717831, 11.37], [-1.970449, 46.717641, 11.31], [-1.971095, 46.717175, 11.17], [-1.97212, 46.716512, 10.56], [-1.973549, 46.715705, 9.7], [-1.975881, 46.714346, 7.82], [-1.975946, 46.714281, 7.73], [-1.97622, 46.714151, 7.46], [-1.976312, 46.714037, 7.31], [-1.97675, 46.713618, 6.7], [-1.977051, 46.713424, 6.43], [-1.977272, 46.713319, 6.27], [-1.977408, 46.713212, 6.15], [-1.977539, 46.713069, 6.01], [-1.977651, 46.712923, 5.86], [-1.977816, 46.712772, 5.7], [-1.977973, 46.712685, 5.58], [-1.978124, 46.712621, 5.48], [-1.978275, 46.712567, 5.38], [-1.978559, 46.712449, 5.18], [-1.978716, 46.712362, 5.06], [-1.978908, 46.712258, 5.17], [-1.979078, 46.712162, 5.27], [-1.979232, 46.712009, 5.39], [-1.979408, 46.711822, 5.54], [-1.979464, 46.711741, 5.6], [-1.979571, 46.711583, 5.71], [-1.979836, 46.711666, 5.84], [-1.97987, 46.711646, 5.86], [-1.980222, 46.711148, 6.23], [-1.980286, 46.710915, 6.44], [-1.980261, 46.710857, 6.49], [-1.979492, 46.710748, 6.98], [-1.979538, 46.710608, 7.11], [-1.979591, 46.710447, 7.25], [-1.979677, 46.710124, 7.55], [-1.979452, 46.71011, 7.69], [-1.979397, 46.710048, 7.76], [-1.979529, 46.709832, 7.75], [-1.979597, 46.7096, 7.51], [-1.979594, 46.709384, 7.3], [-1.979244, 46.708617, 6.48], [-1.979029, 46.708107, 5.96], [-1.979025, 46.708042, 5.9], [-1.979127, 46.708, 5.84], [-1.979119, 46.707901, 5.75], [-1.979068, 46.707872, 5.72], [-1.979034, 46.707472, 5.38], [-1.978978, 46.706751, 4.79], [-1.979005, 46.706581, 4.64], [-1.979049, 46.706401, 4.52], [-1.979154, 46.706094, 4.38], [-1.979181, 46.706003, 4.33], [-1.979297, 46.705583, 4.14], [-1.979267, 46.705264, 4.0], [-1.979208, 46.705095, 3.92], [-1.979085, 46.704841, 3.8], [-1.978957, 46.704632, 3.77], [-1.978608, 46.70426, 3.92], [-1.978461, 46.704126, 3.98], [-1.977491, 46.703179, 4.4], [-1.976805, 46.702515, 4.96], [-1.976302, 46.702063, 5.35], [-1.975707, 46.701623, 5.66], [-1.975426, 46.701416, 5.73], [-1.974684, 46.700864, 5.91], [-1.973547, 46.700023, 6.03], [-1.973115, 46.699602, 6.02], [-1.973007, 46.699473, 6.01], [-1.972951, 46.699403, 6.01], [-1.972689, 46.699047, 6.0], [-1.972472, 46.698783, 6.12], [-1.972415, 46.698718, 6.16], [-1.972234, 46.698489, 6.28], [-1.971713, 46.697806, 6.62], [-1.971665, 46.697749, 6.65], [-1.970907, 46.697021, 6.34], [-1.970764, 46.696883, 6.19], [-1.970653, 46.696791, 6.08], [-1.970094, 46.696261, 5.51], [-1.969643, 46.695828, 5.29], [-1.969551, 46.695736, 5.32], [-1.969263, 46.695438, 5.4], [-1.969232, 46.695405, 5.41], [-1.969081, 46.695254, 5.46], [-1.968799, 46.69497, 5.54], [-1.968687, 46.694857, 5.58], [-1.968583, 46.694742, 5.61], [-1.968092, 46.69424, 5.88], [-1.967572, 46.69374, 6.25], [-1.967199, 46.693518, 6.45], [-1.966622, 46.693302, 6.72], [-1.96621, 46.693208, 7.21], [-1.965568, 46.693147, 8.08], [-1.964702, 46.69318, 9.24], [-1.96346, 46.693265, 9.17], [-1.963198, 46.693278, 8.58], [-1.962111, 46.693267, 6.13], [-1.961636, 46.693256, 5.06], [-1.961376, 46.693292, 4.47], [-1.961166, 46.693399, 4.04], [-1.960594, 46.694037, 2.43], [-1.960295, 46.694256, 1.78], [-1.960066, 46.694364, 1.37], [-1.95972, 46.694458, 0.82], [-1.959148, 46.694519, 0.6], [-1.957591, 46.694672, 1.14], [-1.956543, 46.694889, 1.7], [-1.956066, 46.694992, 2.1], [-1.955704, 46.695101, 2.42], [-1.955046, 46.695368, 3.03], [-1.954589, 46.695496, 3.42], [-1.954393, 46.69551, 3.39], [-1.952924, 46.695238, 2.26], [-1.95265, 46.695253, 2.05], [-1.9524, 46.695376, 1.82], [-1.952216, 46.695588, 1.55], [-1.951814, 46.695893, 1.37], [-1.951372, 46.696183, 1.2], [-1.949782, 46.696831, 0.83], [-1.949672, 46.696912, 0.85], [-1.948947, 46.697517, 0.97], [-1.948249, 46.697761, 1.06], [-1.948173, 46.697787, 1.07], [-1.948022, 46.697796, 1.07], [-1.947811, 46.697872, 1.06], [-1.947761, 46.697925, 1.06], [-1.94769, 46.69795, 1.06], [-1.947618, 46.69797, 1.06], [-1.947418, 46.698033, 1.05], [-1.947455, 46.698083, 1.05], [-1.947433, 46.698091, 1.05], [-1.947366, 46.698088, 1.05], [-1.947126, 46.698121, 1.05], [-1.946893, 46.698118, 1.04], [-1.946376, 46.698003, 1.03], [-1.946218, 46.697969, 1.03], [-1.945392, 46.697779, 0.98], [-1.944745, 46.697562, 0.91], [-1.944709, 46.69755, 0.91], [-1.944731, 46.697514, 0.9], [-1.944784, 46.697306, 0.87], [-1.944269, 46.697045, 0.82], [-1.943607, 46.696732, 0.86], [-1.943125, 46.696395, 1.01], [-1.943068, 46.696327, 1.04], [-1.94239, 46.696064, 1.21], [-1.940852, 46.695467, 1.64], [-1.940783, 46.695443, 1.66], [-1.940693, 46.695565, 1.71], [-1.940589, 46.695684, 1.76], [-1.940574, 46.695705, 1.76], [-1.940528, 46.695771, 1.79], [-1.940483, 46.695829, 1.82], [-1.94039, 46.695838, 1.84], [-1.940323, 46.695803, 1.86], [-1.94, 46.695639, 1.96], [-1.939667, 46.695487, 1.97], [-1.939629, 46.695437, 1.95], [-1.93924, 46.695301, 1.83], [-1.93915, 46.695292, 1.81], [-1.939113, 46.695273, 1.8], [-1.939026, 46.695231, 1.77], [-1.938666, 46.695058, 1.65], [-1.938521, 46.694986, 1.61], [-1.938288, 46.694871, 1.53], [-1.937885, 46.694667, 1.4], [-1.937326, 46.694435, 1.27], [-1.937202, 46.6944, 1.25], [-1.936469, 46.694231, 1.14], [-1.936234, 46.694239, 1.1], [-1.93602, 46.694343, 1.07], [-1.935957, 46.694457, 1.04], [-1.935879, 46.694718, 0.98], [-1.935827, 46.69489, 0.95], [-1.935782, 46.695072, 0.94], [-1.9358, 46.695337, 0.93], [-1.935817, 46.695552, 0.92], [-1.935839, 46.695791, 0.91], [-1.935813, 46.695951, 0.91], [-1.935794, 46.696107, 0.9], [-1.935473, 46.696101, 0.9], [-1.935406, 46.696154, 0.89], [-1.935281, 46.696234, 0.89], [-1.934991, 46.696305, 0.9], [-1.934795, 46.696321, 0.98], [-1.934508, 46.696279, 1.1], [-1.934469, 46.696274, 1.12], [-1.934436, 46.69624, 1.14], [-1.934426, 46.696203, 1.17], [-1.934409, 46.696155, 1.2], [-1.934305, 46.696112, 1.25], [-1.934249, 46.696055, 1.29], [-1.934136, 46.69586, 1.42], [-1.934136, 46.695791, 1.46], [-1.933901, 46.695233, 1.81], [-1.933835, 46.69518, 1.85], [-1.933462, 46.694273, 2.12], [-1.933418, 46.694007, 2.17], [-1.933529, 46.693872, 2.21], [-1.933526, 46.693839, 2.21], [-1.933513, 46.69381, 2.22], [-1.933384, 46.693724, 2.24], [-1.933377, 46.693661, 2.25], [-1.933464, 46.693574, 2.28], [-1.933461, 46.693512, 2.29], [-1.933329, 46.693434, 2.31], [-1.933155, 46.692322, 2.17], [-1.933166, 46.692227, 2.16], [-1.933138, 46.69197, 2.12], [-1.933189, 46.69186, 2.1], [-1.933206, 46.69178, 2.09], [-1.933248, 46.691734, 2.08], [-1.933218, 46.69168, 2.07], [-1.933106, 46.691719, 2.06], [-1.933035, 46.691663, 2.08], [-1.932926, 46.691662, 2.12], [-1.932861, 46.691703, 2.15], [-1.932739, 46.691672, 2.2], [-1.932623, 46.691671, 2.24], [-1.931821, 46.691796, 2.55], [-1.931437, 46.691856, 2.69], [-1.930891, 46.692087, 2.93], [-1.93072, 46.692163, 3.01], [-1.930586, 46.692173, 3.09], [-1.930483, 46.692136, 3.18], [-1.930114, 46.691733, 3.7], [-1.930085, 46.691703, 3.74], [-1.929831, 46.691763, 3.94], [-1.929203, 46.691837, 4.42], [-1.928507, 46.691915, 4.95], [-1.928406, 46.691927, 5.04], [-1.927824, 46.692001, 5.72], [-1.927588, 46.692026, 5.99], [-1.927144, 46.692083, 6.5], [-1.926157, 46.692322, 7.69], [-1.926077, 46.692341, 7.79], [-1.92592, 46.69235, 7.97], [-1.9259, 46.692327, 7.99], [-1.925833, 46.692301, 7.99], [-1.925743, 46.692315, 7.99], [-1.925698, 46.692367, 7.99], [-1.925698, 46.692386, 7.99], [-1.925716, 46.692424, 7.99], [-1.92575, 46.692446, 7.99], [-1.925798, 46.692458, 7.99], [-1.925895, 46.692552, 7.99], [-1.925899, 46.692803, 7.99], [-1.925876, 46.693107, 7.99], [-1.92545, 46.6931, 7.99]]}, "properties": {"name": "Noirmoutier-en-l'Île ➡️ Saint-Gilles-Croix-de-Vie", "source_file": "velodyssee_etape-4_noirmoutier_st-gilles-croix-de-vie.gpx", "point_count": 1349, "distance_km": 57.51, "duration_s": 9520, "elevation_gain_m": 77.7, "elevation_loss_m": 72.4}}]}
