{"type": "FeatureCollection", "features": [{"type": "Feature", "geometry": {"type": "LineString", "coordinates": [[-1.941972, 46.696565], [-1.943541, 46.696954], [-1.941382, 46.696333], [-1.941092, 46.696368], [-1.941097, 46.69609], [-1.937326, 46.694435], [-1.936469, 46.694231], [-1.935957, 46.694457], [-1.935782, 46.695072], [-1.935794, 46.696107], [-1.934469, 46.696274], [-1.934136, 46.69586], [-1.933462, 46.694273], [-1.933526, 46.693839], [-1.933384, 46.693724], [-1.933461, 46.693512], [-1.933329, 46.693434], [-1.933155, 46.692322], [-1.933248, 46.691734], [-1.931999, 46.691032], [-1.931642, 46.690626], [-1.931693, 46.689439], [-1.932406, 46.688145], [-1.932223, 46.686895], [-1.931927, 46.686348], [-1.930213, 46.68456], [-1.926086, 46.681794], [-1.926585, 46.681484], [-1.926508, 46.681326], [-1.924928, 46.680039], [-1.923854, 46.68058], [-1.922534, 46.679443], [-1.921712, 46.678465], [-1.92044, 46.678087], [-1.917925, 46.676613], [-1.914149, 46.674852], [-1.913937, 46.674666], [-1.914031, 46.674115], [-1.913409, 46.673634], [-1.908672, 46.671017], [-1.90827, 46.669889], [-1.908367, 46.669194], [-1.909539, 46.667758], [-1.91064, 46.667343], [-1.911048, 46.667031], [-1.911086, 46.666832], [-1.909986, 46.666679], [-1.908842, 46.66696], [-1.907871, 46.66701], [-1.90627, 46.666674], [-1.906027, 46.665755], [-1.906091, 46.665191], [-1.905854, 46.66456], [-1.906086, 46.663933], [-1.906365, 46.663706], [-1.906359, 46.663466], [-1.905911, 46.661402], [-1.90439, 46.660899], [-1.90345, 46.660834], [-1.90269, 46.660887], [-1.901791, 46.661207], [-1.901111, 46.661166], [-1.900098, 46.660731], [-1.899224, 46.659491], [-1.896071, 46.654544], [-1.897679, 46.653053], [-1.897173, 46.652597], [-1.897054, 46.65222], [-1.897644, 46.651411], [-1.896985, 46.650635], [-1.896032, 46.650069], [-1.893096, 46.64902], [-1.89372, 46.648156], [-1.894511, 46.647691], [-1.894245, 46.646866], [-1.893611, 46.646228], [-1.893381, 46.645557], [-1.893813, 46.644998], [-1.893888, 46.644457], [-1.893464, 46.644041], [-1.893427, 46.643592], [-1.893701, 46.643032], [-1.894767, 46.642729], [-1.89421, 46.640811], [-1.89444, 46.639524], [-1.894209, 46.638974], [-1.892355, 46.63772], [-1.890675, 46.635386], [-1.887546, 46.633966], [-1.886764, 46.633147], [-1.884257, 46.631711], [-1.882252, 46.631597], [-1.882034, 46.631368], [-1.881038, 46.631243], [-1.880035, 46.630559], [-1.87802, 46.629958], [-1.877153, 46.629511], [-1.877132, 46.629326], [-1.876528, 46.628907], [-1.876023, 46.628922], [-1.875105, 46.628375], [-1.874385, 46.627245], [-1.873735, 46.626666], [-1.873595, 46.624009], [-1.873167, 46.622965], [-1.872153, 46.621389], [-1.872489, 46.620452], [-1.872283, 46.619968], [-1.871704, 46.618952], [-1.871097, 46.618455], [-1.870971, 46.618088], [-1.870405, 46.617521], [-1.868916, 46.616611], [-1.866716, 46.616125], [-1.864909, 46.616047], [-1.864645, 46.616204], [-1.863823, 46.615859], [-1.863729, 46.615977], [-1.862325, 46.616092], [-1.861911, 46.615867], [-1.862007, 46.615541], [-1.861604, 46.61529], [-1.861714, 46.614821], [-1.860653, 46.614524], [-1.858564, 46.614285], [-1.860829, 46.613322], [-1.859935, 46.612688], [-1.855543, 46.611693], [-1.854649, 46.610884], [-1.853822, 46.608958], [-1.852513, 46.607669], [-1.850217, 46.602779], [-1.849323, 46.602774], [-1.847152, 46.603109], [-1.846907, 46.603323], [-1.845703, 46.603539], [-1.844735, 46.603514], [-1.844864, 46.602587], [-1.844374, 46.600943], [-1.844298, 46.599475], [-1.844734, 46.598693], [-1.844391, 46.598163], [-1.84029, 46.596445], [-1.839306, 46.596303], [-1.838084, 46.59567], [-1.834274, 46.595549], [-1.832972, 46.59572], [-1.833806, 46.594323], [-1.8333, 46.592857], [-1.834268, 46.592767], [-1.835004, 46.592515], [-1.835386, 46.591739], [-1.8376, 46.590287], [-1.838929, 46.586664], [-1.839292, 46.586253], [-1.839628, 46.585394], [-1.839027, 46.584361], [-1.837712, 46.583587], [-1.837628, 46.583148], [-1.837911, 46.58262], [-1.837309, 46.582349], [-1.837139, 46.581541], [-1.837286, 46.581133], [-1.836948, 46.580776], [-1.834644, 46.580126], [-1.833578, 46.579503], [-1.832073, 46.578952], [-1.83125, 46.578416], [-1.82992, 46.578455], [-1.825374, 46.57756], [-1.824934, 46.576558], [-1.824677, 46.576411], [-1.823379, 46.576271], [-1.82265, 46.576452], [-1.821584, 46.574209], [-1.821148, 46.573697], [-1.821252, 46.572354], [-1.819099, 46.571627], [-1.818656, 46.571168], [-1.818611, 46.570603], [-1.818829, 46.569918], [-1.820452, 46.569085], [-1.819849, 46.568488], [-1.820223, 46.56844], [-1.81998, 46.56809], [-1.816585, 46.564635], [-1.817298, 46.564159], [-1.818446, 46.563742], [-1.820905, 46.563176], [-1.821472, 46.562691], [-1.821516, 46.562475], [-1.823395, 46.561737], [-1.824167, 46.561173], [-1.825122, 46.560737], [-1.826023, 46.559359], [-1.825576, 46.558341], [-1.824448, 46.557726], [-1.823953, 46.557003], [-1.822813, 46.556109], [-1.822417, 46.555145], [-1.822499, 46.554384], [-1.822009, 46.553364], [-1.82054, 46.552455], [-1.819794, 46.551803], [-1.818738, 46.551512], [-1.818392, 46.551103], [-1.817746, 46.550721], [-1.816228, 46.550634], [-1.815156, 46.550223], [-1.814747, 46.54995], [-1.814527, 46.549273], [-1.813986, 46.548783], [-1.812819, 46.548498], [-1.811957, 46.547999], [-1.811149, 46.547215], [-1.810667, 46.546202], [-1.809972, 46.545447], [-1.810271, 46.545231], [-1.810217, 46.544639], [-1.810435, 46.544215], [-1.809633, 46.543795], [-1.807918, 46.5435], [-1.806338, 46.543676], [-1.803146, 46.542964], [-1.802336, 46.542943], [-1.802009, 46.54309], [-1.800689, 46.5423], [-1.79904, 46.541655], [-1.797781, 46.542264], [-1.797242, 46.542115], [-1.793884, 46.543731], [-1.792328, 46.542595], [-1.78984, 46.542155], [-1.787892, 46.542071], [-1.783233, 46.542653], [-1.782966, 46.542243], [-1.782706, 46.540012], [-1.78344, 46.538592], [-1.78285, 46.538473], [-1.781567, 46.53775], [-1.781599, 46.537283], [-1.781185, 46.536314], [-1.781295, 46.535373], [-1.780662, 46.535443], [-1.780533, 46.535005], [-1.779313, 46.534625], [-1.778815, 46.533945], [-1.776459, 46.532492], [-1.775636, 46.531662], [-1.775133, 46.531995], [-1.774053, 46.53148], [-1.774524, 46.528578], [-1.773719, 46.528291], [-1.77363, 46.527554], [-1.769536, 46.52728], [-1.768941, 46.526917], [-1.765721, 46.526271], [-1.767555, 46.52308], [-1.767122, 46.522712], [-1.766552, 46.521621], [-1.766331, 46.520623], [-1.767405, 46.520251], [-1.769737, 46.518588], [-1.771627, 46.517724], [-1.774533, 46.517133], [-1.776043, 46.517275], [-1.776327, 46.517155], [-1.776318, 46.516821], [-1.77612, 46.516753], [-1.776323, 46.516072], [-1.776526, 46.513809], [-1.777029, 46.513373], [-1.77664, 46.512946], [-1.776684, 46.512529], [-1.776326, 46.512453], [-1.776275, 46.512311], [-1.776636, 46.512034], [-1.778126, 46.501381], [-1.781769, 46.498133], [-1.781951, 46.498086], [-1.78253, 46.498396], [-1.78309, 46.497898], [-1.78347, 46.498004], [-1.783786, 46.497697]]}, "properties": {"name": "Saint-Gilles-Croix-de-Vie ➡️ Les Sables-d'Olonne", "source_file": "velodyssee_etape-5_st-gilles-croix-de-vie_les-sables-d-olonne.gpx", "point_count": 1111, "distance_km": 35.74, "duration_s": 6477, "elevation_gain_m": 80.2, "elevation_loss_m": 77.4}}]}
