{"type": "FeatureCollection", "features": [{"type": "Feature", "geometry": {"type": "LineString", "coordinates": [[-2.165396, 47.171147], [-2.167368, 47.165492], [-2.170956, 47.162246], [-2.175103, 47.157931], [-2.175155, 47.157549], [-2.174588, 47.157026], [-2.176323, 47.156763], [-2.176133, 47.156134], [-2.176316, 47.155556], [-2.180371, 47.155669], [-2.181788, 47.15611], [-2.1847, 47.156553], [-2.186125, 47.156424], [-2.189137, 47.156528], [-2.191325, 47.157171], [-2.193352, 47.157502], [-2.193849, 47.157399], [-2.194154, 47.157015], [-2.194308, 47.157033], [-2.194571, 47.157522], [-2.194949, 47.157703], [-2.197698, 47.157881], [-2.197851, 47.158845], [-2.19796, 47.158843], [-2.201038, 47.158071], [-2.201873, 47.157414], [-2.203765, 47.15669], [-2.209028, 47.155824], [-2.211743, 47.155221], [-2.213569, 47.154933], [-2.214335, 47.154966], [-2.215704, 47.153888], [-2.217141, 47.153478], [-2.218566, 47.153234], [-2.220128, 47.153218], [-2.221053, 47.153383], [-2.221017, 47.153227], [-2.221626, 47.153384], [-2.222724, 47.153189], [-2.223695, 47.152734], [-2.224104, 47.15289], [-2.225476, 47.152248], [-2.225911, 47.150802], [-2.226571, 47.149652], [-2.226301, 47.149611], [-2.226567, 47.149481], [-2.226821, 47.148443], [-2.227183, 47.147899], [-2.227623, 47.147586], [-2.227618, 47.147375], [-2.227882, 47.147324], [-2.22828, 47.146863], [-2.228697, 47.146007], [-2.228748, 47.144908], [-2.227866, 47.144565], [-2.228087, 47.143312], [-2.227687, 47.142739], [-2.226583, 47.141775], [-2.226152, 47.140274], [-2.226173, 47.13973], [-2.228563, 47.139614], [-2.232113, 47.138404], [-2.233576, 47.138139], [-2.235137, 47.138232], [-2.235429, 47.1388], [-2.23621, 47.139289], [-2.236922, 47.138774], [-2.237833, 47.138575], [-2.239137, 47.137457], [-2.242508, 47.135557], [-2.24539, 47.135798], [-2.246832, 47.13472], [-2.247764, 47.133772], [-2.246941, 47.132934], [-2.246725, 47.132342], [-2.245118, 47.13111], [-2.24468, 47.131073], [-2.244239, 47.13174], [-2.243413, 47.132029], [-2.243044, 47.132584], [-2.241644, 47.132862], [-2.240454, 47.133567], [-2.239477, 47.133847], [-2.239344, 47.133821], [-2.239463, 47.133214], [-2.239333, 47.133103], [-2.236664, 47.132871], [-2.236576, 47.132487], [-2.236703, 47.131885], [-2.236552, 47.131668], [-2.234825, 47.131639], [-2.234276, 47.131886], [-2.233488, 47.131952], [-2.232913, 47.131756], [-2.230308, 47.131613], [-2.229017, 47.131259], [-2.227055, 47.131258], [-2.224968, 47.130046], [-2.223759, 47.129635], [-2.221757, 47.128021], [-2.220819, 47.127961], [-2.220812, 47.126104], [-2.220425, 47.125702], [-2.217666, 47.124936], [-2.215942, 47.124863], [-2.214597, 47.12443], [-2.211615, 47.124578], [-2.207313, 47.125286], [-2.204319, 47.124948], [-2.203377, 47.125249], [-2.203028, 47.124726], [-2.201552, 47.124024], [-2.200431, 47.123777], [-2.19768, 47.123604], [-2.196834, 47.12389], [-2.196275, 47.12381], [-2.195932, 47.124117], [-2.19553, 47.124175], [-2.195112, 47.124762], [-2.194296, 47.125315], [-2.194328, 47.126633], [-2.19488, 47.127824], [-2.194449, 47.128721], [-2.19408, 47.129034], [-2.193005, 47.128943], [-2.19303, 47.128646], [-2.191014, 47.128492], [-2.19087, 47.128527], [-2.190282, 47.129729], [-2.18906, 47.129341], [-2.185948, 47.129147], [-2.185267, 47.129536], [-2.184072, 47.129513], [-2.183501, 47.130001], [-2.182265, 47.129617], [-2.181745, 47.128246], [-2.179714, 47.128539], [-2.179097, 47.128468], [-2.178717, 47.128678], [-2.177518, 47.12879], [-2.177257, 47.128451], [-2.174771, 47.128017], [-2.174808, 47.127527], [-2.173093, 47.126492], [-2.17288, 47.126091], [-2.171972, 47.126026], [-2.170359, 47.125554], [-2.171053, 47.123936], [-2.172642, 47.122367], [-2.17277, 47.121921], [-2.172313, 47.121582], [-2.167098, 47.120454], [-2.167085, 47.120132], [-2.167852, 47.119238], [-2.167677, 47.119056], [-2.16522, 47.118568], [-2.164621, 47.119335], [-2.163945, 47.118971], [-2.163813, 47.118741], [-2.16085, 47.118556], [-2.158816, 47.118111], [-2.158817, 47.11724], [-2.156089, 47.116501], [-2.155755, 47.116088], [-2.155497, 47.116002], [-2.152923, 47.115837], [-2.152178, 47.115953], [-2.150266, 47.115475], [-2.149919, 47.116004], [-2.14819, 47.116186], [-2.146966, 47.11486], [-2.146686, 47.114783], [-2.146318, 47.113049], [-2.144079, 47.112231], [-2.142809, 47.112091], [-2.139899, 47.112202], [-2.139142, 47.1119], [-2.137712, 47.112097], [-2.136954, 47.1119], [-2.135486, 47.1123], [-2.133928, 47.112422], [-2.132512, 47.112925], [-2.131049, 47.112707], [-2.130468, 47.112838], [-2.129729, 47.112452], [-2.126933, 47.112295], [-2.12475, 47.111486], [-2.123575, 47.111561], [-2.122739, 47.110719], [-2.122085, 47.110487], [-2.120822, 47.110369], [-2.117201, 47.110624], [-2.115654, 47.110563], [-2.113455, 47.110892], [-2.109853, 47.112035], [-2.107487, 47.112588], [-2.106766, 47.113737], [-2.105882, 47.114532], [-2.104958, 47.114719], [-2.104288, 47.114612], [-2.100749, 47.114923], [-2.099977, 47.1151], [-2.099733, 47.115331], [-2.098828, 47.115372], [-2.098639, 47.114947]]}, "properties": {"name": "Activité", "source_file": "velodyssee_etape-2_saint-michel-chef-chef_pornic.gpx", "point_count": 2008, "distance_km": 25.29, "duration_s": 20348, "elevation_gain_m": 152.8, "elevation_loss_m": 159.4}}]}
