{"type": "FeatureCollection", "features": [{"type": "Feature", "geometry": {"type": "LineString", "coordinates": [[-1.941972, 46.696565, 2.03], [-1.943071, 46.696846, 2.03], [-1.943518, 46.696985, 2.05], [-1.943541, 46.696954, 2.06], [-1.943205, 46.696845, 2.08], [-1.941508, 46.696402, 2.21], [-1.941443, 46.696348, 2.21], [-1.941382, 46.696333, 2.2], [-1.941337, 46.696427, 2.2], [-1.941219, 46.696398, 2.19], [-1.941121, 46.696375, 2.19], [-1.941092, 46.696368, 2.19], [-1.941114, 46.696321, 2.19], [-1.941154, 46.696224, 2.18], [-1.941146, 46.696151, 2.18], [-1.941097, 46.69609, 2.17], [-1.94084, 46.695981, 2.16], [-1.940716, 46.695944, 2.16], [-1.940663, 46.695937, 2.15], [-1.940577, 46.695863, 2.15], [-1.940483, 46.695829, 2.14], [-1.94039, 46.695838, 2.14], [-1.940323, 46.695803, 2.14], [-1.94, 46.695639, 2.12], [-1.939667, 46.695487, 2.09], [-1.939629, 46.695437, 2.07], [-1.93924, 46.695301, 1.93], [-1.93915, 46.695292, 1.9], [-1.939113, 46.695273, 1.88], [-1.939026, 46.695231, 1.85], [-1.938666, 46.695058, 1.71], [-1.938521, 46.694986, 1.65], [-1.938288, 46.694871, 1.56], [-1.937885, 46.694667, 1.4], [-1.937326, 46.694435, 1.24], [-1.937202, 46.6944, 1.23], [-1.936469, 46.694231, 1.13], [-1.936234, 46.694239, 1.1], [-1.93602, 46.694343, 1.07], [-1.935957, 46.694457, 1.05], [-1.935879, 46.694718, 1.0], [-1.935827, 46.69489, 0.97], [-1.935782, 46.695072, 0.95], [-1.9358, 46.695337, 0.94], [-1.935817, 46.695552, 0.93], [-1.935839, 46.695791, 0.92], [-1.935813, 46.695951, 0.92], [-1.935794, 46.696107, 0.91], [-1.935473, 46.696101, 0.91], [-1.935406, 46.696154, 0.91], [-1.935281, 46.696234, 0.9], [-1.934991, 46.696305, 0.89], [-1.934795, 46.696321, 0.95], [-1.934508, 46.696279, 1.07], [-1.934469, 46.696274, 1.09], [-1.934436, 46.69624, 1.12], [-1.934426, 46.696203, 1.14], [-1.934409, 46.696155, 1.17], [-1.934305, 46.696112, 1.22], [-1.934249, 46.696055, 1.27], [-1.934136, 46.69586, 1.4], [-1.934136, 46.695791, 1.44], [-1.933901, 46.695233, 1.81], [-1.933835, 46.69518, 1.85], [-1.933462, 46.694273, 2.13], [-1.933418, 46.694007, 2.18], [-1.933529, 46.693872, 2.2], [-1.933526, 46.693839, 2.21], [-1.933513, 46.69381, 2.21], [-1.933384, 46.693724, 2.23], [-1.933377, 46.693661, 2.24], [-1.933464, 46.693574, 2.26], [-1.933461, 46.693512, 2.27], [-1.933329, 46.693434, 2.29], [-1.933155, 46.692322, 1.95], [-1.933166, 46.692227, 1.91], [-1.933138, 46.69197, 1.81], [-1.933189, 46.69186, 1.76], [-1.933206, 46.69178, 1.73], [-1.933248, 46.691734, 1.71], [-1.933218, 46.69168, 1.69], [-1.933178, 46.691618, 1.66], [-1.933039, 46.691609, 1.62], [-1.932832, 46.691482, 1.61], [-1.931999, 46.691032, 1.6], [-1.93181, 46.690888, 1.59], [-1.931707, 46.690772, 1.59], [-1.931642, 46.690626, 1.59], [-1.931632, 46.689954, 1.72], [-1.931693, 46.689439, 2.02], [-1.931799, 46.689125, 2.21], [-1.932259, 46.688394, 2.65], [-1.932284, 46.688355, 2.66], [-1.932406, 46.688145, 2.71], [-1.932426, 46.687816, 2.79], [-1.932291, 46.687358, 2.9], [-1.932223, 46.686895, 3.01], [-1.931972, 46.686411, 2.93], [-1.931927, 46.686348, 2.9], [-1.931869, 46.686374, 2.88], [-1.931409, 46.685807, 2.63], [-1.930605, 46.684974, 2.37], [-1.930213, 46.68456, 2.39], [-1.930128, 46.68449, 2.39], [-1.929888, 46.684366, 2.4], [-1.92988, 46.684337, 2.4], [-1.929537, 46.684125, 2.41], [-1.928993, 46.683687, 2.45], [-1.928224, 46.683166, 2.53], [-1.927959, 46.683019, 2.56], [-1.927644, 46.682854, 2.59], [-1.927359, 46.682667, 2.62], [-1.926705, 46.682092, 2.39], [-1.926224, 46.681834, 2.24], [-1.926086, 46.681794, 2.21], [-1.92614, 46.681762, 2.19], [-1.926246, 46.681705, 2.16], [-1.926585, 46.681484, 2.04], [-1.926508, 46.681326, 1.99], [-1.926326, 46.681164, 2.03], [-1.925393, 46.680384, 2.24], [-1.924928, 46.680039, 2.34], [-1.924824, 46.680012, 2.36], [-1.924733, 46.680031, 2.37], [-1.924257, 46.680279, 2.47], [-1.924025, 46.680428, 2.52], [-1.923854, 46.68058, 2.57], [-1.923704, 46.680474, 2.6], [-1.922976, 46.679833, 2.79], [-1.922534, 46.679443, 2.67], [-1.922303, 46.679163, 2.59], [-1.922152, 46.678854, 2.51], [-1.922093, 46.678829, 2.5], [-1.92202, 46.678722, 2.47], [-1.921856, 46.678565, 2.42], [-1.921712, 46.678465, 2.38], [-1.921504, 46.678376, 2.36], [-1.920713, 46.678196, 2.5], [-1.92044, 46.678087, 2.55], [-1.92024, 46.677971, 2.59], [-1.9184, 46.676869, 3.08], [-1.917925, 46.676613, 3.21], [-1.916682, 46.675998, 3.39], [-1.915151, 46.675325, 3.42], [-1.914487, 46.674975, 3.7], [-1.914341, 46.674899, 3.76], [-1.914149, 46.674852, 3.83], [-1.91403, 46.674699, 3.91], [-1.913937, 46.674666, 3.95], [-1.913949, 46.674596, 3.98], [-1.913952, 46.674576, 3.99], [-1.913986, 46.674379, 4.09], [-1.914031, 46.674115, 4.22], [-1.913409, 46.673634, 4.59], [-1.912208, 46.673046, 5.21], [-1.909877, 46.671732, 4.78], [-1.90925, 46.67136, 4.31], [-1.908837, 46.671011, 3.93], [-1.90881, 46.670989, 3.9], [-1.908672, 46.671017, 3.82], [-1.908448, 46.670495, 3.35], [-1.90827, 46.669889, 3.29], [-1.908241, 46.669586, 3.33], [-1.908367, 46.669194, 3.38], [-1.908473, 46.669024, 3.4], [-1.908883, 46.668549, 3.52], [-1.909385, 46.667902, 3.86], [-1.909539, 46.667758, 3.94], [-1.909836, 46.667566, 4.07], [-1.910025, 46.667505, 4.14], [-1.910363, 46.667488, 4.25], [-1.91064, 46.667343, 4.33], [-1.911048, 46.667031, 4.42], [-1.9111, 46.666944, 4.44], [-1.911086, 46.666832, 4.47], [-1.910896, 46.666726, 4.51], [-1.910743, 46.666691, 4.53], [-1.909986, 46.666679, 4.64], [-1.909607, 46.666747, 4.7], [-1.908842, 46.66696, 4.7], [-1.908546, 46.666985, 4.7], [-1.908049, 46.666983, 4.7], [-1.907871, 46.66701, 4.69], [-1.907568, 46.666994, 4.69], [-1.907182, 46.666934, 4.69], [-1.906593, 46.666804, 4.51], [-1.90627, 46.666674, 4.38], [-1.90619, 46.666605, 4.33], [-1.906027, 46.665755, 3.9], [-1.906091, 46.665191, 3.49], [-1.905854, 46.66456, 2.93], [-1.905918, 46.664351, 2.74], [-1.906047, 46.664126, 2.54], [-1.906086, 46.663933, 2.37], [-1.906136, 46.663882, 2.32], [-1.906275, 46.663814, 2.22], [-1.906365, 46.663706, 2.25], [-1.906359, 46.663466, 2.3], [-1.906238, 46.663013, 2.39], [-1.906215, 46.66261, 2.47], [-1.906135, 46.66236, 2.53], [-1.906039, 46.662165, 2.57], [-1.906014, 46.662046, 2.6], [-1.905997, 46.661541, 2.85], [-1.905911, 46.661402, 2.92], [-1.905768, 46.661283, 3.0], [-1.905498, 46.661167, 3.11], [-1.90439, 46.660899, 3.51], [-1.904234, 46.660885, 3.59], [-1.90388, 46.660906, 3.77], [-1.90345, 46.660834, 3.99], [-1.902956, 46.660833, 4.24], [-1.90269, 46.660887, 4.38], [-1.902173, 46.661047, 4.66], [-1.901791, 46.661207, 4.83], [-1.901519, 46.661221, 4.89], [-1.901111, 46.661166, 4.98], [-1.900933, 46.661103, 5.03], [-1.900573, 46.660845, 5.15], [-1.900193, 46.660774, 5.23], [-1.900098, 46.660731, 5.26], [-1.899888, 46.660507, 5.35], [-1.899822, 46.660307, 5.36], [-1.899534, 46.65996, 5.31], [-1.899427, 46.659699, 5.28], [-1.899224, 46.659491, 5.26], [-1.899035, 46.659084, 5.21], [-1.898885, 46.658834, 5.18], [-1.898253, 46.657929, 5.24], [-1.898, 46.657484, 5.27], [-1.897737, 46.65711, 5.3], [-1.897548, 46.656752, 5.32], [-1.897296, 46.656459, 5.34], [-1.897241, 46.656284, 5.35], [-1.897058, 46.656006, 5.37], [-1.896735, 46.655438, 5.43], [-1.896071, 46.654544, 5.96], [-1.896066, 46.654448, 6.01], [-1.896381, 46.654152, 6.2], [-1.897062, 46.653756, 6.62], [-1.897588, 46.653213, 7.17], [-1.897679, 46.653053, 7.31], [-1.897651, 46.652989, 7.36], [-1.897173, 46.652597, 7.79], [-1.897082, 46.652447, 8.01], [-1.897054, 46.65222, 8.39], [-1.897059, 46.652148, 8.5], [-1.897168, 46.65201, 8.76], [-1.89762, 46.651545, 9.68], [-1.897644, 46.651411, 9.91], [-1.897415, 46.651064, 10.53], [-1.897098, 46.650866, 10.98], [-1.896985, 46.650635, 11.3], [-1.896653, 46.650483, 11.67], [-1.896491, 46.650409, 11.85], [-1.896274, 46.650219, 12.17], [-1.896032, 46.650069, 12.48], [-1.895878, 46.650005, 12.64], [-1.894766, 46.649668, 13.56], [-1.89426, 46.649428, 13.92], [-1.893981, 46.649352, 14.1], [-1.893096, 46.64902, 14.7], [-1.893347, 46.648645, 14.96], [-1.893413, 46.648471, 15.07], [-1.893654, 46.64825, 15.23], [-1.89372, 46.648156, 15.29], [-1.893819, 46.64809, 15.35], [-1.894088, 46.648006, 15.47], [-1.894186, 46.647845, 15.57], [-1.894358, 46.647814, 15.65], [-1.894472, 46.647765, 15.7], [-1.894511, 46.647691, 15.75], [-1.894507, 46.647593, 15.81], [-1.894299, 46.64717, 15.93], [-1.894245, 46.646866, 16.01], [-1.894014, 46.646494, 16.11], [-1.893611, 46.646228, 16.21], [-1.893528, 46.646009, 16.27], [-1.893492, 46.645788, 16.17], [-1.893435, 46.645696, 16.1], [-1.893388, 46.645634, 16.05], [-1.893381, 46.645557, 15.99], [-1.893463, 46.645294, 15.8], [-1.89357, 46.645196, 15.71], [-1.893758, 46.645083, 15.59], [-1.893813, 46.644998, 15.52], [-1.893822, 46.644777, 15.37], [-1.893888, 46.644457, 15.14], [-1.893854, 46.644367, 15.07], [-1.893739, 46.644242, 14.95], [-1.893464, 46.644041, 14.64], [-1.89346, 46.643944, 14.54], [-1.893507, 46.643794, 14.37], [-1.893427, 46.643592, 14.14], [-1.893592, 46.643375, 13.87], [-1.893701, 46.643032, 13.49], [-1.893826, 46.642961, 13.36], [-1.894159, 46.642845, 13.08], [-1.894719, 46.642772, 12.44], [-1.894767, 46.642729, 12.34], [-1.89452, 46.641933, 10.93], [-1.89421, 46.640811, 8.54], [-1.894207, 46.640651, 8.15], [-1.894288, 46.640146, 6.89], [-1.894358, 46.640018, 6.55], [-1.894357, 46.639858, 6.16], [-1.894356, 46.639778, 5.96], [-1.894405, 46.639675, 5.69], [-1.89444, 46.639524, 5.41], [-1.89439, 46.639413, 5.32], [-1.894391, 46.639301, 5.24], [-1.894209, 46.638974, 4.96], [-1.893934, 46.638763, 4.74], [-1.893633, 46.63855, 4.51], [-1.893364, 46.638367, 4.31], [-1.892785, 46.637981, 4.1], [-1.892598, 46.63793, 4.12], [-1.892508, 46.637875, 4.13], [-1.892355, 46.63772, 4.16], [-1.892072, 46.637328, 4.22], [-1.891979, 46.637171, 4.25], [-1.891924, 46.637086, 4.26], [-1.891684, 46.636745, 4.31], [-1.891584, 46.636603, 4.28], [-1.891578, 46.636594, 4.28], [-1.891517, 46.636562, 4.25], [-1.890939, 46.635726, 3.73], [-1.890675, 46.635386, 3.52], [-1.890491, 46.635253, 3.42], [-1.889516, 46.63483, 3.34], [-1.889003, 46.634546, 3.35], [-1.888658, 46.634465, 3.36], [-1.888406, 46.634367, 3.36], [-1.887897, 46.634137, 3.33], [-1.887546, 46.633966, 3.26], [-1.887322, 46.633748, 3.2], [-1.886764, 46.633147, 3.03], [-1.886585, 46.633026, 2.99], [-1.886071, 46.632767, 2.88], [-1.885741, 46.632596, 2.81], [-1.885542, 46.632471, 2.76], [-1.885413, 46.632309, 2.72], [-1.885272, 46.632208, 2.68], [-1.884891, 46.63207, 2.61], [-1.884472, 46.63182, 2.51], [-1.884257, 46.631711, 2.53], [-1.884083, 46.631673, 2.59], [-1.883415, 46.631701, 2.8], [-1.883056, 46.631655, 2.91], [-1.882892, 46.63169, 2.96], [-1.882252, 46.631597, 3.17], [-1.882191, 46.631489, 3.22], [-1.88216, 46.631419, 3.25], [-1.882034, 46.631368, 3.3], [-1.881685, 46.631377, 3.45], [-1.881287, 46.631251, 3.64], [-1.881038, 46.631243, 3.75], [-1.880786, 46.631133, 3.88], [-1.880035, 46.630559, 4.37], [-1.879746, 46.630452, 4.44], [-1.879565, 46.630359, 4.44], [-1.878686, 46.630095, 4.43], [-1.8784, 46.630061, 4.43], [-1.87802, 46.629958, 4.42], [-1.87761, 46.629774, 4.41], [-1.877394, 46.629655, 4.51], [-1.877153, 46.629511, 4.67], [-1.877132, 46.629326, 4.81], [-1.87698, 46.629184, 4.95], [-1.876764, 46.629036, 5.11], [-1.876528, 46.628907, 5.26], [-1.87632, 46.628826, 5.39], [-1.876251, 46.628828, 5.42], [-1.876069, 46.62892, 5.54], [-1.876023, 46.628922, 5.57], [-1.875645, 46.628721, 5.8], [-1.875405, 46.628592, 5.89], [-1.875105, 46.628375, 6.03], [-1.874834, 46.62801, 6.21], [-1.874385, 46.627245, 6.59], [-1.874261, 46.627097, 6.53], [-1.874019, 46.626921, 6.45], [-1.873849, 46.626811, 6.4], [-1.873735, 46.626666, 6.34], [-1.873633, 46.626336, 6.23], [-1.873628, 46.626189, 6.18], [-1.873626, 46.62612, 6.16], [-1.873738, 46.62578, 6.04], [-1.873763, 46.625624, 5.99], [-1.873658, 46.625024, 5.74], [-1.8737, 46.624502, 5.53], [-1.873595, 46.624009, 5.33], [-1.873167, 46.622965, 5.46], [-1.872347, 46.621799, 5.51], [-1.872348, 46.621748, 5.49], [-1.872297, 46.621664, 5.45], [-1.872153, 46.621389, 5.34], [-1.872163, 46.621183, 5.26], [-1.872288, 46.620908, 5.15], [-1.872418, 46.620719, 5.07], [-1.872489, 46.620452, 4.96], [-1.872283, 46.619968, 4.48], [-1.871712, 46.619049, 3.53], [-1.871704, 46.618952, 3.44], [-1.871486, 46.618674, 3.21], [-1.871378, 46.618586, 3.17], [-1.871097, 46.618455, 3.08], [-1.87096, 46.618302, 3.01], [-1.870991, 46.618166, 2.96], [-1.870971, 46.618088, 2.93], [-1.870405, 46.617521, 2.67], [-1.870307, 46.617448, 2.63], [-1.870144, 46.617414, 2.58], [-1.870081, 46.617378, 2.56], [-1.869621, 46.616937, 2.26], [-1.869314, 46.616772, 2.12], [-1.869219, 46.616752, 2.08], [-1.868932, 46.616618, 1.95], [-1.868916, 46.616611, 1.94], [-1.868681, 46.61654, 1.85], [-1.86807, 46.616419, 1.61], [-1.867742, 46.616365, 1.58], [-1.867341, 46.616295, 1.55], [-1.867135, 46.616263, 1.54], [-1.867007, 46.616244, 1.53], [-1.866716, 46.616125, 1.51], [-1.866566, 46.616103, 1.5], [-1.866315, 46.616093, 1.48], [-1.865753, 46.61615, 1.44], [-1.865552, 46.616159, 1.43], [-1.865388, 46.616154, 1.6], [-1.864909, 46.616047, 2.32], [-1.864864, 46.616058, 2.39], [-1.864834, 46.616071, 2.44], [-1.864701, 46.616187, 2.75], [-1.864645, 46.616204, 2.83], [-1.864537, 46.616163, 3.01], [-1.864369, 46.616057, 3.34], [-1.864155, 46.615962, 3.7], [-1.863902, 46.615884, 4.1], [-1.863823, 46.615859, 4.22], [-1.863729, 46.615977, 4.5], [-1.863634, 46.61593, 4.67], [-1.863521, 46.615919, 4.83], [-1.863332, 46.616005, 5.15], [-1.862825, 46.61605, 5.52], [-1.862753, 46.616067, 5.57], [-1.862724, 46.616102, 5.62], [-1.862325, 46.616092, 5.9], [-1.862162, 46.616047, 6.02], [-1.862024, 46.615978, 6.14], [-1.861911, 46.615867, 6.28], [-1.861915, 46.615753, 6.4], [-1.862011, 46.615581, 6.59], [-1.862007, 46.615541, 6.63], [-1.86192, 46.615447, 6.74], [-1.861657, 46.615347, 6.96], [-1.861604, 46.61529, 7.01], [-1.861602, 46.615147, 6.97], [-1.861751, 46.614897, 6.88], [-1.861714, 46.614821, 6.86], [-1.861614, 46.614778, 6.83], [-1.860653, 46.614524, 6.61], [-1.860109, 46.614469, 6.49], [-1.85999, 46.614434, 6.46], [-1.859911, 46.614425, 6.45], [-1.85987, 46.61442, 6.44], [-1.859678, 46.614399, 6.4], [-1.859396, 46.614367, 6.35], [-1.858914, 46.614318, 6.25], [-1.858564, 46.614285, 6.19], [-1.858554, 46.614263, 6.18], [-1.859026, 46.614073, 6.08], [-1.859295, 46.613966, 6.02], [-1.860104, 46.613653, 5.86], [-1.860624, 46.613393, 5.75], [-1.860829, 46.613322, 5.71], [-1.860606, 46.61306, 5.64], [-1.860306, 46.61289, 5.58], [-1.859935, 46.612688, 5.69], [-1.859563, 46.612578, 6.14], [-1.859342, 46.612506, 6.42], [-1.859169, 46.612476, 6.62], [-1.858822, 46.612462, 7.01], [-1.858259, 46.612246, 7.73], [-1.857935, 46.612217, 8.1], [-1.857179, 46.612094, 8.77], [-1.856863, 46.611992, 9.0], [-1.856585, 46.611867, 9.22], [-1.856026, 46.611797, 9.6], [-1.855815, 46.6118, 9.74], [-1.855543, 46.611693, 9.95], [-1.855476, 46.611583, 10.07], [-1.855418, 46.611459, 10.2], [-1.855401, 46.611431, 10.22], [-1.855301, 46.611351, 10.22], [-1.855057, 46.61128, 10.22], [-1.854937, 46.611032, 10.22], [-1.854649, 46.610884, 10.23], [-1.854583, 46.610759, 10.23], [-1.854483, 46.610545, 10.23], [-1.854296, 46.610146, 10.24], [-1.854312, 46.610129, 10.24], [-1.854342, 46.610075, 10.24], [-1.854326, 46.609974, 10.24], [-1.854233, 46.609809, 10.15], [-1.854115, 46.609739, 10.08], [-1.854063, 46.609729, 10.06], [-1.853816, 46.609188, 9.7], [-1.853836, 46.609164, 9.68], [-1.853854, 46.609067, 9.62], [-1.853822, 46.608958, 9.55], [-1.853444, 46.60849, 9.21], [-1.853257, 46.608432, 9.12], [-1.853217, 46.608427, 9.11], [-1.85268, 46.607819, 8.68], [-1.852606, 46.607735, 8.62], [-1.852533, 46.607682, 8.58], [-1.852513, 46.607669, 8.57], [-1.852144, 46.606876, 8.07], [-1.851927, 46.606421, 7.86], [-1.851526, 46.605559, 7.47], [-1.851279, 46.60503, 7.22], [-1.851111, 46.604689, 6.96], [-1.850513, 46.603405, 6.01], [-1.850217, 46.602779, 5.5], [-1.849578, 46.602866, 5.16], [-1.849485, 46.602801, 5.09], [-1.849323, 46.602774, 5.0], [-1.849001, 46.602813, 4.83], [-1.84885, 46.602857, 4.74], [-1.847152, 46.603109, 4.23], [-1.847037, 46.603197, 4.19], [-1.847051, 46.603238, 4.17], [-1.846907, 46.603323, 4.13], [-1.846719, 46.603334, 4.08], [-1.845703, 46.603539, 4.1], [-1.845471, 46.603563, 4.16], [-1.845013, 46.603536, 4.29], [-1.844821, 46.603518, 4.34], [-1.844735, 46.603514, 4.36], [-1.844864, 46.602587, 4.72], [-1.84472, 46.602066, 4.9], [-1.844374, 46.600943, 5.17], [-1.844298, 46.599475, 2.68], [-1.844394, 46.59916, 2.18], [-1.844715, 46.598829, 1.91], [-1.844734, 46.598693, 1.82], [-1.844679, 46.598507, 1.69], [-1.844567, 46.5983, 1.54], [-1.844391, 46.598163, 1.41], [-1.844236, 46.59809, 1.32], [-1.843592, 46.597878, 0.99], [-1.842505, 46.597471, 0.8], [-1.841475, 46.596933, 0.61], [-1.840645, 46.596581, 0.49], [-1.84029, 46.596445, 0.45], [-1.840054, 46.596384, 0.42], [-1.839306, 46.596303, 0.33], [-1.838084, 46.59567, 0.24], [-1.8377, 46.595599, 0.23], [-1.837017, 46.595542, 0.2], [-1.836549, 46.595566, 0.24], [-1.836234, 46.595631, 0.37], [-1.835809, 46.595635, 0.54], [-1.834855, 46.595576, 0.92], [-1.834403, 46.595548, 1.1], [-1.834274, 46.595549, 1.15], [-1.834093, 46.595599, 1.22], [-1.833839, 46.595678, 1.22], [-1.833306, 46.595669, 1.23], [-1.833044, 46.595725, 1.23], [-1.832972, 46.59572, 1.23], [-1.833226, 46.595278, 1.24], [-1.833291, 46.595178, 1.24], [-1.83351, 46.594822, 1.25], [-1.833744, 46.594461, 1.23], [-1.833806, 46.594323, 1.23], [-1.833796, 46.594178, 1.22], [-1.833477, 46.59353, 1.19], [-1.833364, 46.593218, 1.17], [-1.8333, 46.592857, 1.25], [-1.833475, 46.592775, 1.3], [-1.834268, 46.592767, 1.49], [-1.835004, 46.592515, 1.69], [-1.83514, 46.592417, 1.73], [-1.835197, 46.592323, 1.77], [-1.835282, 46.591877, 1.9], [-1.835386, 46.591739, 1.94], [-1.835901, 46.591315, 2.08], [-1.837132, 46.590679, 2.41], [-1.8374, 46.590511, 2.52], [-1.8376, 46.590287, 2.62], [-1.837735, 46.590007, 2.74], [-1.837685, 46.589999, 2.76], [-1.837637, 46.589989, 2.77], [-1.837655, 46.589949, 2.79], [-1.837782, 46.589687, 2.9], [-1.837929, 46.589346, 3.02], [-1.838569, 46.587769, 3.31], [-1.838929, 46.586664, 3.57], [-1.839098, 46.586384, 3.64], [-1.839292, 46.586253, 3.69], [-1.839322, 46.586146, 3.71], [-1.839513, 46.585831, 3.85], [-1.839545, 46.58565, 3.95], [-1.839622, 46.585523, 4.02], [-1.839628, 46.585394, 4.08], [-1.83953, 46.585123, 4.22], [-1.83935, 46.584798, 4.4], [-1.839027, 46.584361, 4.65], [-1.838776, 46.584243, 4.75], [-1.838283, 46.583861, 4.99], [-1.837783, 46.583649, 5.18], [-1.837712, 46.583587, 5.22], [-1.837677, 46.583306, 5.35], [-1.837625, 46.583217, 5.39], [-1.837628, 46.583148, 5.43], [-1.837899, 46.582731, 5.72], [-1.837911, 46.58262, 5.8], [-1.837881, 46.582566, 5.85], [-1.83772, 46.582474, 5.96], [-1.837417, 46.582417, 6.12], [-1.837309, 46.582349, 6.19], [-1.837139, 46.581541, 6.81], [-1.83729, 46.581216, 7.09], [-1.837286, 46.581133, 7.16], [-1.837163, 46.580967, 7.31], [-1.836948, 46.580776, 7.51], [-1.836028, 46.580427, 8.12], [-1.83479, 46.58018, 8.25], [-1.834644, 46.580126, 8.23], [-1.833822, 46.579617, 8.09], [-1.833578, 46.579503, 8.05], [-1.832649, 46.579228, 7.79], [-1.832073, 46.578952, 7.59], [-1.831689, 46.578602, 7.41], [-1.83125, 46.578416, 7.3], [-1.831116, 46.578389, 7.36], [-1.830461, 46.578455, 7.62], [-1.82992, 46.578455, 7.83], [-1.82934, 46.578367, 8.06], [-1.828969, 46.578289, 8.21], [-1.828659, 46.57819, 8.3], [-1.828114, 46.578185, 8.34], [-1.827963, 46.578148, 8.35], [-1.82769, 46.578039, 8.37], [-1.827289, 46.577997, 8.4], [-1.82635, 46.577794, 8.47], [-1.82576, 46.577638, 8.23], [-1.825374, 46.57756, 8.05], [-1.825289, 46.577514, 8.0], [-1.825227, 46.577443, 7.95], [-1.825095, 46.576945, 7.62], [-1.825079, 46.576857, 7.56], [-1.824934, 46.576558, 7.35], [-1.824677, 46.576411, 7.14], [-1.823497, 46.576275, 6.24], [-1.823379, 46.576271, 6.15], [-1.823112, 46.576323, 5.95], [-1.822952, 46.576322, 5.83], [-1.82265, 46.576452, 5.56], [-1.822619, 46.576347, 5.44], [-1.822372, 46.575733, 5.18], [-1.821584, 46.574209, 4.74], [-1.821419, 46.573967, 4.7], [-1.821148, 46.573697, 4.65], [-1.821112, 46.573406, 4.61], [-1.821297, 46.57279, 4.5], [-1.821315, 46.572565, 4.43], [-1.821252, 46.572354, 4.37], [-1.821103, 46.572265, 4.32], [-1.819978, 46.57196, 4.06], [-1.819099, 46.571627, 3.83], [-1.818988, 46.571564, 3.8], [-1.818793, 46.571391, 3.72], [-1.818656, 46.571168, 3.63], [-1.818611, 46.570603, 3.44], [-1.818706, 46.5701, 3.46], [-1.818829, 46.569918, 3.58], [-1.819395, 46.569546, 3.9], [-1.819747, 46.569413, 4.06], [-1.820405, 46.569215, 4.36], [-1.820448, 46.569152, 4.4], [-1.820452, 46.569085, 4.43], [-1.820328, 46.568878, 4.53], [-1.820091, 46.568636, 4.65], [-1.819849, 46.568488, 4.75], [-1.820223, 46.56844, 4.87], [-1.81998, 46.56809, 5.04], [-1.819771, 46.567865, 5.15], [-1.819503, 46.567566, 5.31], [-1.818205, 46.566169, 6.0], [-1.816907, 46.56497, 6.05], [-1.816585, 46.564635, 6.13], [-1.817052, 46.564378, 6.28], [-1.817298, 46.564159, 6.38], [-1.818446, 46.563742, 6.69], [-1.819779, 46.563499, 6.77], [-1.820905, 46.563176, 6.85], [-1.821472, 46.562691, 6.3], [-1.821442, 46.562592, 6.21], [-1.821449, 46.562543, 6.16], [-1.821516, 46.562475, 6.09], [-1.822291, 46.562079, 5.5], [-1.822529, 46.56204, 5.35], [-1.823395, 46.561737, 4.95], [-1.823611, 46.561626, 4.85], [-1.82393, 46.561311, 4.64], [-1.824167, 46.561173, 4.52], [-1.824324, 46.561094, 4.45], [-1.82486, 46.560902, 4.31], [-1.825122, 46.560737, 4.4], [-1.825388, 46.560333, 4.58], [-1.825857, 46.559724, 4.86], [-1.825975, 46.559507, 4.95], [-1.826023, 46.559359, 4.98], [-1.826021, 46.559216, 4.94], [-1.825958, 46.559012, 4.88], [-1.825576, 46.558341, 4.67], [-1.825456, 46.558226, 4.63], [-1.825105, 46.558042, 4.54], [-1.824642, 46.557845, 4.37], [-1.824448, 46.557726, 4.23], [-1.824254, 46.557546, 4.06], [-1.824112, 46.557209, 3.8], [-1.823953, 46.557003, 3.62], [-1.823764, 46.556844, 3.47], [-1.823167, 46.556461, 3.14], [-1.822813, 46.556109, 3.21], [-1.822574, 46.555712, 3.28], [-1.822417, 46.555145, 3.38], [-1.822417, 46.555029, 3.4], [-1.822539, 46.55464, 3.53], [-1.822499, 46.554384, 3.64], [-1.822226, 46.55401, 3.82], [-1.822148, 46.553861, 3.89], [-1.822064, 46.553454, 4.07], [-1.822009, 46.553364, 4.12], [-1.821828, 46.553211, 4.2], [-1.821559, 46.553087, 4.34], [-1.821169, 46.552801, 4.59], [-1.82054, 46.552455, 4.94], [-1.820184, 46.552059, 5.24], [-1.819794, 46.551803, 5.28], [-1.819665, 46.551735, 5.24], [-1.818862, 46.551542, 5.03], [-1.818738, 46.551512, 4.99], [-1.818639, 46.551364, 4.93], [-1.818392, 46.551103, 4.82], [-1.818047, 46.550875, 4.7], [-1.817746, 46.550721, 4.53], [-1.817563, 46.550678, 4.44], [-1.817348, 46.550658, 4.33], [-1.816673, 46.550682, 4.02], [-1.816228, 46.550634, 3.8], [-1.816009, 46.55058, 3.69], [-1.815156, 46.550223, 3.53], [-1.814914, 46.550087, 3.57], [-1.814747, 46.54995, 3.61], [-1.814632, 46.549752, 3.65], [-1.814595, 46.549414, 3.72], [-1.814527, 46.549273, 3.75], [-1.814251, 46.549076, 3.8], [-1.813986, 46.548783, 4.0], [-1.813849, 46.548715, 4.08], [-1.813642, 46.548668, 4.18], [-1.813311, 46.548629, 4.34], [-1.812985, 46.548548, 4.5], [-1.812819, 46.548498, 4.59], [-1.812473, 46.548342, 4.78], [-1.811957, 46.547999, 5.1], [-1.811149, 46.547215, 5.52], [-1.810904, 46.546698, 5.76], [-1.810667, 46.546202, 5.59], [-1.810229, 46.545652, 5.11], [-1.809972, 46.545447, 4.9], [-1.81021, 46.54532, 4.74], [-1.810271, 46.545231, 4.67], [-1.810217, 46.544639, 3.97], [-1.810263, 46.54446, 3.69], [-1.810435, 46.544215, 3.27], [-1.810358, 46.544189, 3.18], [-1.810284, 46.54416, 3.1], [-1.809873, 46.543988, 2.59], [-1.809852, 46.54396, 2.54], [-1.80974, 46.543844, 2.33], [-1.809633, 46.543795, 2.2], [-1.809259, 46.543695, 1.78], [-1.808382, 46.543679, 1.25], [-1.808226, 46.543627, 1.15], [-1.808075, 46.543526, 1.03], [-1.807918, 46.5435, 0.94], [-1.807187, 46.543498, 0.51], [-1.807048, 46.543523, 0.43], [-1.80668, 46.543671, 0.22], [-1.806338, 46.543676, 0.21], [-1.806036, 46.543621, 0.19], [-1.80553, 46.543459, 0.17], [-1.804735, 46.543366, 0.14], [-1.804316, 46.543205, 0.12], [-1.804, 46.543194, 0.2], [-1.803689, 46.54314, 0.3], [-1.803146, 46.542964, 0.48], [-1.802894, 46.542965, 0.56], [-1.802687, 46.543029, 0.63], [-1.802336, 46.542943, 0.75], [-1.802228, 46.54303, 0.8], [-1.802009, 46.54309, 0.87], [-1.801528, 46.542743, 1.22], [-1.800689, 46.5423, 1.82], [-1.799709, 46.541879, 2.44], [-1.799245, 46.541704, 2.6], [-1.79904, 46.541655, 2.66], [-1.798922, 46.541675, 2.7], [-1.797781, 46.542264, 3.12], [-1.797723, 46.542243, 3.14], [-1.797667, 46.542221, 3.16], [-1.797361, 46.542108, 3.09], [-1.797341, 46.542099, 3.08], [-1.797316, 46.542092, 3.07], [-1.797289, 46.542126, 3.06], [-1.797242, 46.542115, 3.04], [-1.796614, 46.542493, 2.76], [-1.795911, 46.542853, 2.46], [-1.795725, 46.542924, 2.39], [-1.795651, 46.54293, 2.37], [-1.795595, 46.542907, 2.35], [-1.794394, 46.543511, 1.82], [-1.793884, 46.543731, 1.6], [-1.793638, 46.543593, 1.49], [-1.792498, 46.542686, 1.29], [-1.792328, 46.542595, 1.27], [-1.791156, 46.542311, 1.22], [-1.78984, 46.542155, 1.27], [-1.788689, 46.542081, 1.3], [-1.787892, 46.542071, 1.28], [-1.785097, 46.542347, 1.83], [-1.78452, 46.542452, 2.13], [-1.783914, 46.542606, 2.46], [-1.783233, 46.542653, 3.18], [-1.782966, 46.542243, 4.05], [-1.782968, 46.541946, 4.62], [-1.782968, 46.541717, 5.06], [-1.782852, 46.541242, 5.99], [-1.782842, 46.541063, 6.26], [-1.782811, 46.54069, 6.78], [-1.782701, 46.540212, 7.46], [-1.782738, 46.540062, 7.67], [-1.782706, 46.540012, 7.75], [-1.782752, 46.539844, 7.99], [-1.78344, 46.538592, 9.7], [-1.78327, 46.538569, 9.85], [-1.783032, 46.538534, 10.05], [-1.78285, 46.538473, 10.22], [-1.782611, 46.538311, 10.5], [-1.782517, 46.538248, 10.61], [-1.781996, 46.538016, 10.59], [-1.781848, 46.537955, 10.52], [-1.781724, 46.537894, 10.46], [-1.781704, 46.537792, 10.39], [-1.781567, 46.53775, 10.33], [-1.78157, 46.537606, 10.24], [-1.781566, 46.537504, 10.18], [-1.781599, 46.537283, 10.04], [-1.781455, 46.536992, 9.86], [-1.781311, 46.536659, 9.62], [-1.781185, 46.536314, 9.26], [-1.781228, 46.536009, 8.95], [-1.781258, 46.535695, 8.63], [-1.781295, 46.535373, 8.3], [-1.781213, 46.535397, 8.24], [-1.780771, 46.535428, 7.93], [-1.780662, 46.535443, 7.85], [-1.780631, 46.535421, 7.87], [-1.780639, 46.535317, 7.95], [-1.780595, 46.535061, 8.15], [-1.780533, 46.535005, 8.21], [-1.779392, 46.534673, 8.88], [-1.779313, 46.534625, 8.94], [-1.779262, 46.53456, 9.0], [-1.779209, 46.53432, 9.19], [-1.779056, 46.534172, 9.35], [-1.778941, 46.53406, 9.5], [-1.778827, 46.533988, 9.61], [-1.778815, 46.533945, 9.66], [-1.778787, 46.533937, 9.68], [-1.778771, 46.533938, 9.69], [-1.778725, 46.533892, 9.75], [-1.778471, 46.533712, 10.01], [-1.777995, 46.533477, 10.44], [-1.777448, 46.533132, 10.97], [-1.777183, 46.532959, 11.18], [-1.776998, 46.532859, 11.23], [-1.776679, 46.532622, 11.34], [-1.776642, 46.532595, 11.35], [-1.776459, 46.532492, 11.4], [-1.776443, 46.532439, 11.42], [-1.776354, 46.532364, 11.45], [-1.776326, 46.532339, 11.46], [-1.775699, 46.531811, 11.67], [-1.775642, 46.531726, 11.7], [-1.775636, 46.531662, 11.72], [-1.775515, 46.531682, 11.77], [-1.775394, 46.531737, 11.84], [-1.775133, 46.531995, 12.07], [-1.774983, 46.531929, 12.16], [-1.77493, 46.531873, 12.2], [-1.774875, 46.531798, 12.26], [-1.774552, 46.531634, 12.46], [-1.774325, 46.531527, 12.6], [-1.774053, 46.53148, 12.73], [-1.774117, 46.53102, 13.14], [-1.774128, 46.530937, 13.29], [-1.774147, 46.53081, 13.51], [-1.774171, 46.530639, 13.81], [-1.774233, 46.530642, 13.88], [-1.7743, 46.530232, 14.59], [-1.774328, 46.530055, 14.9], [-1.774342, 46.529951, 15.08], [-1.774422, 46.52934, 16.14], [-1.774476, 46.528942, 16.65], [-1.774515, 46.528649, 17.03], [-1.774524, 46.528578, 17.12], [-1.774462, 46.528555, 17.19], [-1.774365, 46.528525, 17.28], [-1.773867, 46.528393, 17.76], [-1.773719, 46.528291, 17.94], [-1.773632, 46.528039, 18.28], [-1.773712, 46.527671, 18.4], [-1.77363, 46.527554, 18.38], [-1.773204, 46.527452, 18.32], [-1.773148, 46.52745, 18.32], [-1.773093, 46.52745, 18.31], [-1.772763, 46.527472, 18.27], [-1.772413, 46.527452, 18.23], [-1.772183, 46.527455, 18.21], [-1.771727, 46.527445, 18.15], [-1.771162, 46.527424, 17.95], [-1.770499, 46.527343, 17.66], [-1.769536, 46.52728, 17.25], [-1.769459, 46.527256, 17.21], [-1.769356, 46.527201, 17.16], [-1.769159, 46.527014, 17.01], [-1.768941, 46.526917, 16.86], [-1.768729, 46.526864, 16.73], [-1.767741, 46.526743, 16.15], [-1.767624, 46.526728, 16.08], [-1.766154, 46.526445, 15.32], [-1.765851, 46.526354, 15.21], [-1.765721, 46.526271, 15.16], [-1.765866, 46.52617, 15.09], [-1.765938, 46.526086, 15.04], [-1.76638, 46.52503, 14.72], [-1.766685, 46.524445, 14.91], [-1.766709, 46.524416, 14.92], [-1.767316, 46.523505, 15.11], [-1.767555, 46.52308, 14.74], [-1.76721, 46.522822, 14.45], [-1.767122, 46.522712, 14.34], [-1.766552, 46.521621, 13.24], [-1.766538, 46.521557, 13.16], [-1.766357, 46.520724, 12.16], [-1.766331, 46.520623, 12.04], [-1.766372, 46.520618, 12.0], [-1.766434, 46.520613, 11.95], [-1.766576, 46.520597, 11.83], [-1.767405, 46.520251, 11.39], [-1.768452, 46.519565, 10.98], [-1.769275, 46.518975, 10.67], [-1.769737, 46.518588, 10.49], [-1.770159, 46.518359, 10.36], [-1.770612, 46.518168, 10.22], [-1.771627, 46.517724, 9.9], [-1.772842, 46.517572, 9.57], [-1.773823, 46.51727, 9.46], [-1.774268, 46.51718, 9.44], [-1.774533, 46.517133, 9.44], [-1.774923, 46.517104, 9.42], [-1.77524, 46.517102, 9.41], [-1.775342, 46.51712, 9.41], [-1.775526, 46.51714, 9.4], [-1.775883, 46.517183, 9.53], [-1.775918, 46.517187, 9.55], [-1.775915, 46.517245, 9.6], [-1.775936, 46.517258, 9.62], [-1.77599, 46.517267, 9.65], [-1.776043, 46.517275, 9.68], [-1.776054, 46.517236, 9.71], [-1.776073, 46.517225, 9.73], [-1.776327, 46.517155, 9.89], [-1.776318, 46.516821, 10.16], [-1.776142, 46.516804, 10.27], [-1.77612, 46.516753, 10.31], [-1.776205, 46.516239, 10.74], [-1.776229, 46.516174, 10.8], [-1.776283, 46.51615, 10.83], [-1.776323, 46.516072, 10.9], [-1.776261, 46.516001, 10.99], [-1.776239, 46.515922, 11.07], [-1.776406, 46.514709, 12.3], [-1.776416, 46.514628, 12.38], [-1.77642, 46.514601, 12.41], [-1.776476, 46.514144, 12.66], [-1.776526, 46.513809, 12.56], [-1.776557, 46.513684, 12.53], [-1.776575, 46.513672, 12.52], [-1.776642, 46.513634, 12.5], [-1.776785, 46.513625, 12.47], [-1.776887, 46.513587, 12.45], [-1.776982, 46.513517, 12.42], [-1.777024, 46.513435, 12.4], [-1.777029, 46.513373, 12.38], [-1.776948, 46.513234, 12.33], [-1.776911, 46.513206, 12.32], [-1.776862, 46.513158, 12.3], [-1.776703, 46.513067, 12.26], [-1.77664, 46.512946, 12.22], [-1.776634, 46.512907, 12.21], [-1.77664, 46.512847, 12.19], [-1.776679, 46.512565, 12.14], [-1.776684, 46.512529, 12.13], [-1.776655, 46.5125, 12.13], [-1.776558, 46.512505, 12.11], [-1.776514, 46.512512, 12.11], [-1.776326, 46.512453, 12.08], [-1.776309, 46.512408, 12.08], [-1.776293, 46.512343, 12.07], [-1.776275, 46.512311, 12.06], [-1.776572, 46.512169, 12.02], [-1.776609, 46.512134, 12.01], [-1.776636, 46.512034, 11.99], [-1.776642, 46.511987, 11.98], [-1.776727, 46.511348, 11.87], [-1.776743, 46.511241, 11.84], [-1.776746, 46.511226, 11.83], [-1.776835, 46.510564, 11.56], [-1.776849, 46.510444, 11.51], [-1.776864, 46.510322, 11.46], [-1.776985, 46.509468, 11.08], [-1.777001, 46.509328, 10.97], [-1.777088, 46.508683, 10.47], [-1.77714, 46.508287, 10.16], [-1.77715, 46.508201, 10.09], [-1.77718, 46.507994, 9.93], [-1.777182, 46.507959, 9.9], [-1.777279, 46.507126, 9.47], [-1.777358, 46.507122, 9.45], [-1.777362, 46.507094, 9.43], [-1.777373, 46.507005, 9.4], [-1.777378, 46.506967, 9.38], [-1.777397, 46.506816, 9.32], [-1.77744, 46.506411, 9.15], [-1.777488, 46.50605, 9.0], [-1.777508, 46.505886, 8.96], [-1.777551, 46.505608, 8.91], [-1.777647, 46.504855, 8.79], [-1.777657, 46.504792, 8.78], [-1.777664, 46.504748, 8.77], [-1.777689, 46.504546, 8.73], [-1.777753, 46.504087, 8.61], [-1.777767, 46.504034, 8.58], [-1.777773, 46.503989, 8.55], [-1.777785, 46.503905, 8.5], [-1.777886, 46.50312, 8.05], [-1.777894, 46.503064, 8.01], [-1.777906, 46.502977, 7.96], [-1.777918, 46.502887, 7.91], [-1.777978, 46.50246, 7.66], [-1.778074, 46.501777, 7.11], [-1.778076, 46.501763, 7.1], [-1.778133, 46.501561, 6.93], [-1.778134, 46.501437, 6.83], [-1.778126, 46.501381, 6.79], [-1.778162, 46.501326, 6.74], [-1.778196, 46.501276, 6.69], [-1.778271, 46.501221, 6.63], [-1.778271, 46.501212, 6.62], [-1.7784, 46.501136, 6.53], [-1.778526, 46.500975, 6.38], [-1.778839, 46.5007, 6.1], [-1.779295, 46.50029, 5.76], [-1.779333, 46.500256, 5.73], [-1.77938, 46.500209, 5.69], [-1.779839, 46.49981, 5.35], [-1.779923, 46.499739, 5.28], [-1.780063, 46.499623, 5.18], [-1.780411, 46.499313, 4.95], [-1.780471, 46.499264, 4.94], [-1.781245, 46.49859, 4.89], [-1.781318, 46.498525, 4.89], [-1.781359, 46.498491, 4.88], [-1.781478, 46.498376, 4.87], [-1.7817, 46.498178, 4.86], [-1.781769, 46.498133, 4.85], [-1.781908, 46.498086, 4.85], [-1.781951, 46.498086, 4.85], [-1.782083, 46.498154, 4.84], [-1.782128, 46.498178, 4.84], [-1.782316, 46.498277, 4.84], [-1.78253, 46.498396, 4.84], [-1.782592, 46.49834, 4.84], [-1.783033, 46.497948, 4.84], [-1.78309, 46.497898, 4.84], [-1.783161, 46.497937, 4.84], [-1.783189, 46.497953, 4.84], [-1.783307, 46.498018, 4.84], [-1.78347, 46.498004, 4.84], [-1.783603, 46.497949, 4.84], [-1.783553, 46.497915, 4.84], [-1.783786, 46.497697, 4.84]]}, "properties": {"name": "Saint-Gilles-Croix-de-Vie ➡️ Les Sables-d'Olonne", "source_file": "velodyssee_etape-5_st-gilles-croix-de-vie_les-sables-d-olonne.gpx", "point_count": 1111, "distance_km": 35.74, "duration_s": 6477, "elevation_gain_m": 80.2, "elevation_loss_m": 77.4}}]}
