{"type": "FeatureCollection", "features": [{"type": "Feature", "geometry": {"type": "LineString", "coordinates": [[-2.170233, 47.267949, 2.76], [-2.170218, 47.267407, 2.76], [-2.170191, 47.267329, 2.76], [-2.170079, 47.267254, 2.76], [-2.169794, 47.2672, 2.8], [-2.169923, 47.267164, 2.93], [-2.170238, 47.26713, 3.23], [-2.170442, 47.266246, 4.46], [-2.170404, 47.266242, 4.5], [-2.17043, 47.266143, 4.64], [-2.170467, 47.266037, 4.79], [-2.170487, 47.265943, 4.92], [-2.170444, 47.265843, 5.06], [-2.170559, 47.265753, 5.23], [-2.170558, 47.26565, 5.18], [-2.170581, 47.265544, 5.12], [-2.170596, 47.265441, 5.06], [-2.170617, 47.265333, 5.0], [-2.170639, 47.265235, 4.95], [-2.170672, 47.26513, 4.89], [-2.170688, 47.265024, 4.83], [-2.170713, 47.264923, 4.77], [-2.170727, 47.264812, 4.71], [-2.170767, 47.264704, 4.64], [-2.17079, 47.264593, 4.58], [-2.170812, 47.264486, 4.52], [-2.170837, 47.264385, 4.46], [-2.170786, 47.264285, 4.4], [-2.170652, 47.264262, 4.35], [-2.170474, 47.264224, 4.28], [-2.170356, 47.264174, 4.22], [-2.170527, 47.264182, 4.21], [-2.170688, 47.264222, 4.2], [-2.170822, 47.264251, 4.19], [-2.170885, 47.264169, 4.18], [-2.170897, 47.264058, 4.17], [-2.170924, 47.263944, 4.16], [-2.170947, 47.263827, 4.15], [-2.170974, 47.263716, 4.13], [-2.170996, 47.263608, 4.12], [-2.170993, 47.263501, 4.11], [-2.171013, 47.263388, 4.1], [-2.170997, 47.263268, 4.09], [-2.171006, 47.263142, 4.08], [-2.171002, 47.263012, 4.06], [-2.171002, 47.262884, 4.05], [-2.171009, 47.26276, 4.04], [-2.170956, 47.262643, 4.02], [-2.170819, 47.262596, 4.01], [-2.170972, 47.26254, 4.0], [-2.171015, 47.262455, 3.99], [-2.170982, 47.262364, 3.98], [-2.170986, 47.262241, 3.96], [-2.170978, 47.262116, 3.95], [-2.17098, 47.261992, 3.93], [-2.170972, 47.261868, 3.92], [-2.170971, 47.261744, 3.9], [-2.170964, 47.261613, 3.89], [-2.170968, 47.261481, 3.87], [-2.170962, 47.261389, 3.86], [-2.170954, 47.261298, 3.85], [-2.170951, 47.261207, 3.84], [-2.170926, 47.261116, 3.83], [-2.170891, 47.261024, 3.85], [-2.170867, 47.260927, 3.87], [-2.170861, 47.260833, 3.88], [-2.170877, 47.26074, 3.9], [-2.170874, 47.260647, 3.91], [-2.170858, 47.260555, 3.92], [-2.170837, 47.260423, 3.95], [-2.170826, 47.260296, 3.97], [-2.170808, 47.26017, 3.99], [-2.170782, 47.260043, 4.01], [-2.170771, 47.259912, 4.03], [-2.170755, 47.25978, 4.05], [-2.170729, 47.259652, 4.07], [-2.170709, 47.259523, 4.09], [-2.170687, 47.2594, 4.11], [-2.170678, 47.259277, 4.13], [-2.170656, 47.259161, 4.16], [-2.170624, 47.259048, 4.19], [-2.170479, 47.259012, 4.21], [-2.170346, 47.258963, 4.23], [-2.170204, 47.258901, 4.26], [-2.170025, 47.25889, 4.29], [-2.169911, 47.258786, 4.32], [-2.169908, 47.258686, 4.34], [-2.16989, 47.258592, 4.36], [-2.169875, 47.258498, 4.39], [-2.169868, 47.258404, 4.41], [-2.169859, 47.258313, 4.43], [-2.169851, 47.258221, 4.45], [-2.169858, 47.258129, 4.47], [-2.169855, 47.258036, 4.49], [-2.169847, 47.257945, 4.51], [-2.169851, 47.257853, 4.53], [-2.169838, 47.257725, 4.55], [-2.16984, 47.257596, 4.57], [-2.169829, 47.257476, 4.58], [-2.169814, 47.257353, 4.6], [-2.16982, 47.25723, 4.62], [-2.169802, 47.257099, 4.63], [-2.169778, 47.256973, 4.65], [-2.169772, 47.256855, 4.67], [-2.169757, 47.256753, 4.68], [-2.169746, 47.256653, 4.69], [-2.169738, 47.256562, 4.71], [-2.169734, 47.256465, 4.72], [-2.169727, 47.256365, 4.73], [-2.169743, 47.256256, 4.75], [-2.169818, 47.256161, 4.76], [-2.169831, 47.256044, 4.77], [-2.169733, 47.255971, 4.78], [-2.169706, 47.255866, 4.78], [-2.169722, 47.255754, 4.78], [-2.16972, 47.255634, 4.78], [-2.169701, 47.255517, 4.79], [-2.169676, 47.2554, 4.79], [-2.169674, 47.255278, 4.79], [-2.169662, 47.255158, 4.8], [-2.169648, 47.255051, 4.8], [-2.169648, 47.254947, 4.8], [-2.169619, 47.254846, 4.8], [-2.169611, 47.254701, 4.81], [-2.169588, 47.254612, 4.81], [-2.169576, 47.254488, 4.81], [-2.169564, 47.254361, 4.82], [-2.169594, 47.25426, 4.79], [-2.169741, 47.254276, 4.74], [-2.169881, 47.254247, 4.7], [-2.170054, 47.254243, 4.64], [-2.170169, 47.254175, 4.59], [-2.170198, 47.254058, 4.53], [-2.170161, 47.253964, 4.49], [-2.170093, 47.25387, 4.44], [-2.170065, 47.253759, 4.38], [-2.170056, 47.253667, 4.34], [-2.170031, 47.253575, 4.3], [-2.170012, 47.25348, 4.25], [-2.169986, 47.253381, 4.2], [-2.169963, 47.25328, 4.16], [-2.16993, 47.253179, 4.11], [-2.169902, 47.253076, 4.06], [-2.169878, 47.252977, 4.01], [-2.169851, 47.252888, 3.97], [-2.16983, 47.252795, 3.96], [-2.169762, 47.252591, 3.96], [-2.169778, 47.252479, 3.96], [-2.169772, 47.252368, 3.96], [-2.169768, 47.25225, 3.96], [-2.169746, 47.25214, 3.95], [-2.169728, 47.252046, 3.95], [-2.16972, 47.251941, 3.95], [-2.169702, 47.251832, 3.95], [-2.169683, 47.251722, 3.95], [-2.169665, 47.251616, 3.95], [-2.169647, 47.251504, 3.94], [-2.169633, 47.251401, 3.94], [-2.169516, 47.251347, 3.94], [-2.169367, 47.251354, 3.94], [-2.169267, 47.251275, 3.94], [-2.16926, 47.251168, 3.96], [-2.169238, 47.251055, 3.99], [-2.1692, 47.250947, 4.01], [-2.169166, 47.250836, 4.04], [-2.169157, 47.250725, 4.07], [-2.169166, 47.250612, 4.09], [-2.169169, 47.250504, 4.12], [-2.169174, 47.2504, 4.14], [-2.169184, 47.250294, 4.17], [-2.169166, 47.250183, 4.19], [-2.169155, 47.250078, 4.22], [-2.169143, 47.249972, 4.24], [-2.16912, 47.249873, 4.26], [-2.169128, 47.249771, 4.29], [-2.169111, 47.249671, 4.31], [-2.169136, 47.249573, 4.33], [-2.169133, 47.24948, 4.35], [-2.169108, 47.24936, 4.32], [-2.169108, 47.24925, 4.3], [-2.169101, 47.249131, 4.27], [-2.169117, 47.249035, 4.25], [-2.169216, 47.248964, 4.23], [-2.169303, 47.248885, 4.2], [-2.1694, 47.248687, 4.15], [-2.169428, 47.24859, 4.13], [-2.169474, 47.248469, 4.1], [-2.16954, 47.248379, 4.08], [-2.169558, 47.248278, 4.05], [-2.169552, 47.248183, 4.03], [-2.16961, 47.248095, 4.01], [-2.169649, 47.247996, 3.99], [-2.169667, 47.247893, 3.96], [-2.169703, 47.247787, 3.94], [-2.169729, 47.247682, 3.93], [-2.169756, 47.247581, 3.92], [-2.169763, 47.247466, 3.91], [-2.169814, 47.24736, 3.9], [-2.169857, 47.247254, 3.89], [-2.169852, 47.247127, 3.88], [-2.169877, 47.247005, 3.88], [-2.169906, 47.246884, 3.87], [-2.169933, 47.246762, 3.86], [-2.169933, 47.246643, 3.85], [-2.169954, 47.246528, 3.84], [-2.169978, 47.246404, 3.83], [-2.169987, 47.246287, 3.82], [-2.170017, 47.246177, 3.81], [-2.170036, 47.246059, 3.8], [-2.170043, 47.245958, 3.8], [-2.170062, 47.245843, 3.81], [-2.170059, 47.245739, 3.82], [-2.170092, 47.245635, 3.83], [-2.170101, 47.245524, 3.84], [-2.17013, 47.24542, 3.84], [-2.170162, 47.245303, 3.85], [-2.1702, 47.2452, 3.86], [-2.170211, 47.245097, 3.87], [-2.170236, 47.244996, 3.88], [-2.170251, 47.244901, 3.88], [-2.170263, 47.244807, 3.89], [-2.170297, 47.244708, 3.9], [-2.170292, 47.244605, 3.91], [-2.170315, 47.244508, 3.91], [-2.170306, 47.244395, 3.92], [-2.170325, 47.244284, 3.93], [-2.170299, 47.244167, 3.95], [-2.170296, 47.244061, 3.98], [-2.170302, 47.243952, 4.01], [-2.17031, 47.24382, 4.05], [-2.170332, 47.243692, 4.09], [-2.170348, 47.243603, 4.11], [-2.170366, 47.243474, 4.15], [-2.17039, 47.243348, 4.18], [-2.170426, 47.243226, 4.22], [-2.170434, 47.243136, 4.24], [-2.170457, 47.243026, 4.28], [-2.170468, 47.242892, 4.31], [-2.170503, 47.242793, 4.34], [-2.17052, 47.242675, 4.38], [-2.170513, 47.242559, 4.41], [-2.170536, 47.242453, 4.44], [-2.170549, 47.24235, 4.42], [-2.170583, 47.242225, 4.39], [-2.170596, 47.242099, 4.36], [-2.170613, 47.242008, 4.34], [-2.170638, 47.241884, 4.31], [-2.170616, 47.241774, 4.28], [-2.170616, 47.241652, 4.25], [-2.170669, 47.241541, 4.22], [-2.170655, 47.241417, 4.19], [-2.170666, 47.241315, 4.16], [-2.170684, 47.241205, 4.14], [-2.170714, 47.241096, 4.11], [-2.170747, 47.240987, 4.08], [-2.170795, 47.240873, 4.05], [-2.170774, 47.240778, 4.03], [-2.170785, 47.240673, 4.0], [-2.17082, 47.240559, 4.01], [-2.170852, 47.240444, 4.01], [-2.170886, 47.24032, 4.01], [-2.170922, 47.240199, 4.02], [-2.170937, 47.240095, 4.02], [-2.171017, 47.240005, 4.03], [-2.171002, 47.239877, 4.03], [-2.171069, 47.239765, 4.04], [-2.171091, 47.239661, 4.04], [-2.171141, 47.239573, 4.04], [-2.171176, 47.239462, 4.05], [-2.171054, 47.239391, 4.05], [-2.170918, 47.239394, 4.06], [-2.170828, 47.239319, 4.06], [-2.170666, 47.239294, 4.06], [-2.170535, 47.239247, 4.07], [-2.170391, 47.239238, 4.09], [-2.170259, 47.239204, 4.12], [-2.17012, 47.239159, 4.16], [-2.169955, 47.239117, 4.2], [-2.169811, 47.239067, 4.24], [-2.169672, 47.239035, 4.28], [-2.169547, 47.239002, 4.31], [-2.169406, 47.238944, 4.35], [-2.169403, 47.238837, 4.39], [-2.169449, 47.238742, 4.42], [-2.169504, 47.238645, 4.46], [-2.169581, 47.238564, 4.5], [-2.169694, 47.238473, 4.54], [-2.169807, 47.238396, 4.58], [-2.169926, 47.238317, 4.62], [-2.170059, 47.238251, 4.66], [-2.170193, 47.238186, 4.7], [-2.17029, 47.238089, 4.77], [-2.170367, 47.238002, 4.84], [-2.170419, 47.237898, 4.92], [-2.170524, 47.237811, 5.01], [-2.170619, 47.237728, 5.08], [-2.170697, 47.23763, 5.17], [-2.170819, 47.23755, 5.25], [-2.170932, 47.237463, 5.34], [-2.17107, 47.237396, 5.42], [-2.171171, 47.237328, 5.49], [-2.171261, 47.237257, 5.56], [-2.171375, 47.237174, 5.65], [-2.171482, 47.237086, 5.73], [-2.171564, 47.237014, 5.8], [-2.171653, 47.236938, 5.87], [-2.171793, 47.236867, 5.96], [-2.171849, 47.236767, 6.03], [-2.171969, 47.236677, 6.02], [-2.172065, 47.236592, 6.01], [-2.17216, 47.236518, 5.99], [-2.172282, 47.236453, 5.98], [-2.172427, 47.2364, 5.97], [-2.172596, 47.236353, 5.95], [-2.17277, 47.236314, 5.93], [-2.172923, 47.236268, 5.92], [-2.173085, 47.236249, 5.91], [-2.173239, 47.236186, 5.89], [-2.173367, 47.236153, 5.88], [-2.173544, 47.236129, 5.86], [-2.173697, 47.2361, 5.85], [-2.173832, 47.23607, 5.84], [-2.173998, 47.236027, 5.82], [-2.174138, 47.235972, 5.81], [-2.174258, 47.235928, 5.89], [-2.174397, 47.235885, 6.01], [-2.17453, 47.235839, 6.12], [-2.174666, 47.235782, 6.24], [-2.174801, 47.23574, 6.35], [-2.174943, 47.235705, 6.46], [-2.175091, 47.235636, 6.59], [-2.175224, 47.235637, 6.69], [-2.175358, 47.23559, 6.8], [-2.175404, 47.235496, 6.91], [-2.175501, 47.235415, 7.02], [-2.175564, 47.235319, 7.14], [-2.175596, 47.235213, 7.25], [-2.175596, 47.235103, 7.37], [-2.175585, 47.234984, 7.5], [-2.175577, 47.234863, 7.64], [-2.175566, 47.234742, 7.77], [-2.175547, 47.234649, 7.79], [-2.175509, 47.23453, 7.82], [-2.175481, 47.23442, 7.85], [-2.17545, 47.234318, 7.88], [-2.17542, 47.234219, 7.9], [-2.175417, 47.234128, 7.92], [-2.175412, 47.234028, 7.95], [-2.175374, 47.233913, 7.98], [-2.175363, 47.233795, 8.01], [-2.175399, 47.233673, 8.04], [-2.175473, 47.233581, 8.07], [-2.175585, 47.233524, 8.09], [-2.175739, 47.233471, 8.12], [-2.175908, 47.233453, 8.15], [-2.176084, 47.233456, 8.18], [-2.176238, 47.23345, 8.21], [-2.17641, 47.233437, 8.23], [-2.17657, 47.233432, 8.24], [-2.176745, 47.233423, 8.26], [-2.17693, 47.23342, 8.27], [-2.177118, 47.233414, 8.28], [-2.177282, 47.233409, 8.29], [-2.177433, 47.233402, 8.31], [-2.177599, 47.23339, 8.32], [-2.177761, 47.233377, 8.33], [-2.177919, 47.233343, 8.34], [-2.178065, 47.233303, 8.35], [-2.178222, 47.233247, 8.37], [-2.178365, 47.23318, 8.38], [-2.178495, 47.233115, 8.39], [-2.17861, 47.233035, 8.4], [-2.178724, 47.232947, 8.41], [-2.178813, 47.232865, 8.43], [-2.178887, 47.232771, 8.45], [-2.17895, 47.232678, 8.47], [-2.178957, 47.232557, 8.49], [-2.178993, 47.232439, 8.51], [-2.17902, 47.232317, 8.53], [-2.179059, 47.232128, 8.57], [-2.179064, 47.232013, 8.59], [-2.179057, 47.231893, 8.61], [-2.179059, 47.231801, 8.62], [-2.179016, 47.231705, 8.64], [-2.178976, 47.231614, 8.66], [-2.178923, 47.231517, 8.68], [-2.178875, 47.231418, 8.69], [-2.178801, 47.231324, 8.71], [-2.178722, 47.231235, 8.73], [-2.178626, 47.231134, 8.79], [-2.178504, 47.231034, 8.85], [-2.17839, 47.23094, 8.91], [-2.178269, 47.230836, 8.97], [-2.178181, 47.230764, 9.02], [-2.178075, 47.230665, 9.08], [-2.177955, 47.230559, 9.14], [-2.177833, 47.230454, 9.21], [-2.177705, 47.230352, 9.27], [-2.177618, 47.23028, 9.32], [-2.177533, 47.230205, 9.36], [-2.177441, 47.230128, 9.41], [-2.177354, 47.230055, 9.46], [-2.177233, 47.229958, 9.52], [-2.177104, 47.22986, 9.58], [-2.177016, 47.22978, 9.61], [-2.176937, 47.229699, 9.62], [-2.176897, 47.229608, 9.63], [-2.176862, 47.229506, 9.65], [-2.176783, 47.229407, 9.66], [-2.17672, 47.229328, 9.67], [-2.176621, 47.229225, 9.69], [-2.176492, 47.229131, 9.7], [-2.176406, 47.229062, 9.72], [-2.176278, 47.228962, 9.73], [-2.176153, 47.228866, 9.75], [-2.176039, 47.228775, 9.76], [-2.175917, 47.228711, 9.78], [-2.175819, 47.228619, 9.79], [-2.175675, 47.228612, 9.8], [-2.175529, 47.228554, 9.82], [-2.175413, 47.228482, 9.84], [-2.175346, 47.228387, 9.93], [-2.1753, 47.228298, 10.02], [-2.175426, 47.228332, 10.1], [-2.173745, 47.227217, 11.47], [-2.173607, 47.227118, 11.51], [-2.173495, 47.227018, 11.55], [-2.173366, 47.226926, 11.59], [-2.173245, 47.22683, 11.63], [-2.173131, 47.226733, 11.67], [-2.173034, 47.22666, 11.7], [-2.172941, 47.226585, 11.73], [-2.172852, 47.226498, 11.77], [-2.172734, 47.226417, 11.81], [-2.172626, 47.226333, 11.84], [-2.172512, 47.226247, 11.88], [-2.1724, 47.226159, 11.92], [-2.172288, 47.226075, 11.95], [-2.172178, 47.225991, 11.99], [-2.172073, 47.225906, 12.02], [-2.17196, 47.225826, 12.04], [-2.171863, 47.225741, 12.05], [-2.171759, 47.225664, 12.07], [-2.171662, 47.225584, 12.09], [-2.17156, 47.225505, 12.1], [-2.171457, 47.225426, 12.12], [-2.171354, 47.225344, 12.14], [-2.171248, 47.225269, 12.15], [-2.17115, 47.22519, 12.17], [-2.171048, 47.225115, 12.19], [-2.170948, 47.22504, 12.2], [-2.170865, 47.224957, 12.22], [-2.170775, 47.224878, 12.23], [-2.170686, 47.224806, 12.25], [-2.170597, 47.22473, 12.26], [-2.170512, 47.22465, 12.28], [-2.17041, 47.224569, 12.3], [-2.170312, 47.224489, 12.27], [-2.170223, 47.224413, 12.25], [-2.170128, 47.224329, 12.22], [-2.17002, 47.224242, 12.19], [-2.169914, 47.224151, 12.16], [-2.169803, 47.224053, 12.13], [-2.169688, 47.223962, 12.1], [-2.169582, 47.223861, 12.07], [-2.169466, 47.223766, 12.04], [-2.169352, 47.223672, 12.01], [-2.169241, 47.223574, 11.98], [-2.169129, 47.223475, 11.95], [-2.169019, 47.223379, 11.91], [-2.168905, 47.223286, 11.88], [-2.168801, 47.223186, 11.85], [-2.168694, 47.223093, 11.81], [-2.168584, 47.223, 11.76], [-2.168472, 47.222909, 11.71], [-2.168366, 47.222815, 11.67], [-2.168257, 47.222718, 11.62], [-2.168151, 47.222626, 11.57], [-2.168044, 47.222532, 11.52], [-2.167926, 47.222445, 11.47], [-2.167772, 47.222377, 11.42], [-2.167638, 47.222303, 11.37], [-2.167506, 47.222224, 11.32], [-2.167379, 47.222142, 11.27], [-2.167259, 47.22206, 11.23], [-2.167152, 47.221971, 11.18], [-2.167035, 47.221883, 11.13], [-2.166936, 47.221789, 11.11], [-2.16683, 47.221694, 11.12], [-2.16672, 47.221599, 11.13], [-2.16661, 47.221499, 11.13], [-2.166507, 47.221406, 11.14], [-2.166399, 47.221317, 11.15], [-2.166298, 47.221219, 11.16], [-2.166187, 47.221126, 11.17], [-2.166074, 47.221034, 11.18], [-2.165966, 47.220935, 11.19], [-2.165854, 47.220838, 11.2], [-2.165748, 47.220739, 11.2], [-2.165646, 47.220638, 11.21], [-2.165529, 47.22055, 11.22], [-2.165432, 47.220458, 11.23], [-2.165324, 47.220365, 11.23], [-2.165219, 47.220272, 11.21], [-2.16511, 47.22018, 11.18], [-2.165009, 47.220087, 11.16], [-2.164913, 47.219995, 11.14], [-2.164835, 47.219901, 11.12], [-2.164721, 47.219819, 11.1], [-2.164598, 47.219747, 11.09], [-2.164479, 47.21967, 11.07], [-2.164349, 47.219604, 11.05], [-2.164218, 47.219534, 11.03], [-2.16409, 47.219458, 11.01], [-2.163948, 47.219385, 10.98], [-2.163806, 47.219311, 10.96], [-2.163669, 47.219234, 10.94], [-2.163532, 47.219153, 10.92], [-2.163387, 47.219089, 10.81], [-2.163246, 47.219012, 10.69], [-2.163115, 47.21893, 10.57], [-2.162983, 47.218854, 10.45], [-2.162834, 47.218795, 10.33], [-2.162706, 47.21871, 10.21], [-2.162574, 47.218643, 10.1], [-2.162443, 47.218579, 9.99], [-2.162368, 47.218471, 9.87], [-2.162298, 47.218342, 9.73], [-2.162247, 47.218219, 9.61], [-2.162191, 47.218104, 9.48], [-2.162141, 47.217985, 9.36], [-2.162064, 47.217864, 9.23], [-2.161987, 47.217745, 9.1], [-2.161921, 47.21762, 9.01], [-2.161858, 47.217496, 8.92], [-2.161796, 47.217373, 8.83], [-2.161723, 47.217263, 8.75], [-2.161666, 47.217151, 8.66], [-2.161609, 47.217045, 8.58], [-2.161538, 47.216944, 8.51], [-2.161475, 47.216838, 8.43], [-2.161413, 47.216725, 8.34], [-2.161348, 47.216615, 8.26], [-2.161289, 47.216508, 8.18], [-2.161215, 47.216401, 8.1], [-2.161135, 47.216291, 8.01], [-2.161071, 47.216183, 7.93], [-2.16101, 47.216071, 7.84], [-2.160936, 47.215963, 7.73], [-2.160861, 47.215855, 7.62], [-2.160792, 47.215749, 7.51], [-2.16072, 47.215638, 7.39], [-2.160656, 47.215525, 7.28], [-2.160592, 47.215411, 7.16], [-2.160527, 47.215302, 7.05], [-2.160465, 47.215191, 6.94], [-2.160393, 47.215086, 6.83], [-2.160316, 47.214983, 6.72], [-2.160249, 47.214877, 6.61], [-2.160194, 47.214768, 6.5], [-2.160132, 47.214658, 6.39], [-2.160068, 47.214547, 6.28], [-2.160009, 47.214432, 6.17], [-2.159946, 47.214314, 6.04], [-2.159874, 47.214194, 5.92], [-2.159804, 47.214069, 5.79], [-2.159719, 47.213946, 5.65], [-2.159629, 47.213825, 5.52], [-2.15956, 47.213703, 5.39], [-2.159515, 47.213572, 5.26], [-2.159441, 47.213466, 5.15], [-2.159388, 47.213355, 5.03], [-2.15931, 47.213251, 4.92], [-2.159242, 47.213139, 4.8], [-2.159183, 47.21303, 4.69], [-2.159115, 47.212919, 4.57], [-2.159046, 47.212815, 4.46], [-2.158977, 47.212716, 4.44], [-2.158908, 47.212619, 4.49], [-2.158825, 47.212523, 4.56], [-2.158741, 47.212426, 4.62], [-2.158645, 47.212334, 4.68], [-2.158552, 47.212237, 4.74], [-2.158443, 47.212148, 4.81], [-2.158327, 47.212062, 4.87], [-2.158208, 47.211973, 4.93], [-2.158086, 47.211897, 5.0], [-2.15796, 47.21182, 5.06], [-2.157842, 47.211745, 5.12], [-2.157724, 47.211677, 5.18], [-2.157627, 47.21161, 5.23], [-2.157526, 47.211544, 5.28], [-2.157462, 47.211413, 5.35], [-2.157426, 47.21131, 5.43], [-2.157387, 47.211211, 5.51], [-2.157354, 47.211108, 5.6], [-2.157308, 47.211007, 5.69], [-2.157278, 47.210903, 5.78], [-2.157242, 47.210801, 5.87], [-2.157199, 47.210701, 5.96], [-2.157172, 47.210603, 6.04], [-2.15714, 47.210507, 6.13], [-2.157111, 47.210414, 6.21], [-2.157069, 47.210313, 6.3], [-2.157032, 47.210217, 6.38], [-2.156992, 47.210119, 6.47], [-2.156961, 47.210012, 6.56], [-2.156925, 47.209912, 6.65], [-2.156885, 47.209803, 6.74], [-2.156847, 47.209692, 6.84], [-2.156804, 47.209578, 6.94], [-2.156774, 47.209468, 7.02], [-2.156743, 47.209361, 7.1], [-2.156708, 47.209256, 7.18], [-2.156674, 47.209142, 7.27], [-2.156636, 47.209034, 7.35], [-2.156596, 47.208924, 7.43], [-2.156549, 47.208812, 7.52], [-2.156509, 47.208695, 7.61], [-2.156469, 47.20858, 7.69], [-2.156429, 47.208463, 7.78], [-2.15639, 47.208346, 7.87], [-2.15634, 47.208235, 7.96], [-2.156306, 47.208117, 8.05], [-2.156269, 47.208003, 8.13], [-2.156232, 47.207888, 8.22], [-2.156191, 47.207775, 8.33], [-2.156157, 47.207661, 8.44], [-2.156123, 47.207552, 8.55], [-2.156072, 47.207436, 8.67], [-2.156028, 47.207323, 8.78], [-2.155994, 47.207209, 8.9], [-2.155954, 47.207095, 9.01], [-2.155917, 47.206983, 9.12], [-2.155872, 47.206871, 9.24], [-2.15582, 47.206765, 9.34], [-2.155783, 47.206662, 9.45], [-2.155742, 47.206566, 9.55], [-2.155756, 47.206469, 9.64], [-2.155852, 47.206369, 9.76], [-2.155817, 47.206233, 9.89], [-2.155682, 47.206169, 10.0], [-2.155546, 47.206088, 10.11], [-2.15553, 47.205962, 10.23], [-2.155498, 47.205848, 10.34], [-2.15545, 47.205738, 10.44], [-2.155408, 47.205632, 10.54], [-2.15538, 47.205518, 10.65], [-2.155334, 47.205411, 10.75], [-2.155295, 47.205304, 10.85], [-2.155239, 47.205195, 10.96], [-2.155196, 47.205092, 11.06], [-2.155171, 47.204976, 11.17], [-2.155129, 47.204857, 11.28], [-2.155065, 47.204729, 11.4], [-2.155023, 47.204614, 11.51], [-2.154966, 47.204501, 11.62], [-2.154895, 47.204393, 11.73], [-2.154809, 47.204289, 11.83], [-2.154716, 47.204204, 11.92], [-2.154615, 47.204113, 12.02], [-2.154526, 47.204019, 12.12], [-2.154417, 47.203933, 12.21], [-2.154299, 47.203848, 12.31], [-2.154185, 47.203765, 12.41], [-2.154027, 47.203705, 12.52], [-2.15389, 47.203643, 12.61], [-2.153766, 47.203589, 12.7], [-2.153649, 47.20354, 12.78], [-2.15353, 47.203478, 12.87], [-2.153414, 47.203429, 12.95], [-2.153272, 47.203401, 13.04], [-2.153158, 47.203353, 13.11], [-2.153055, 47.20329, 13.2], [-2.152935, 47.203247, 13.22], [-2.152827, 47.203191, 13.24], [-2.152732, 47.203126, 13.26], [-2.152594, 47.203034, 13.29], [-2.152508, 47.202933, 13.32], [-2.152424, 47.20281, 13.35], [-2.152411, 47.202686, 13.37], [-2.152463, 47.20257, 13.4], [-2.152519, 47.20246, 13.43], [-2.152583, 47.202367, 13.45], [-2.152631, 47.20225, 13.47], [-2.152688, 47.202147, 13.5], [-2.152735, 47.202058, 13.52], [-2.152797, 47.201942, 13.55], [-2.152838, 47.20183, 13.57], [-2.152905, 47.20173, 13.59], [-2.152974, 47.201631, 13.76], [-2.153015, 47.201528, 13.93], [-2.153049, 47.201419, 14.11], [-2.153091, 47.201308, 14.3], [-2.153109, 47.201196, 14.48], [-2.153128, 47.201092, 14.65], [-2.153143, 47.200981, 14.83], [-2.153166, 47.200876, 15.01], [-2.153173, 47.200769, 15.18], [-2.153184, 47.200658, 15.36], [-2.153165, 47.200552, 15.54], [-2.153168, 47.200447, 15.71], [-2.153151, 47.200346, 15.87], [-2.153139, 47.200239, 16.05], [-2.153141, 47.200134, 16.22], [-2.153113, 47.200037, 16.38], [-2.153088, 47.199925, 16.58], [-2.153066, 47.199814, 16.83], [-2.153043, 47.199712, 17.06], [-2.153029, 47.199611, 17.28], [-2.152995, 47.199517, 17.5], [-2.152971, 47.199408, 17.74], [-2.152946, 47.199282, 18.03], [-2.152926, 47.199172, 18.27], [-2.15292, 47.199058, 18.53], [-2.152884, 47.19894, 18.79], [-2.152856, 47.198819, 19.06], [-2.152848, 47.198682, 19.37], [-2.152812, 47.198557, 19.65], [-2.152821, 47.198427, 19.94], [-2.152815, 47.19831, 20.2], [-2.152787, 47.198205, 20.44], [-2.152772, 47.198083, 20.43], [-2.152753, 47.197967, 20.3], [-2.15276, 47.197874, 20.19], [-2.152751, 47.197781, 20.09], [-2.152776, 47.197653, 19.94], [-2.152792, 47.197524, 19.8], [-2.152843, 47.197418, 19.67], [-2.152912, 47.197323, 19.55], [-2.152984, 47.197239, 19.44], [-2.153058, 47.197152, 19.33], [-2.153177, 47.197219, 19.21], [-2.153322, 47.197208, 19.1], [-2.153508, 47.197182, 18.95], [-2.153698, 47.197145, 18.8], [-2.153839, 47.197142, 18.69], [-2.153984, 47.19711, 18.58], [-2.154153, 47.197096, 18.35], [-2.154317, 47.197069, 17.98], [-2.154482, 47.197056, 17.62], [-2.154654, 47.197065, 17.24], [-2.154838, 47.197073, 16.83], [-2.155009, 47.197069, 16.46], [-2.155205, 47.197068, 16.03], [-2.155398, 47.19707, 15.6], [-2.155623, 47.197062, 15.11], [-2.155844, 47.197052, 14.62], [-2.15606, 47.19703, 14.14], [-2.156224, 47.197032, 13.78], [-2.156408, 47.19702, 13.37], [-2.156584, 47.196974, 12.96], [-2.156661, 47.19689, 12.66], [-2.156619, 47.196786, 12.55], [-2.156489, 47.19673, 12.43], [-2.156548, 47.196819, 12.33], [-2.156653, 47.196874, 12.23], [-2.156769, 47.196927, 12.13], [-2.156901, 47.196966, 12.02], [-2.157035, 47.197022, 11.91], [-2.157165, 47.197064, 11.8], [-2.157303, 47.197074, 11.7], [-2.157439, 47.197046, 11.59], [-2.157534, 47.196885, 11.41], [-2.157566, 47.196786, 11.3], [-2.157594, 47.196679, 11.18], [-2.157638, 47.196562, 11.05], [-2.157694, 47.196444, 10.91], [-2.157735, 47.196319, 10.77], [-2.157804, 47.196199, 10.82], [-2.157873, 47.196072, 10.97], [-2.157916, 47.195987, 11.07], [-2.157988, 47.195861, 11.21], [-2.158039, 47.195776, 11.31], [-2.158085, 47.195683, 11.42], [-2.158157, 47.195563, 11.56], [-2.158231, 47.195484, 11.66], [-2.158284, 47.195394, 11.77], [-2.158358, 47.19531, 11.88], [-2.158448, 47.195228, 11.99], [-2.158567, 47.195154, 12.11], [-2.158672, 47.195071, 12.23], [-2.158788, 47.194997, 12.34], [-2.158906, 47.194928, 12.46], [-2.159028, 47.194859, 12.58], [-2.159127, 47.194785, 12.68], [-2.159253, 47.194708, 12.69], [-2.159354, 47.194619, 12.69], [-2.159427, 47.194519, 12.69], [-2.15949, 47.194419, 12.69], [-2.159552, 47.194327, 12.69], [-2.159592, 47.194223, 12.69], [-2.159612, 47.194115, 12.7], [-2.159652, 47.194012, 12.7], [-2.159691, 47.193911, 12.7], [-2.159715, 47.19381, 12.7], [-2.159776, 47.193727, 12.7], [-2.15991, 47.193632, 12.7], [-2.160051, 47.1936, 12.71], [-2.160206, 47.193569, 12.71], [-2.160337, 47.193537, 12.71], [-2.160522, 47.19351, 12.71], [-2.160644, 47.19347, 12.71], [-2.160748, 47.193413, 12.7], [-2.160863, 47.193313, 12.69], [-2.160891, 47.193217, 12.68], [-2.160917, 47.193124, 12.68], [-2.160903, 47.193024, 12.67], [-2.160904, 47.192934, 12.66], [-2.16091, 47.192824, 12.65], [-2.1609, 47.192711, 12.65], [-2.160883, 47.19259, 12.64], [-2.160873, 47.192463, 12.63], [-2.160861, 47.192343, 12.62], [-2.160853, 47.192238, 12.61], [-2.16085, 47.192123, 12.6], [-2.160843, 47.192026, 12.59], [-2.16083, 47.191909, 12.59], [-2.160813, 47.191775, 12.58], [-2.16079, 47.191686, 12.66], [-2.160763, 47.191595, 12.75], [-2.160735, 47.1915, 12.85], [-2.160717, 47.191404, 12.95], [-2.160682, 47.191309, 13.05], [-2.160662, 47.191218, 13.14], [-2.160614, 47.1911, 13.27], [-2.160685, 47.191022, 13.36], [-2.160621, 47.190899, 13.49], [-2.160603, 47.190807, 13.59], [-2.160593, 47.190712, 13.68], [-2.160566, 47.190619, 13.78], [-2.160544, 47.190529, 13.87], [-2.160503, 47.190401, 14.0], [-2.160461, 47.190272, 14.14], [-2.160432, 47.190181, 14.23], [-2.160414, 47.190089, 14.33], [-2.160398, 47.189998, 14.44], [-2.160383, 47.189907, 14.65], [-2.16039, 47.189815, 14.85], [-2.16038, 47.189721, 15.06], [-2.160368, 47.189623, 15.27], [-2.160361, 47.18952, 15.5], [-2.160343, 47.189424, 15.71], [-2.160298, 47.189334, 15.92], [-2.160273, 47.189239, 16.14], [-2.160218, 47.189144, 16.36], [-2.160138, 47.189053, 16.6], [-2.160088, 47.188945, 16.85], [-2.160118, 47.188829, 17.11], [-2.160125, 47.188726, 17.33], [-2.160095, 47.188635, 17.54], [-2.159968, 47.188543, 17.82], [-2.15983, 47.188476, 18.07], [-2.15969, 47.188405, 18.33], [-2.159566, 47.188311, 18.5], [-2.159455, 47.188225, 18.63], [-2.159434, 47.188101, 18.78], [-2.159463, 47.188009, 18.9], [-2.159481, 47.187917, 19.01], [-2.159508, 47.187823, 19.12], [-2.159547, 47.187724, 19.24], [-2.15958, 47.187618, 19.37], [-2.159621, 47.187513, 19.5], [-2.159666, 47.187407, 19.63], [-2.159696, 47.187304, 19.76], [-2.159725, 47.187205, 19.88], [-2.159758, 47.187103, 20.01], [-2.159763, 47.186998, 20.13], [-2.159794, 47.186898, 20.25], [-2.159839, 47.18679, 20.39], [-2.159883, 47.186688, 20.51], [-2.15993, 47.186586, 20.33], [-2.159957, 47.186479, 20.15], [-2.159988, 47.18637, 19.96], [-2.160025, 47.186268, 19.78], [-2.160074, 47.186162, 19.59], [-2.160144, 47.186055, 19.39], [-2.160212, 47.185943, 19.19], [-2.160285, 47.185827, 18.97], [-2.16037, 47.185715, 18.76], [-2.160445, 47.185608, 18.56], [-2.160521, 47.185495, 18.35], [-2.160604, 47.185392, 18.15], [-2.160692, 47.18529, 17.95], [-2.160784, 47.185191, 17.75], [-2.160868, 47.185086, 17.54], [-2.160965, 47.184983, 17.19], [-2.161048, 47.184881, 16.76], [-2.161144, 47.184771, 16.29], [-2.161245, 47.18466, 15.8], [-2.161319, 47.184537, 15.31], [-2.16139, 47.18441, 14.81], [-2.161446, 47.184282, 14.32], [-2.161518, 47.184164, 13.85], [-2.161577, 47.184045, 13.38], [-2.161634, 47.183926, 12.92], [-2.161687, 47.183804, 12.45], [-2.161728, 47.183681, 11.98], [-2.161732, 47.183559, 11.53], [-2.161755, 47.183442, 11.1], [-2.16183, 47.183332, 10.71], [-2.1619, 47.183222, 10.44], [-2.161989, 47.183123, 10.18], [-2.162047, 47.183016, 9.92], [-2.162128, 47.182913, 9.65], [-2.162199, 47.182801, 9.38], [-2.162215, 47.182672, 9.08], [-2.162147, 47.18254, 8.76], [-2.162066, 47.182389, 8.4], [-2.161974, 47.182236, 8.02], [-2.161898, 47.182075, 7.64], [-2.161884, 47.181918, 7.28], [-2.161944, 47.18178, 6.96], [-2.162004, 47.181648, 6.75], [-2.162058, 47.181531, 6.8], [-2.162112, 47.181423, 6.84], [-2.16216, 47.181319, 6.89], [-2.16221, 47.181219, 6.93], [-2.16226, 47.181124, 6.97], [-2.162324, 47.181034, 7.01], [-2.162379, 47.180944, 7.05], [-2.162451, 47.180856, 7.09], [-2.162499, 47.180756, 7.13], [-2.162561, 47.18065, 7.18], [-2.16264, 47.180552, 7.22], [-2.162701, 47.180448, 7.27], [-2.162774, 47.180351, 7.31], [-2.162855, 47.180254, 7.36], [-2.162931, 47.180152, 7.4], [-2.163013, 47.180051, 7.45], [-2.163095, 47.179953, 7.46], [-2.163178, 47.179851, 7.47], [-2.163221, 47.179733, 7.47], [-2.163246, 47.179615, 7.48], [-2.163271, 47.179498, 7.49], [-2.163291, 47.179384, 7.5], [-2.163291, 47.179269, 7.5], [-2.163301, 47.179151, 7.51], [-2.163318, 47.179035, 7.52], [-2.16334, 47.178921, 7.53], [-2.163347, 47.178808, 7.53], [-2.163356, 47.178685, 7.54], [-2.163363, 47.178567, 7.55], [-2.16338, 47.178451, 7.55], [-2.163394, 47.178337, 7.56], [-2.163412, 47.178218, 7.55], [-2.163418, 47.178097, 7.53], [-2.163448, 47.177978, 7.5], [-2.16348, 47.177857, 7.47], [-2.16351, 47.177737, 7.45], [-2.163544, 47.177618, 7.42], [-2.163573, 47.177496, 7.39], [-2.1636, 47.177379, 7.37], [-2.163641, 47.177265, 7.34], [-2.163671, 47.177146, 7.31], [-2.163739, 47.177034, 7.29], [-2.163704, 47.17692, 7.26], [-2.163695, 47.1768, 7.23], [-2.163695, 47.176678, 7.21], [-2.163724, 47.176553, 7.18], [-2.16376, 47.176439, 7.21], [-2.163794, 47.176327, 7.27], [-2.163826, 47.176221, 7.33], [-2.163852, 47.176123, 7.39], [-2.163877, 47.176025, 7.44], [-2.163901, 47.175926, 7.5], [-2.164069, 47.17585, 7.58], [-2.164055, 47.175755, 7.63], [-2.163964, 47.175659, 7.69], [-2.164037, 47.175555, 7.76], [-2.164065, 47.175445, 7.82], [-2.164099, 47.175335, 7.88], [-2.164126, 47.175227, 7.95], [-2.164176, 47.175126, 8.01], [-2.16422, 47.175028, 8.06], [-2.164243, 47.174923, 8.12], [-2.164263, 47.174815, 8.19], [-2.16429, 47.174707, 8.29], [-2.164325, 47.1746, 8.39], [-2.164351, 47.174485, 8.5], [-2.164392, 47.17438, 8.6], [-2.164383, 47.174271, 8.71], [-2.164424, 47.17415, 8.82], [-2.164457, 47.174033, 8.93], [-2.164484, 47.173922, 9.04], [-2.164512, 47.173809, 9.15], [-2.164532, 47.173696, 9.25], [-2.164548, 47.173585, 9.36], [-2.164585, 47.173472, 9.46], [-2.164622, 47.173359, 9.57], [-2.164646, 47.173245, 9.68], [-2.164683, 47.173136, 9.78], [-2.164712, 47.173025, 9.86], [-2.164738, 47.172915, 9.86], [-2.164776, 47.172803, 9.86], [-2.164815, 47.172692, 9.86], [-2.164849, 47.172582, 9.86], [-2.164887, 47.172474, 9.86], [-2.164912, 47.172364, 9.86], [-2.164937, 47.172251, 9.86], [-2.164965, 47.172134, 9.86], [-2.165001, 47.172023, 9.86], [-2.165057, 47.171916, 9.86], [-2.165095, 47.171811, 9.86], [-2.165113, 47.171711, 9.86], [-2.16518, 47.171616, 9.86]]}, "properties": {"name": "🚲 Vélodyssée - N°1 - Saint-Brévin-les-Pins  ➡️ Saint-Michel-Chef-Chef", "source_file": "velodyssee_etape-1_saint-brevin-les-pins_saint-michel-chef-chef.gpx", "point_count": 1006, "distance_km": 12.88, "duration_s": 11756, "elevation_gain_m": 42.1, "elevation_loss_m": 35.0}}]}
