{"type": "FeatureCollection", "features": [{"type": "Feature", "geometry": {"type": "LineString", "coordinates": [[-2.104191, 47.115535], [-2.103063, 47.115697], [-2.102498, 47.115935], [-2.100788, 47.115656], [-2.099654, 47.115804], [-2.098871, 47.115532], [-2.09856, 47.114597], [-2.097949, 47.11422], [-2.098106, 47.113474], [-2.097769, 47.111888], [-2.097887, 47.11033], [-2.095423, 47.109641], [-2.092792, 47.108491], [-2.091134, 47.108183], [-2.090701, 47.107807], [-2.090698, 47.107618], [-2.089617, 47.107393], [-2.088789, 47.107692], [-2.088229, 47.107712], [-2.086348, 47.107182], [-2.084958, 47.107013], [-2.080457, 47.10472], [-2.079944, 47.104248], [-2.078578, 47.103878], [-2.076835, 47.104131], [-2.074718, 47.103499], [-2.073151, 47.103845], [-2.07189, 47.104374], [-2.070643, 47.104451], [-2.069213, 47.104958], [-2.064988, 47.102878], [-2.06346, 47.1023], [-2.062416, 47.101323], [-2.060603, 47.100637], [-2.060789, 47.100145], [-2.060699, 47.099804], [-2.060093, 47.099153], [-2.059025, 47.098484], [-2.056298, 47.097639], [-2.055235, 47.096777], [-2.052811, 47.095787], [-2.051319, 47.0958], [-2.049564, 47.096812], [-2.047866, 47.096033], [-2.046815, 47.096349], [-2.044827, 47.096261], [-2.044836, 47.095739], [-2.042639, 47.094036], [-2.043306, 47.093511], [-2.043684, 47.092756], [-2.043628, 47.092167], [-2.042906, 47.091672], [-2.043626, 47.09112], [-2.042251, 47.090295], [-2.040274, 47.089399], [-2.039195, 47.090241], [-2.036984, 47.089528], [-2.035202, 47.087804], [-2.033495, 47.086815], [-2.033128, 47.08635], [-2.030489, 47.085193], [-2.031186, 47.083955], [-2.030037, 47.084193], [-2.027352, 47.083826], [-2.026202, 47.083564], [-2.023424, 47.08247], [-2.023475, 47.081632], [-2.023072, 47.080664], [-2.023729, 47.079823], [-2.023773, 47.07868], [-2.022784, 47.07729], [-2.01717, 47.072721], [-2.016884, 47.072643], [-2.01682, 47.072408], [-2.014728, 47.07087], [-2.013715, 47.070818], [-2.013001, 47.071157], [-2.01155, 47.070906], [-2.012341, 47.069968], [-2.011735, 47.068325], [-2.012548, 47.068678], [-2.012634, 47.068145], [-2.01163, 47.067569], [-2.0104, 47.065842], [-2.009068, 47.064793], [-2.006739, 47.063396], [-2.006234, 47.06333], [-2.002136, 47.061332], [-2.002364, 47.060804], [-1.998393, 47.057155], [-1.997999, 47.056493], [-1.996207, 47.054446], [-1.995713, 47.054122], [-1.994413, 47.053744], [-1.993855, 47.052886], [-1.992626, 47.052428], [-1.992314, 47.051738], [-1.99059, 47.050756], [-1.990457, 47.050418], [-1.990574, 47.049243], [-1.991225, 47.047996], [-1.99153, 47.046377], [-1.991205, 47.044872], [-1.990711, 47.044151], [-1.990565, 47.043569], [-1.988489, 47.040843], [-1.986153, 47.039425], [-1.985336, 47.03872], [-1.98514, 47.038218], [-1.985439, 47.036697], [-1.985327, 47.036296], [-1.981565, 47.032], [-1.980392, 47.031253], [-1.978672, 47.02951], [-1.977211, 47.029183], [-1.975505, 47.029112], [-1.975535, 47.028615], [-1.975688, 47.028574], [-1.97862, 47.028579], [-1.978826, 47.02833], [-1.979179, 47.02827], [-1.980051, 47.027351], [-1.981493, 47.026531], [-1.996907, 47.018461], [-1.997975, 47.018207], [-1.998137, 47.018055], [-1.998117, 47.017611], [-1.998487, 47.017615], [-1.99869, 47.017991], [-1.999089, 47.018107], [-2.010055, 47.016597], [-2.010789, 47.016102], [-2.011393, 47.015982], [-2.011802, 47.015416], [-2.012923, 47.014652], [-2.013018, 47.01418], [-2.013541, 47.013798], [-2.017014, 47.012182], [-2.0172, 47.011879], [-2.019154, 47.011758], [-2.019731, 47.011545], [-2.020149, 47.011057], [-2.022804, 47.010137], [-2.025536, 47.00925], [-2.027382, 47.009085], [-2.027123, 47.007229], [-2.025915, 47.006967], [-2.025657, 47.00667], [-2.028031, 47.001438], [-2.02818, 46.999227], [-2.028902, 46.998665], [-2.029023, 46.997966], [-2.02661, 46.997419], [-2.026774, 46.996254], [-2.029596, 46.990744], [-2.030391, 46.990038], [-2.030472, 46.989481], [-2.031507, 46.98877], [-2.031381, 46.988329], [-2.030806, 46.987638], [-2.029387, 46.986754], [-2.0292, 46.985814], [-2.031445, 46.984815], [-2.031115, 46.983681], [-2.031061, 46.982628], [-2.030506, 46.982373], [-2.030692, 46.981775], [-2.03221, 46.981471], [-2.032546, 46.980637], [-2.032485, 46.979801], [-2.033923, 46.979475], [-2.034844, 46.977942], [-2.034797, 46.976273], [-2.034024, 46.97499], [-2.033806, 46.97421], [-2.033722, 46.973573], [-2.033965, 46.972538], [-2.033934, 46.971437], [-2.033491, 46.970773], [-2.033446, 46.968941], [-2.033499, 46.968817], [-2.036859, 46.968742], [-2.041927, 46.968142], [-2.04345, 46.967742], [-2.044002, 46.966504], [-2.042424, 46.957066], [-2.047566, 46.949601], [-2.04334, 46.948143], [-2.043355, 46.947856], [-2.045161, 46.945811], [-2.047595, 46.944823], [-2.049435, 46.943606], [-2.051389, 46.941939], [-2.051363, 46.941513], [-2.052696, 46.940587], [-2.05483, 46.940252], [-2.057344, 46.940077], [-2.060573, 46.938098], [-2.064613, 46.937485], [-2.067431, 46.936491], [-2.070619, 46.936189], [-2.07109, 46.936028], [-2.070807, 46.935074], [-2.071381, 46.934615], [-2.071991, 46.934968], [-2.073231, 46.934544], [-2.07515, 46.934587], [-2.07778, 46.933471], [-2.079309, 46.934041], [-2.080468, 46.933894], [-2.08397, 46.93302], [-2.08454, 46.933084], [-2.085665, 46.932909], [-2.088527, 46.931783], [-2.090537, 46.930543], [-2.09096, 46.9305], [-2.091398, 46.930225], [-2.093168, 46.928166], [-2.094374, 46.927124], [-2.093276, 46.925029], [-2.091655, 46.922593], [-2.092372, 46.922381], [-2.092694, 46.921963], [-2.092735, 46.921588], [-2.094383, 46.92108], [-2.100392, 46.919774], [-2.101277, 46.919788], [-2.106822, 46.922674], [-2.114226, 46.927634], [-2.134696, 46.933862], [-2.147476, 46.933893], [-2.148163, 46.933711], [-2.147492, 46.934072], [-2.147464, 46.934322], [-2.148118, 46.935099], [-2.149697, 46.937811], [-2.149073, 46.937961], [-2.148558, 46.938293], [-2.148448, 46.938496], [-2.148571, 46.939087], [-2.149314, 46.939535], [-2.150595, 46.939384], [-2.150743, 46.939505], [-2.157023, 46.950023], [-2.168511, 46.955348], [-2.176827, 46.958389], [-2.184384, 46.95986], [-2.210609, 46.969643], [-2.210917, 46.969498], [-2.211911, 46.969817], [-2.212138, 46.969922], [-2.211961, 46.970117], [-2.212383, 46.970306], [-2.226043, 46.9761], [-2.229218, 46.973432], [-2.230328, 46.972951], [-2.23178, 46.973829], [-2.232663, 46.973126], [-2.23452, 46.973712], [-2.235613, 46.973811], [-2.235974, 46.973733], [-2.236462, 46.972866], [-2.238552, 46.973231], [-2.239571, 46.973226], [-2.240572, 46.974754], [-2.240922, 46.975059], [-2.241346, 46.975114], [-2.241278, 46.975734], [-2.241659, 46.976134], [-2.241864, 46.976723], [-2.243375, 46.979032], [-2.24386, 46.979488], [-2.246633, 46.98123], [-2.246751, 46.981661], [-2.24595, 46.982563], [-2.245964, 46.983062], [-2.246935, 46.984387], [-2.249133, 46.986068], [-2.249653, 46.98701], [-2.249647, 46.987781], [-2.249293, 46.98847], [-2.24879, 46.9892], [-2.24842, 46.989224], [-2.247105, 46.990435], [-2.24666, 46.991386], [-2.247197, 46.994428], [-2.247117, 46.99467], [-2.247817, 46.997406], [-2.247598, 46.997812], [-2.24795, 46.998096], [-2.248143, 46.999065], [-2.247846, 46.99984], [-2.244685, 46.999372], [-2.244354, 46.999707], [-2.244468, 46.999931], [-2.244171, 47.000095]]}, "properties": {"name": "Pornic ➡️ Noirmoutier-en-l'Île", "source_file": "velodyssee_etape-3_pornic_noirmoutier.gpx", "point_count": 988, "distance_km": 53.78, "duration_s": 8994, "elevation_gain_m": 76.1, "elevation_loss_m": 87.9}}]}
